{"type": "FeatureCollection", "features": [{"type": "Feature", "properties": {"name": "Baths of the Filadelfes", "building_use": "public baths", "certainty": "confirmed", "plan_source": "Traced from georeferenced satellite imagery", "notes": "Fr: Thermes des Philadelphes - SE quarter; name from a mosaic inscription of the Filadelfes.", "area_sqm": 2860.1}, "geometry": {"type": "Polygon", "coordinates": [[[6.4671602, 35.4868669], [6.4670441, 35.4875411], [6.4666273, 35.4874723], [6.4667513, 35.4868091], [6.4671602, 35.4868669]]]}}, {"type": "Feature", "properties": {"name": "Large northern baths", "building_use": "public baths", "period": "2nd c. CE", "certainty": "confirmed", "plan_source": "Traced from georeferenced satellite imagery", "notes": "Fr: Grands thermes du Nord - Largest bath complex at Timgad, north of the Cirta gate; symmetrical imperial-type plan.", "area_sqm": 4618.2}, "geometry": {"type": "Polygon", "coordinates": [[[6.4672821, 35.4876672], [6.4681434, 35.4877232], [6.4681941, 35.4872155], [6.4679571, 35.4871988], [6.4679327, 35.4871249], [6.467608, 35.4871046], [6.467601, 35.487205], [6.4673254, 35.4871914], [6.4672821, 35.4876672]]]}}, {"type": "Feature", "properties": {"name": "North-eastern Baths", "building_use": "public baths", "certainty": "confirmed", "plan_source": "Traced from georeferenced satellite imagery", "notes": "Fr: Thermes du Nord-Est - Neighbourhood baths, NE quarter.", "area_sqm": 431.9}, "geometry": {"type": "Polygon", "coordinates": [[[6.4701697, 35.4865671], [6.4704061, 35.4865836], [6.4703817, 35.4867635], [6.4701452, 35.486746], [6.4701697, 35.4865671]]]}}, {"type": "Feature", "properties": {"name": "Large eastern baths", "building_use": "public baths", "certainty": "confirmed", "plan_source": "Traced from georeferenced satellite imagery", "notes": "Fr: Grands thermes de l'Est - Large baths of the eastern quarter.", "area_sqm": 2733.7}, "geometry": {"type": "Polygon", "coordinates": [[[6.4699934, 35.4852908], [6.4705372, 35.4853212], [6.4704745, 35.485829], [6.4699398, 35.4857798], [6.4699934, 35.4852908]]]}}, {"type": "Feature", "properties": {"name": "Small northern baths", "building_use": "public baths", "certainty": "confirmed", "plan_source": "Traced from georeferenced satellite imagery", "notes": "Fr: Petits thermes du Nord - Neighbourhood baths, N quarter.", "area_sqm": 519.5}, "geometry": {"type": "Polygon", "coordinates": [[[6.4689225, 35.4866691], [6.4689398, 35.4864741], [6.468679, 35.4864559], [6.4686573, 35.4866499], [6.4689225, 35.4866691]]]}}, {"type": "Feature", "properties": {"name": "Small eastern baths", "building_use": "public baths", "certainty": "confirmed", "plan_source": "Traced from georeferenced satellite imagery", "notes": "Fr: Petits thermes de l'Est - Neighbourhood baths, E quarter.", "area_sqm": 431.8}, "geometry": {"type": "Polygon", "coordinates": [[[6.4697563, 35.4849313], [6.4699849, 35.4849481], [6.4700097, 35.484761], [6.4697791, 35.4847484], [6.4697563, 35.4849313]]]}}, {"type": "Feature", "properties": {"name": "Small central baths", "building_use": "public baths", "certainty": "confirmed", "plan_source": "Traced from georeferenced satellite imagery", "notes": "Fr: Petits thermes du Centre - Small baths near the grid centre.", "area_sqm": 421.2}, "geometry": {"type": "Polygon", "coordinates": [[[6.4682311, 35.4841506], [6.4680031, 35.4841272], [6.467981, 35.4843097], [6.4682143, 35.4843268], [6.4682311, 35.4841506]]]}}, {"type": "Feature", "properties": {"name": "Southern baths", "building_use": "public baths", "certainty": "confirmed", "plan_source": "Traced from georeferenced satellite imagery", "notes": "Fr: Thermes du Sud - Baths of the S quarter.", "area_sqm": 2213.6}, "geometry": {"type": "Polygon", "coordinates": [[[6.4679763, 35.4829884], [6.4682558, 35.4828169], [6.4682975, 35.4828117], [6.4683326, 35.4828235], [6.4683611, 35.4828549], [6.4683639, 35.4828824], [6.4683534, 35.4829069], [6.4683482, 35.4829178], [6.4684058, 35.4828812], [6.4684484, 35.482917], [6.4684571, 35.4829073], [6.4684741, 35.4829209], [6.4685075, 35.4828951], [6.468528, 35.4829133], [6.4685457, 35.4829041], [6.4685734, 35.4828979], [6.468603, 35.4828991], [6.4686231, 35.4829066], [6.4686404, 35.4829256], [6.4686464, 35.4829523], [6.4686401, 35.482976], [6.468629, 35.4829871], [6.4686186, 35.4829928], [6.4686443, 35.4830162], [6.4686338, 35.4830226], [6.4686929, 35.4830774], [6.4687171, 35.4831231], [6.4687173, 35.4831654], [6.4686993, 35.4832056], [6.4686692, 35.4832334], [6.4686371, 35.4832511], [6.4685955, 35.4832597], [6.4685569, 35.4832595], [6.4685137, 35.48325], [6.4684793, 35.4832328], [6.4684655, 35.4832191], [6.4684484, 35.4832041], [6.4684197, 35.4832244], [6.4683956, 35.4831982], [6.4683557, 35.483227], [6.4683239, 35.4831956], [6.4683167, 35.4832005], [6.4683049, 35.4831935], [6.4682691, 35.4832207], [6.4681642, 35.4832096], [6.4681499, 35.4832215], [6.4681214, 35.4832082], [6.4681062, 35.4832193], [6.4680682, 35.4831942], [6.4680783, 35.4831811], [6.4680862, 35.4831729], [6.4680557, 35.4831529], [6.4679771, 35.4829884], [6.4679763, 35.4829884]]]}}, {"type": "Feature", "properties": {"name": "Small southern baths", "building_use": "public baths", "certainty": "confirmed", "plan_source": "Traced from georeferenced satellite imagery", "notes": "Fr: Petits thermes du Sud - Small baths, S quarter.", "area_sqm": 368.3}, "geometry": {"type": "Polygon", "coordinates": [[[6.4687752, 35.4825174], [6.4688924, 35.4824262], [6.4688996, 35.48243], [6.4689387, 35.4824003], [6.4689016, 35.4823617], [6.4688929, 35.482362], [6.4688354, 35.482307], [6.4688219, 35.4822962], [6.4688595, 35.4822577], [6.4688291, 35.4822367], [6.4687849, 35.4822723], [6.468771, 35.4822665], [6.4687288, 35.4822989], [6.4687468, 35.4823127], [6.4687074, 35.4823468], [6.4687154, 35.482355], [6.4686785, 35.4823842], [6.4687102, 35.4824127], [6.4686867, 35.4824357], [6.4687752, 35.4825174]]]}}]}