{"type":"FeatureCollection","name":"colonnades","features":[{"type":"Feature","id":1,"properties":{"insula_id":"TIMG.E-SW.I2","building_id":"Entrepot"},"geometry":{"type":"LineString","coordinates":[[6.4640537,35.4861035],[6.4641333,35.486154],[6.4639713,35.4863257]]}},{"type":"Feature","id":2,"properties":{"insula_id":"TIMG.E-SW.I2","building_id":"Entrepot","colonnade_type":"internal"},"geometry":{"type":"LineString","coordinates":[[6.4635127,35.4858655],[6.4636319,35.4859348]]}},{"type":"Feature","id":3,"properties":{"insula_id":"TIMG.E-SW.I2","building_id":"Entrepot","colonnade_type":"internal"},"geometry":{"type":"LineString","coordinates":[[6.4636295,35.4861084],[6.463768,35.4859641]]}},{"type":"Feature","id":4,"properties":{"insula_id":"TIMG.E-SW.I2","building_id":"Entrepot","colonnade_type":"external"},"geometry":{"type":"LineString","coordinates":[[6.4638431,35.4859566],[6.4637241,35.4859294]]}},{"type":"Feature","id":5,"properties":{"insula_id":"TIMG.E-SW.I2","building_id":"Entrepot","colonnade_type":"internal"},"geometry":{"type":"LineString","coordinates":[[6.4639573,35.486008],[6.4639227,35.4860531]]}},{"type":"Feature","id":6,"properties":{"insula_id":"TIMG.E-SW.I2","building_id":"Entrepot","colonnade_type":"internal"},"geometry":{"type":"LineString","coordinates":[[6.4635707,35.4860418],[6.4635298,35.4860843],[6.4633631,35.4859764]]}},{"type":"Feature","id":7,"properties":{"insula_id":"TIMG.E-SW.I2","building_id":"Entrepot","colonnade_type":"internal"},"geometry":{"type":"LineString","coordinates":[[6.463732,35.4861742],[6.463688,35.4861438]]}},{"type":"Feature","id":8,"properties":{"insula_id":"TIMG.E-SW.I2"},"geometry":{"type":"LineString","coordinates":[[6.4634953,35.4859921],[6.4635254,35.485959],[6.4634487,35.4859143],[6.4634224,35.4859445],[6.4634948,35.4859917]]}},{"type":"Feature","id":9,"properties":{"insula_id":"TIMG.E-SW.I1","description":"7 columns","plan_source":"Ballu 1903; 1905, 156; Germain 1969, fig. 6"},"geometry":{"type":"LineString","coordinates":[[6.4680157,35.4832637],[6.4680011,35.4834323]]}},{"type":"Feature","id":10,"properties":{"insula_id":"TIMG.E-SW.I1","description":"2 columns","plan_source":"Ballu 1903; 1905, 156; Germain 1969, fig. 6"},"geometry":{"type":"LineString","coordinates":[[6.4676169,35.4833962],[6.4676165,35.483367]]}},{"type":"Feature","id":11,"properties":{"insula_id":"TIMG.E-SW.I1","colonnade_type":"7 columns","plan_source":"Ballu 1903; 1905, 156; Germain 1969, fig. 6"},"geometry":{"type":"LineString","coordinates":[[6.4674266,35.4833473],[6.4676168,35.4833548]]}},{"type":"Feature","id":12,"properties":{"insula_id":"TIMG.E-SW.I1","description":"2 columns","plan_source":"Ballu 1903; 1905, 156; Germain 1969, fig. 6"},"geometry":{"type":"LineString","coordinates":[[6.4674224,35.4833875],[6.4674234,35.4833624]]}},{"type":"Feature","id":13,"properties":{"insula_id":"TIMG.E-SW.I1","description":"12 columns, not in Germain or Ballu plan though, check","plan_source":"Ballu 1903; 1905, 156; Germain 1969, fig. 6"},"geometry":{"type":"LineString","coordinates":[[6.4678399,35.4834337],[6.4678456,35.4833579],[6.4677346,35.4833514],[6.4677299,35.4834288],[6.4678395,35.4834337]]}},{"type":"Feature","id":14,"properties":{"insula_id":"TIMG.SW.I5","description":"I67-75 (formed by merging two adjacent insulae)","period":"Early Foundation (1st-2nd c.), modifications dated to 3rd c. (Germain 1969: 44) contemporary with Sertius house","plan_source":"BCB fig. 166 (partial--north ruined; south better preserved); Ballu 1903 pp. 168-169; Rebuffat 1969: 676; Germain 1969: 50","notes":"6 columns"},"geometry":{"type":"LineString","coordinates":[[6.4674423,35.4846645],[6.4674406,35.4846813],[6.4674376,35.4847014],[6.4674421,35.4847083],[6.4674522,35.4847126],[6.4674641,35.4847096],[6.4674703,35.484704],[6.4674747,35.4846658]]}},{"type":"Feature","id":15,"properties":{"insula_id":"TIMG.SW.I5","description":"I67-75 (formed by merging two adjacent insulae)","period":"Early Foundation (1st-2nd c.), modifications dated to 3rd c. (Germain 1969: 44) contemporary with Sertius house","plan_source":"BCB fig. 166 (partial--north ruined; south better preserved); Ballu 1903 pp. 168-169; Rebuffat 1969: 676; Germain 1969: 50","notes":"impluvium (piscina?)"},"geometry":{"type":"LineString","coordinates":[[6.4674451,35.4846625],[6.4674434,35.4846811],[6.4674413,35.4846973],[6.4674423,35.4847033],[6.4674463,35.4847062],[6.4674525,35.4847079],[6.4674582,35.4847075],[6.4674623,35.4847046],[6.4674652,35.4847],[6.4674675,35.4846926],[6.4674696,35.4846814],[6.4674705,35.4846734],[6.4674714,35.4846652],[6.4674454,35.4846625]]}},{"type":"Feature","id":16,"properties":{"insula_id":"TIMG.SW.I5","description":"I67-75 (formed by merging two adjacent insulae)","period":"Early Foundation (1st-2nd c.), modifications dated to 3rd c. (Germain 1969: 44) contemporary with Sertius house","plan_source":"BCB fig. 166 (partial--north ruined; south better preserved); Ballu 1903 pp. 168-169; Rebuffat 1969: 676; Germain 1969: 50","notes":"front colannade"},"geometry":{"type":"LineString","coordinates":[[6.4675324,35.485022],[6.4674962,35.4850194],[6.4674578,35.4850171],[6.4674202,35.4850146],[6.4673839,35.4850123],[6.4673462,35.4850095],[6.4673086,35.4850072]]}},{"type":"Feature","id":17,"properties":{"insula_id":"TIMG.E-SE.I4","description":"MN-12/13, single insula (Faubourg zone, theatre area)","period":"","plan_source":"Ballu 1903 pl. XXIII (II: 90-94); BCB fig. 152 (321-326); Germain 1969 fig. 7 (65-69)"},"geometry":{"type":"LineString","coordinates":[[6.4684691,35.4833979],[6.4686608,35.4834102],[6.4686502,35.4835279],[6.4684568,35.4835105],[6.4684668,35.483398]]}},{"type":"Feature","id":18,"properties":{"insula_id":"TIMG.E-SE.I4","description":"MN-12/13, single insula (Faubourg zone, theatre area)","period":"","plan_source":"Ballu 1903 pl. XXIII (II: 90-94); BCB fig. 152 (321-326); Germain 1969 fig. 7 (65-69)"},"geometry":{"type":"LineString","coordinates":[[6.4680616,35.4835229],[6.4680874,35.4832702]]}},{"type":"Feature","id":19,"properties":{"insula_id":"TIMG.E-SE.I4","description":"MN-12/13, single insula (Faubourg zone, theatre area)","period":"","plan_source":"Ballu 1903 pl. XXIII (II: 90-94); BCB fig. 152 (321-326); Germain 1969 fig. 7 (65-69)"},"geometry":{"type":"LineString","coordinates":[[6.4656275,35.4870612],[6.4654987,35.4870757],[6.4655181,35.4872095],[6.4656443,35.4871988]]}},{"type":"Feature","id":20,"properties":{"insula_id":"TIMG.E-SE.I5","description":"QR-14/15, single insula (Faubourg zone)","period":"","plan_source":"Ballu Rapport 1922: 47-53; Rapport 1923: 45-46, 48-51 (with plan); Germain 1969 fig. 10 (81-87)"},"geometry":{"type":"LineString","coordinates":[[6.4658183,35.487044],[6.4659735,35.487031],[6.4659772,35.4870748],[6.465826,35.487088],[6.4658205,35.4870445]]}},{"type":"Feature","id":21,"properties":{"insula_id":"TIMG.E-NW.I18","description":"N-17/18 (Germain 1969: 106), extramural NW; possibly collective building or baths complex (Germain 1969: 106-118)","period":"Peak Prosperity (3rd-4th c.); Late Empire restoration activity (Laghmouche 2024, Table 1)","plan_source":"Ballu Rapport 1925: 39 (plan); Germain 1969 fig. 15 (106-118); Ballu Rapport 1915 (BCTH 1916: 239-242, thermes); Rapport 1916 (BCTH 1917: 292-300)"},"geometry":{"type":"LineString","coordinates":[[6.4657519,35.4843721],[6.4658024,35.4841901]]}},{"type":"Feature","id":22,"properties":{"insula_id":"TIMG.E-NW.I18","description":"N-17/18 (Germain 1969: 106), extramural NW; possibly collective building or baths complex (Germain 1969: 106-118)","period":"Peak Prosperity (3rd-4th c.); Late Empire restoration activity (Laghmouche 2024, Table 1)","plan_source":"Ballu Rapport 1925: 39 (plan); Germain 1969 fig. 15 (106-118); Ballu Rapport 1915 (BCTH 1916: 239-242, thermes); Rapport 1916 (BCTH 1917: 292-300)"},"geometry":{"type":"LineString","coordinates":[[6.4656531,35.4846181],[6.4655574,35.4846033]]}},{"type":"Feature","id":23,"properties":{"insula_id":"TIMG.E-NW.I18","description":"N-17/18 (Germain 1969: 106), extramural NW; possibly collective building or baths complex (Germain 1969: 106-118)","period":"Peak Prosperity (3rd-4th c.); Late Empire restoration activity (Laghmouche 2024, Table 1)","plan_source":"Ballu Rapport 1925: 39 (plan); Germain 1969 fig. 15 (106-118); Ballu Rapport 1915 (BCTH 1916: 239-242, thermes); Rapport 1916 (BCTH 1917: 292-300)"},"geometry":{"type":"LineString","coordinates":[[6.4656388,35.4846596],[6.4655422,35.4846404]]}},{"type":"Feature","id":24,"properties":{"insula_id":"TIMG.E-NW.I18","description":"N-17/18 (Germain 1969: 106), extramural NW; possibly collective building or baths complex (Germain 1969: 106-118)","period":"Peak Prosperity (3rd-4th c.); Late Empire restoration activity (Laghmouche 2024, Table 1)","plan_source":"Ballu Rapport 1925: 39 (plan); Germain 1969 fig. 15 (106-118); Ballu Rapport 1915 (BCTH 1916: 239-242, thermes); Rapport 1916 (BCTH 1917: 292-300)"},"geometry":{"type":"LineString","coordinates":[[6.4654152,35.4847989],[6.4654338,35.4847167]]}},{"type":"Feature","id":25,"properties":{"insula_id":"TIMG.E-NW.I18","description":"N-17/18 (Germain 1969: 106), extramural NW; possibly collective building or baths complex (Germain 1969: 106-118)","period":"Peak Prosperity (3rd-4th c.); Late Empire restoration activity (Laghmouche 2024, Table 1)","plan_source":"Ballu Rapport 1925: 39 (plan); Germain 1969 fig. 15 (106-118); Ballu Rapport 1915 (BCTH 1916: 239-242, thermes); Rapport 1916 (BCTH 1917: 292-300)"},"geometry":{"type":"LineString","coordinates":[[6.4656547,35.4843234],[6.465684,35.4843292]]}}]}