{"type": "FeatureCollection", "features": [{"type": "Feature", "properties": {"insula_id": "TIMG.E-SW.I2", "description": "Entrepot", "plan_source": "Christofle_1930_59"}, "geometry": {"type": "LineString", "coordinates": [[6.46394, 35.4862924], [6.4639329, 35.4862864]]}}, {"type": "Feature", "properties": {"insula_id": "TIMG.E-SW.I2"}, "geometry": {"type": "LineString", "coordinates": [[6.4639601, 35.4862606], [6.4639543, 35.4862562]]}}, {"type": "Feature", "properties": {"insula_id": "TIMG.E-SW.I2"}, "geometry": {"type": "LineString", "coordinates": [[6.4639154, 35.4862699], [6.4639245, 35.4862613]]}}, {"type": "Feature", "properties": {"insula_id": "TIMG.E-SW.I2"}, "geometry": {"type": "LineString", "coordinates": [[6.4639225, 35.4862363], [6.4639164, 35.4862333]]}}, {"type": "Feature", "properties": {"insula_id": "TIMG.E-SW.I2"}, "geometry": {"type": "LineString", "coordinates": [[6.4639915, 35.4862554], [6.4640233, 35.4862202]]}}, {"type": "Feature", "properties": {"insula_id": "TIMG.E-SW.I2"}, "geometry": {"type": "LineString", "coordinates": [[6.4640301, 35.4861788], [6.4640197, 35.4861737]]}}, {"type": "Feature", "properties": {}, "geometry": {"type": "LineString", "coordinates": [[6.4639773, 35.4861494], [6.4639644, 35.486141]]}}, {"type": "Feature", "properties": {"insula_id": "TIMG.E-SW.I2"}, "geometry": {"type": "LineString", "coordinates": [[6.4639987, 35.4861451], [6.463991, 35.4861535]]}}, {"type": "Feature", "properties": {"insula_id": "TIMG.E-SW.I2"}, "geometry": {"type": "LineString", "coordinates": [[6.464047, 35.4861125], [6.4640389, 35.4861196]]}}, {"type": "Feature", "properties": {"insula_id": "TIMG.E-SW.I2"}, "geometry": {"type": "LineString", "coordinates": [[6.464022, 35.4861145], [6.4640138, 35.4861083]]}}, {"type": "Feature", "properties": {"insula_id": "TIMG.E-SW.I2"}, "geometry": {"type": "LineString", "coordinates": [[6.4640064, 35.4861322], [6.4640003, 35.4861282]]}}, {"type": "Feature", "properties": {"insula_id": "TIMG.E-SW.I2"}, "geometry": {"type": "LineString", "coordinates": [[6.4638754, 35.4862512], [6.4638673, 35.4862466]]}}, {"type": "Feature", "properties": {"insula_id": "TIMG.E-SW.I2"}, "geometry": {"type": "LineString", "coordinates": [[6.463746, 35.4862579], [6.4637407, 35.4862652]]}}, {"type": "Feature", "properties": {"insula_id": "TIMG.E-SW.I2"}, "geometry": {"type": "LineString", "coordinates": [[6.4637536, 35.4862407], [6.4637445, 35.4862338]]}}, {"type": "Feature", "properties": {"insula_id": "TIMG.E-SW.I2"}, "geometry": {"type": "LineString", "coordinates": [[6.4638185, 35.4862535], [6.4638135, 35.4862501]]}}, {"type": "Feature", "properties": {}, "geometry": {"type": "LineString", "coordinates": [[6.4637873, 35.4862127], [6.4637769, 35.4862057]]}}, {"type": "Feature", "properties": {"insula_id": "TIMG.E-SW.I2"}, "geometry": {"type": "LineString", "coordinates": [[6.4637689, 35.4862055], [6.4637632, 35.4862108]]}}, {"type": "Feature", "properties": {"insula_id": "TIMG.E-SW.I2"}, "geometry": {"type": "LineString", "coordinates": [[6.4637227, 35.4862259], [6.4637149, 35.4862197]]}}, {"type": "Feature", "properties": {"insula_id": "TIMG.E-SW.I2"}, "geometry": {"type": "LineString", "coordinates": [[6.4636783, 35.4862291], [6.4636673, 35.4862398]]}}, {"type": "Feature", "properties": {"insula_id": "TIMG.E-SW.I2"}, "geometry": {"type": "LineString", "coordinates": [[6.4637609, 35.486195], [6.4637532, 35.486191]]}}, {"type": "Feature", "properties": {"insula_id": "TIMG.E-SW.I2"}, "geometry": {"type": "LineString", "coordinates": [[6.4638876, 35.4862159], [6.4638967, 35.4862215]]}}, {"type": "Feature", "properties": {"insula_id": "TIMG.E-SW.I2"}, "geometry": {"type": "LineString", "coordinates": [[6.463862, 35.4862252], [6.4638724, 35.4862165]]}}, {"type": "Feature", "properties": {"insula_id": "TIMG.E-SW.I2"}, "geometry": {"type": "LineString", "coordinates": [[6.4638548, 35.4862348], [6.4638589, 35.4862314]]}}, {"type": "Feature", "properties": {"insula_id": "TIMG.E-SW.I2"}, "geometry": {"type": "LineString", "coordinates": [[6.4637038, 35.4862001], [6.4637123, 35.4861932]]}}, {"type": "Feature", "properties": {"insula_id": "TIMG.E-SW.I2"}, "geometry": {"type": "LineString", "coordinates": [[6.4639272, 35.4861634], [6.4639083, 35.4861809]]}}, {"type": "Feature", "properties": {"insula_id": "TIMG.E-SW.I2"}, "geometry": {"type": "LineString", "coordinates": [[6.463967, 35.4861183], [6.4639544, 35.4861304]]}}, {"type": "Feature", "properties": {"insula_id": "TIMG.E-SW.I2"}, "geometry": {"type": "LineString", "coordinates": [[6.4639694, 35.4861121], [6.4639765, 35.4861058]]}}, {"type": "Feature", "properties": {"insula_id": "TIMG.E-SW.I2"}, "geometry": {"type": "LineString", "coordinates": [[6.4639509, 35.4860718], [6.4639389, 35.4860652]]}}, {"type": "Feature", "properties": {"insula_id": "TIMG.E-SW.I2"}, "geometry": {"type": "LineString", "coordinates": [[6.4639007, 35.4860452], [6.4638865, 35.4860371]]}}, {"type": "Feature", "properties": {"insula_id": "TIMG.E-SW.I2"}, "geometry": {"type": "LineString", "coordinates": [[6.4637315, 35.4859404], [6.4637441, 35.4859483]]}}, {"type": "Feature", "properties": {"insula_id": "TIMG.E-SW.I2"}, "geometry": {"type": "LineString", "coordinates": [[6.4636437, 35.486199], [6.4636344, 35.4861932]]}}, {"type": "Feature", "properties": {"insula_id": "TIMG.E-SW.I2"}, "geometry": {"type": "LineString", "coordinates": [[6.463579, 35.4862089], [6.4635675, 35.486202]]}}, {"type": "Feature", "properties": {"insula_id": "TIMG.E-SW.I2"}, "geometry": {"type": "LineString", "coordinates": [[6.4635991, 35.4861692], [6.4636073, 35.4861614]]}}, {"type": "Feature", "properties": {"insula_id": "TIMG.E-SW.I2"}, "geometry": {"type": "LineString", "coordinates": [[6.463591, 35.4861787], [6.4635859, 35.4861839]]}}, {"type": "Feature", "properties": {"insula_id": "TIMG.E-SW.I2"}, "geometry": {"type": "LineString", "coordinates": [[6.4636144, 35.4861582], [6.4636229, 35.4861635]]}}, {"type": "Feature", "properties": {"insula_id": "TIMG.E-SW.I2"}, "geometry": {"type": "LineString", "coordinates": [[6.4636582, 35.4861313], [6.4636493, 35.4861266]]}}, {"type": "Feature", "properties": {"insula_id": "TIMG.E-SW.I2"}, "geometry": {"type": "LineString", "coordinates": [[6.4636067, 35.4860983], [6.4635994, 35.4860941]]}}, {"type": "Feature", "properties": {"insula_id": "TIMG.E-SW.I2"}, "geometry": {"type": "LineString", "coordinates": [[6.463552, 35.4861116], [6.4635579, 35.4861057]]}}, {"type": "Feature", "properties": {"insula_id": "TIMG.E-SW.I2"}, "geometry": {"type": "LineString", "coordinates": [[6.463499, 35.486101], [6.4634929, 35.4860965]]}}, {"type": "Feature", "properties": {"insula_id": "TIMG.E-SW.I2"}, "geometry": {"type": "LineString", "coordinates": [[6.4634657, 35.4861369], [6.4634574, 35.4861315]]}}, {"type": "Feature", "properties": {"insula_id": "TIMG.E-SW.I2"}, "geometry": {"type": "LineString", "coordinates": [[6.4633681, 35.4861226], [6.4633747, 35.4861147]]}}, {"type": "Feature", "properties": {"insula_id": "TIMG.E-SW.I2"}, "geometry": {"type": "LineString", "coordinates": [[6.463411, 35.4860752], [6.4634048, 35.4860814]]}}, {"type": "Feature", "properties": {"insula_id": "TIMG.E-SW.I2"}, "geometry": {"type": "LineString", "coordinates": [[6.4634144, 35.4860463], [6.4634037, 35.4860402]]}}, {"type": "Feature", "properties": {"insula_id": "TIMG.E-SW.I2"}, "geometry": {"type": "LineString", "coordinates": [[6.4635896, 35.4860729], [6.4635805, 35.4860807]]}}, {"type": "Feature", "properties": {"insula_id": "TIMG.E-SW.I2"}, "geometry": {"type": "LineString", "coordinates": [[6.4636069, 35.4860522], [6.4636116, 35.4860481]]}}, {"type": "Feature", "properties": {"insula_id": "TIMG.E-SW.I2"}, "geometry": {"type": "LineString", "coordinates": [[6.463632, 35.4860298], [6.4636429, 35.4860166]]}}, {"type": "Feature", "properties": {"insula_id": "TIMG.E-SW.I2"}, "geometry": {"type": "LineString", "coordinates": [[6.4636597, 35.4859967], [6.4636563, 35.4860016]]}}, {"type": "Feature", "properties": {"insula_id": "TIMG.E-SW.I2"}, "geometry": {"type": "LineString", "coordinates": [[6.4636557, 35.4859918], [6.4636464, 35.4859869]]}}, {"type": "Feature", "properties": {"insula_id": "TIMG.E-SW.I2"}, "geometry": {"type": "LineString", "coordinates": [[6.4636891, 35.4859636], [6.4636752, 35.4859559]]}}, {"type": "Feature", "properties": {"insula_id": "TIMG.E-SW.I2"}, "geometry": {"type": "LineString", "coordinates": [[6.4636992, 35.4859576], [6.4637079, 35.4859486]]}}, {"type": "Feature", "properties": {"insula_id": "TIMG.E-SW.I2"}, "geometry": {"type": "LineString", "coordinates": [[6.4635176, 35.4858588], [6.4635127, 35.4858655]]}}, {"type": "Feature", "properties": {"insula_id": "TIMG.E-SW.I2"}, "geometry": {"type": "LineString", "coordinates": [[6.4634443, 35.4858759], [6.4634499, 35.4858693]]}}, {"type": "Feature", "properties": {"insula_id": "TIMG.E-SW.I2"}, "geometry": {"type": "LineString", "coordinates": [[6.4636109, 35.4859642], [6.463622, 35.4859527]]}}, {"type": "Feature", "properties": {"insula_id": "TIMG.E-SW.I2"}, "geometry": {"type": "LineString", "coordinates": [[6.4636257, 35.4859475], [6.4636298, 35.4859426]]}}, {"type": "Feature", "properties": {"insula_id": "TIMG.E-SW.I2"}, "geometry": {"type": "LineString", "coordinates": [[6.463335, 35.4860518], [6.4633518, 35.486063]]}}, {"type": "Feature", "properties": {"insula_id": "TIMG.E-SW.I2"}, "geometry": {"type": "LineString", "coordinates": [[6.4633315, 35.486016], [6.4633368, 35.4860114]]}}, {"type": "Feature", "properties": {"insula_id": "TIMG.E-SW.I2"}, "geometry": {"type": "LineString", "coordinates": [[6.4633053, 35.4860298], [6.4632986, 35.4860251]]}}, {"type": "Feature", "properties": {"insula_id": "TIMG.E-SW.I2"}, "geometry": {"type": "LineString", "coordinates": [[6.463335, 35.4860081], [6.4633286, 35.4860038]]}}, {"type": "Feature", "properties": {"insula_id": "TIMG.E-SW.I2"}, "geometry": {"type": "LineString", "coordinates": [[6.4633118, 35.4859959], [6.4633051, 35.4859894]]}}, {"type": "Feature", "properties": {"insula_id": "TIMG.E-SW.I2"}, "geometry": {"type": "LineString", "coordinates": [[6.4632924, 35.4859754], [6.4632862, 35.4859719]]}}, {"type": "Feature", "properties": {"insula_id": "TIMG.E-SW.I2"}, "geometry": {"type": "LineString", "coordinates": [[6.4632507, 35.485962], [6.4632438, 35.4859583]]}}, {"type": "Feature", "properties": {"insula_id": "TIMG.E-SW.I2"}, "geometry": {"type": "LineString", "coordinates": [[6.4632899, 35.4859318], [6.4632828, 35.4859279]]}}, {"type": "Feature", "properties": {"insula_id": "TIMG.E-SW.I2"}, "geometry": {"type": "LineString", "coordinates": [[6.463309, 35.4859175], [6.4633156, 35.4859103]]}}, {"type": "Feature", "properties": {"insula_id": "TIMG.E-SW.I2"}, "geometry": {"type": "LineString", "coordinates": [[6.4633336, 35.4859147], [6.4633387, 35.4859177]]}}, {"type": "Feature", "properties": {"insula_id": "TIMG.E-SW.I2"}, "geometry": {"type": "LineString", "coordinates": [[6.4633526, 35.485939], [6.4633444, 35.485947]]}}, {"type": "Feature", "properties": {"insula_id": "TIMG.E-SW.I2"}, "geometry": {"type": "LineString", "coordinates": [[6.4633523, 35.4859627], [6.4633602, 35.4859668]]}}, {"type": "Feature", "properties": {"insula_id": "TIMG.E-SW.I2"}, "geometry": {"type": "LineString", "coordinates": [[6.4633904, 35.4859516], [6.4633992, 35.4859442]]}}, {"type": "Feature", "properties": {"insula_id": "TIMG.E-SW.I2"}, "geometry": {"type": "LineString", "coordinates": [[6.4634257, 35.4859209], [6.4634362, 35.4859121]]}}, {"type": "Feature", "properties": {"insula_id": "TIMG.E-SW.I2"}, "geometry": {"type": "LineString", "coordinates": [[6.4632888, 35.4859571], [6.4632913, 35.4859544]]}}, {"type": "Feature", "properties": {"insula_id": "TIMG.E-SW.I2"}, "geometry": {"type": "LineString", "coordinates": [[6.4633745, 35.4859067], [6.4633661, 35.4859177]]}}, {"type": "Feature", "properties": {"insula_id": "TIMG.E-SW.I2"}, "geometry": {"type": "LineString", "coordinates": [[6.4633952, 35.4858776], [6.4634028, 35.4858688]]}}, {"type": "Feature", "properties": {"insula_id": "TIMG.E-SW.I2"}, "geometry": {"type": "LineString", "coordinates": [[6.4633831, 35.4858487], [6.4633905, 35.4858401]]}}, {"type": "Feature", "properties": {"insula_id": "TIMG.E-SW.I1", "description": "external", "plan_source": "Ballu 1903; 1905, 156; Germain 1969, fig. 6"}, "geometry": {"type": "LineString", "coordinates": [[6.4677008, 35.4835617], [6.4677294, 35.4835647]]}}, {"type": "Feature", "properties": {"insula_id": "TIMG.E-SW.I1", "description": "external", "plan_source": "Ballu 1903; 1905, 156; Germain 1969, fig. 6"}, "geometry": {"type": "LineString", "coordinates": [[6.4677572, 35.4835659], [6.4677948, 35.4835682]]}}, {"type": "Feature", "properties": {"insula_id": "TIMG.E-SW.I1", "plan_source": "Ballu 1903; 1905, 156; Germain 1969, fig. 6"}, "geometry": {"type": "LineString", "coordinates": [[6.4673019, 35.4834558], [6.4673025, 35.4834423]]}}, {"type": "Feature", "properties": {"insula_id": "TIMG.E-SW.I1", "description": "internal", "plan_source": "Ballu 1903; 1905, 156; Germain 1969, fig. 6"}, "geometry": {"type": "LineString", "coordinates": [[6.4674208, 35.483463], [6.4674352, 35.4834645]]}}, {"type": "Feature", "properties": {"insula_id": "TIMG.E-SW.I1", "description": "external", "plan_source": "Ballu 1903; 1905, 156; Germain 1969, fig. 6"}, "geometry": {"type": "LineString", "coordinates": [[6.4673926, 35.4832185], [6.4674226, 35.4832215]]}}, {"type": "Feature", "properties": {"insula_id": "TIMG.E-SW.I1", "description": "external", "plan_source": "Ballu 1903; 1905, 156; Germain 1969, fig. 6"}, "geometry": {"type": "LineString", "coordinates": [[6.4674828, 35.483224], [6.4675, 35.4832249]]}}, {"type": "Feature", "properties": {"insula_id": "TIMG.E-SW.I1", "description": "external", "plan_source": "Ballu 1903; 1905, 156; Germain 1969, fig. 6"}, "geometry": {"type": "LineString", "coordinates": [[6.4676518, 35.4832344], [6.4676736, 35.4832367]]}}, {"type": "Feature", "properties": {"insula_id": "TIMG.E-SW.I1", "description": "external", "plan_source": "Ballu 1903; 1905, 156; Germain 1969, fig. 6"}, "geometry": {"type": "LineString", "coordinates": [[6.4679089, 35.4832555], [6.467927, 35.483257]]}}, {"type": "Feature", "properties": {"insula_id": "TIMG.E-SW.I1", "description": "external", "plan_source": "Ballu 1903; 1905, 156; Germain 1969, fig. 6"}, "geometry": {"type": "LineString", "coordinates": [[6.4678342, 35.483248], [6.4678211, 35.4832474]]}}, {"type": "Feature", "properties": {"insula_id": "TIMG.E-SW.I1", "description": "external", "plan_source": "Ballu 1903; 1905, 156; Germain 1969, fig. 6"}, "geometry": {"type": "LineString", "coordinates": [[6.4679858, 35.4833059], [6.4679894, 35.4832897]]}}, {"type": "Feature", "properties": {"insula_id": "TIMG.E-SW.I1", "description": "external", "plan_source": "Ballu 1903; 1905, 156; Germain 1969, fig. 6"}, "geometry": {"type": "LineString", "coordinates": [[6.4678875, 35.4832533], [6.4678735, 35.4832512]]}}, {"type": "Feature", "properties": {"insula_id": "TIMG.E-SW.I1", "description": "external", "plan_source": "Ballu 1903; 1905, 156; Germain 1969, fig. 6"}, "geometry": {"type": "LineString", "coordinates": [[6.4679913, 35.4835666], [6.4679921, 35.4835513]]}}, {"type": "Feature", "properties": {"insula_id": "TIMG.E-SW.I1", "description": "external", "plan_source": "Ballu 1903; 1905, 156; Germain 1969, fig. 6"}, "geometry": {"type": "LineString", "coordinates": [[6.4679948, 35.4835341], [6.4679978, 35.4835171]]}}, {"type": "Feature", "properties": {"insula_id": "TIMG.E-SW.I1", "description": "external", "plan_source": "Ballu 1903; 1905, 156; Germain 1969, fig. 6"}, "geometry": {"type": "LineString", "coordinates": [[6.4680002, 35.4834836], [6.4680015, 35.483471]]}}, {"type": "Feature", "properties": {"insula_id": "TIMG.E-SW.I1", "description": "external", "plan_source": "Ballu 1903; 1905, 156; Germain 1969, fig. 6"}, "geometry": {"type": "LineString", "coordinates": [[6.4679862, 35.4834616], [6.4679726, 35.4834577]]}}, {"type": "Feature", "properties": {"insula_id": "TIMG.E-SW.I1", "description": "external", "plan_source": "Ballu 1903; 1905, 156; Germain 1969, fig. 6"}, "geometry": {"type": "LineString", "coordinates": [[6.4679733, 35.4834388], [6.4679748, 35.483429]]}}, {"type": "Feature", "properties": {"insula_id": "TIMG.E-SW.I1", "description": "external", "plan_source": "Ballu 1903; 1905, 156; Germain 1969, fig. 6"}, "geometry": {"type": "LineString", "coordinates": [[6.4679767, 35.4833963], [6.4679801, 35.4833743]]}}, {"type": "Feature", "properties": {"insula_id": "TIMG.E-SW.I1", "description": "internal", "plan_source": "Ballu 1903; 1905, 156; Germain 1969, fig. 6"}, "geometry": {"type": "LineString", "coordinates": [[6.4673162, 35.4834212], [6.4673047, 35.4834201]]}}, {"type": "Feature", "properties": {"insula_id": "TIMG.E-SW.I1", "description": "internal", "plan_source": "Ballu 1903; 1905, 156; Germain 1969, fig. 6"}, "geometry": {"type": "LineString", "coordinates": [[6.4674394, 35.4834283], [6.467423, 35.4834268]]}}, {"type": "Feature", "properties": {"insula_id": "TIMG.E-SW.I1", "description": "internal", "plan_source": "Ballu 1903; 1905, 156; Germain 1969, fig. 6"}, "geometry": {"type": "LineString", "coordinates": [[6.4674432, 35.4834054], [6.4674217, 35.4834064]]}}, {"type": "Feature", "properties": {"insula_id": "TIMG.E-SW.I1", "description": "internal", "plan_source": "Ballu 1903; 1905, 156; Germain 1969, fig. 6"}, "geometry": {"type": "LineString", "coordinates": [[6.4674755, 35.4833173], [6.467491, 35.4833184]]}}, {"type": "Feature", "properties": {"insula_id": "TIMG.E-SW.I1", "description": "internal", "plan_source": "Ballu 1903; 1905, 156; Germain 1969, fig. 6"}, "geometry": {"type": "LineString", "coordinates": [[6.4675077, 35.4833195], [6.4675166, 35.4833202]]}}, {"type": "Feature", "properties": {"insula_id": "TIMG.E-SW.I1", "description": "internal", "plan_source": "Ballu 1903; 1905, 156; Germain 1969, fig. 6"}, "geometry": {"type": "LineString", "coordinates": [[6.4675986, 35.4833265], [6.4676159, 35.4833284]]}}, {"type": "Feature", "properties": {"insula_id": "TIMG.E-SW.I1", "description": "internal", "plan_source": "Ballu 1903; 1905, 156; Germain 1969, fig. 6"}, "geometry": {"type": "LineString", "coordinates": [[6.4679382, 35.4834362], [6.4679392, 35.4834252]]}}, {"type": "Feature", "properties": {"insula_id": "TIMG.E-SW.I1", "description": "internal", "plan_source": "Ballu 1903; 1905, 156; Germain 1969, fig. 6"}, "geometry": {"type": "LineString", "coordinates": [[6.4679361, 35.4834835], [6.4679374, 35.48347]]}}, {"type": "Feature", "properties": {"insula_id": "TIMG.E-SW.I1", "description": "internal", "plan_source": "Ballu 1903; 1905, 156; Germain 1969, fig. 6"}, "geometry": {"type": "LineString", "coordinates": [[6.4678878, 35.48354], [6.4678865, 35.4835302]]}}, {"type": "Feature", "properties": {"insula_id": "TIMG.E-SW.I1", "description": "internal", "plan_source": "Ballu 1903; 1905, 156; Germain 1969, fig. 6"}, "geometry": {"type": "LineString", "coordinates": [[6.4677131, 35.4834528], [6.4676973, 35.4834523]]}}, {"type": "Feature", "properties": {"insula_id": "TIMG.E-SW.I1", "description": "internal", "plan_source": "Ballu 1903; 1905, 156; Germain 1969, fig. 6"}, "geometry": {"type": "LineString", "coordinates": [[6.4677089, 35.4834865], [6.4676943, 35.4834838]]}}, {"type": "Feature", "properties": {"insula_id": "TIMG.E-SW.I1", "description": "internal", "plan_source": "Ballu 1903; 1905, 156; Germain 1969, fig. 6"}, "geometry": {"type": "LineString", "coordinates": [[6.4677706, 35.4834897], [6.4677988, 35.4834942]]}}, {"type": "Feature", "properties": {"insula_id": "TIMG.E-SW.I1", "description": "internal", "plan_source": "Ballu 1903; 1905, 156; Germain 1969, fig. 6"}, "geometry": {"type": "LineString", "coordinates": [[6.4677867, 35.483457], [6.4677685, 35.4834563]]}}, {"type": "Feature", "properties": {"insula_id": "TIMG.E-SW.I1", "description": "internal", "plan_source": "Ballu 1903; 1905, 156; Germain 1969, fig. 6"}, "geometry": {"type": "LineString", "coordinates": [[6.4678762, 35.4834229], [6.4678766, 35.4834118]]}}, {"type": "Feature", "properties": {"insula_id": "TIMG.E-SW.I1", "description": "internal", "plan_source": "Ballu 1903; 1905, 156; Germain 1969, fig. 6"}, "geometry": {"type": "LineString", "coordinates": [[6.4678767, 35.4833937], [6.4678802, 35.4833744]]}}, {"type": "Feature", "properties": {"insula_id": "TIMG.E-SW.I1", "description": "internal", "plan_source": "Ballu 1903; 1905, 156; Germain 1969, fig. 6"}, "geometry": {"type": "LineString", "coordinates": [[6.4678521, 35.4832661], [6.467853, 35.4832577]]}}, {"type": "Feature", "properties": {"insula_id": "TIMG.E-SW.I1", "description": "internal", "plan_source": "Ballu 1903; 1905, 156; Germain 1969, fig. 6"}, "geometry": {"type": "LineString", "coordinates": [[6.4678185, 35.4832657], [6.4678198, 35.4832558]]}}, {"type": "Feature", "properties": {"insula_id": "TIMG.E-SW.I1", "description": "internal", "plan_source": "Ballu 1903; 1905, 156; Germain 1969, fig. 6"}, "geometry": {"type": "LineString", "coordinates": [[6.4677237, 35.4833067], [6.4677255, 35.4832947]]}}, {"type": "Feature", "properties": {"insula_id": "TIMG.E-SW.I1", "description": "internal", "plan_source": "Ballu 1903; 1905, 156; Germain 1969, fig. 6"}, "geometry": {"type": "LineString", "coordinates": [[6.4676656, 35.4832614], [6.4676736, 35.4832367]]}}, {"type": "Feature", "properties": {"insula_id": "TIMG.E-SW.I1", "description": "internal", "plan_source": "Ballu 1903; 1905, 156; Germain 1969, fig. 6"}, "geometry": {"type": "LineString", "coordinates": [[6.4676804, 35.4833002], [6.4676759, 35.4833198]]}}, {"type": "Feature", "properties": {"insula_id": "TIMG.E-SW.I1", "description": "internal", "plan_source": "Ballu 1903; 1905, 156; Germain 1969, fig. 6"}, "geometry": {"type": "LineString", "coordinates": [[6.4676086, 35.4832446], [6.4676085, 35.4832317]]}}, {"type": "Feature", "properties": {"insula_id": "TIMG.E-SW.I1", "description": "internal", "plan_source": "Ballu 1903; 1905, 156; Germain 1969, fig. 6"}, "geometry": {"type": "LineString", "coordinates": [[6.4675275, 35.4835134], [6.467532, 35.4835032]]}}, {"type": "Feature", "properties": {"insula_id": "TIMG.E-SW.I1", "description": "internal", "plan_source": "Ballu 1903; 1905, 156; Germain 1969, fig. 6"}, "geometry": {"type": "LineString", "coordinates": [[6.4674001, 35.4833391], [6.467428, 35.483342]]}}, {"type": "Feature", "properties": {"insula_id": "TIMG.E-SW.I1", "description": "internal", "plan_source": "Ballu 1903; 1905, 156; Germain 1969, fig. 6"}, "geometry": {"type": "LineString", "coordinates": [[6.4675202, 35.4832665], [6.4675298, 35.4832667]]}}, {"type": "Feature", "properties": {"insula_id": "TIMG.E-SW.I1", "description": "internal", "plan_source": "Ballu 1903; 1905, 156; Germain 1969, fig. 6"}, "geometry": {"type": "LineString", "coordinates": [[6.4676456, 35.4833486], [6.4676501, 35.4833305]]}}, {"type": "Feature", "properties": {"insula_id": "TIMG.E-SW.I1", "description": "internal", "plan_source": "Ballu 1903; 1905, 156; Germain 1969, fig. 6"}, "geometry": {"type": "LineString", "coordinates": [[6.4678573, 35.4834617], [6.4678739, 35.4834617]]}}, {"type": "Feature", "properties": {"insula_id": "TIMG.E-SW.I1", "description": "internal", "plan_source": "Ballu 1903; 1905, 156; Germain 1969, fig. 6"}, "geometry": {"type": "LineString", "coordinates": [[6.467566, 35.483513], [6.4675275, 35.4835134]]}}, {"type": "Feature", "properties": {"insula_id": "TIMG.E-SW.I1", "description": "internal", "plan_source": "Ballu 1903; 1905, 156; Germain 1969, fig. 6"}, "geometry": {"type": "LineString", "coordinates": [[6.4678739, 35.4834617], [6.4678919, 35.4834617]]}}, {"type": "Feature", "properties": {"insula_id": "TIMG.E-SW.I1", "description": "internal", "plan_source": "Ballu 1903; 1905, 156; Germain 1969, fig. 6"}, "geometry": {"type": "LineString", "coordinates": [[6.4678587, 35.4835475], [6.4678774, 35.4835492]]}}, {"type": "Feature", "properties": {"insula_id": "TIMG.E-SW.I1", "description": "internal", "plan_source": "Ballu 1903; 1905, 156; Germain 1969, fig. 6"}, "geometry": {"type": "LineString", "coordinates": [[6.4678601, 35.4835317], [6.4678612, 35.4835138]]}}, {"type": "Feature", "properties": {"insula_id": "TIMG.E-SW.I1", "description": "internal", "plan_source": "Ballu 1903; 1905, 156; Germain 1969, fig. 6"}, "geometry": {"type": "LineString", "coordinates": [[6.4677952, 35.4835602], [6.4677961, 35.4835488]]}}, {"type": "Feature", "properties": {"insula_id": "TIMG.E-SW.I1", "description": "internal", "plan_source": "Ballu 1903; 1905, 156; Germain 1969, fig. 6"}, "geometry": {"type": "LineString", "coordinates": [[6.4677975, 35.4835265], [6.4677995, 35.4835114]]}}, {"type": "Feature", "properties": {"insula_id": "TIMG.E-SW.I1", "description": "internal", "plan_source": "Ballu 1903; 1905, 156; Germain 1969, fig. 6"}, "geometry": {"type": "LineString", "coordinates": [[6.4678102, 35.4833168], [6.4678112, 35.4833066]]}}, {"type": "Feature", "properties": {"insula_id": "TIMG.E-SW.I1", "description": "internal", "plan_source": "Ballu 1903; 1905, 156; Germain 1969, fig. 6"}, "geometry": {"type": "LineString", "coordinates": [[6.4674976, 35.4832659], [6.4675004, 35.4832372]]}}, {"type": "Feature", "properties": {"insula_id": "TIMG.E-SW.I1", "description": "internal", "plan_source": "Ballu 1903; 1905, 156; Germain 1969, fig. 6"}, "geometry": {"type": "LineString", "coordinates": [[6.4675849, 35.4834134], [6.4676028, 35.4834144]]}}, {"type": "Feature", "properties": {"insula_id": "TIMG.E-SW.I1", "description": "internal", "plan_source": "Ballu 1903; 1905, 156; Germain 1969, fig. 6"}, "geometry": {"type": "LineString", "coordinates": [[6.4678509, 35.48333], [6.4678828, 35.4833312]]}}, {"type": "Feature", "properties": {"insula_id": "TIMG.E-SW.I1", "description": "internal", "plan_source": "Ballu 1903; 1905, 156; Germain 1969, fig. 6"}, "geometry": {"type": "LineString", "coordinates": [[6.4677286, 35.4832618], [6.4677297, 35.4832521]]}}, {"type": "Feature", "properties": {"insula_id": "TIMG.E-SW.I1", "description": "internal", "plan_source": "Ballu 1903; 1905, 156; Germain 1969, fig. 6"}, "geometry": {"type": "LineString", "coordinates": [[6.4676815, 35.4832807], [6.4676964, 35.4832806]]}}, {"type": "Feature", "properties": {"insula_id": "TIMG.E-SW.I1", "description": "internal", "plan_source": "Ballu 1903; 1905, 156; Germain 1969, fig. 6"}, "geometry": {"type": "LineString", "coordinates": [[6.4677085, 35.4832816], [6.4677168, 35.4832828]]}}, {"type": "Feature", "properties": {"insula_id": "TIMG.E-SW.I1", "description": "internal", "plan_source": "Ballu 1903; 1905, 156; Germain 1969, fig. 6"}, "geometry": {"type": "LineString", "coordinates": [[6.4676654, 35.4832757], [6.4676815, 35.4832807]]}}, {"type": "Feature", "properties": {"insula_id": "TIMG.E-SW.I1", "description": "internal", "plan_source": "Ballu 1903; 1905, 156; Germain 1969, fig. 6"}, "geometry": {"type": "LineString", "coordinates": [[6.4676533, 35.483289], [6.4676654, 35.4832757]]}}, {"type": "Feature", "properties": {"insula_id": "TIMG.E-SW.I1", "description": "internal", "plan_source": "Ballu 1903; 1905, 156; Germain 1969, fig. 6"}, "geometry": {"type": "LineString", "coordinates": [[6.4677753, 35.4833252], [6.4677854, 35.4833258]]}}, {"type": "Feature", "properties": {"insula_id": "TIMG.E-SW.I1", "description": "internal", "plan_source": "Ballu 1903; 1905, 156; Germain 1969, fig. 6"}, "geometry": {"type": "LineString", "coordinates": [[6.467521, 35.4834707], [6.4675321, 35.4834786]]}}, {"type": "Feature", "properties": {"insula_id": "TIMG.SW.I5", "description": "I67-75 (formed by merging two adjacent insulae)", "plan_source": "BCB fig. 166 (partial--north ruined; south better preserved); Ballu 1903 pp. 168-169; Rebuffat 1969: 676; Germain 1969: 50"}, "geometry": {"type": "LineString", "coordinates": [[6.4673259, 35.4849784], [6.4673365, 35.4849799]]}}, {"type": "Feature", "properties": {"insula_id": "TIMG.SW.I5", "description": "I67-75 (formed by merging two adjacent insulae)", "plan_source": "BCB fig. 166 (partial--north ruined; south better preserved); Ballu 1903 pp. 168-169; Rebuffat 1969: 676; Germain 1969: 50"}, "geometry": {"type": "LineString", "coordinates": [[6.4674432, 35.4849866], [6.4674574, 35.4849883]]}}, {"type": "Feature", "properties": {"insula_id": "TIMG.SW.I5", "description": "I67-75 (formed by merging two adjacent insulae)", "plan_source": "BCB fig. 166 (partial--north ruined; south better preserved); Ballu 1903 pp. 168-169; Rebuffat 1969: 676; Germain 1969: 50"}, "geometry": {"type": "LineString", "coordinates": [[6.4674938, 35.4849908], [6.4675138, 35.4849929]]}}, {"type": "Feature", "properties": {"insula_id": "TIMG.SW.I5", "description": "I67-75 (formed by merging two adjacent insulae)", "plan_source": "BCB fig. 166 (partial--north ruined; south better preserved); Ballu 1903 pp. 168-169; Rebuffat 1969: 676; Germain 1969: 50"}, "geometry": {"type": "LineString", "coordinates": [[6.4675453, 35.4848884], [6.4675483, 35.4848651]]}}, {"type": "Feature", "properties": {"insula_id": "TIMG.SW.I5", "description": "I67-75 (formed by merging two adjacent insulae)", "plan_source": "BCB fig. 166 (partial--north ruined; south better preserved); Ballu 1903 pp. 168-169; Rebuffat 1969: 676; Germain 1969: 50"}, "geometry": {"type": "LineString", "coordinates": [[6.4673368, 35.4847411], [6.4673392, 35.4847272]]}}, {"type": "Feature", "properties": {"insula_id": "TIMG.SW.I5", "description": "I67-75 (formed by merging two adjacent insulae)", "plan_source": "BCB fig. 166 (partial--north ruined; south better preserved); Ballu 1903 pp. 168-169; Rebuffat 1969: 676; Germain 1969: 50"}, "geometry": {"type": "LineString", "coordinates": [[6.4675693, 35.4846606], [6.4675722, 35.4846504]]}}, {"type": "Feature", "properties": {"insula_id": "TIMG.SW.I5", "description": "I67-75 (formed by merging two adjacent insulae)", "plan_source": "BCB fig. 166 (partial--north ruined; south better preserved); Ballu 1903 pp. 168-169; Rebuffat 1969: 676; Germain 1969: 50"}, "geometry": {"type": "LineString", "coordinates": [[6.4673645, 35.4848678], [6.4673793, 35.4848681]]}}, {"type": "Feature", "properties": {"insula_id": "TIMG.SW.I5", "description": "I67-75 (formed by merging two adjacent insulae)", "plan_source": "BCB fig. 166 (partial--north ruined; south better preserved); Ballu 1903 pp. 168-169; Rebuffat 1969: 676; Germain 1969: 50"}, "geometry": {"type": "LineString", "coordinates": [[6.4674088, 35.4848693], [6.4674234, 35.4848706]]}}, {"type": "Feature", "properties": {"insula_id": "TIMG.SW.I5", "description": "I67-75 (formed by merging two adjacent insulae)", "plan_source": "BCB fig. 166 (partial--north ruined; south better preserved); Ballu 1903 pp. 168-169; Rebuffat 1969: 676; Germain 1969: 50"}, "geometry": {"type": "LineString", "coordinates": [[6.467439, 35.4848258], [6.4674406, 35.4848097]]}}, {"type": "Feature", "properties": {"insula_id": "TIMG.SW.I5", "description": "I67-75 (formed by merging two adjacent insulae)", "plan_source": "BCB fig. 166 (partial--north ruined; south better preserved); Ballu 1903 pp. 168-169; Rebuffat 1969: 676; Germain 1969: 50"}, "geometry": {"type": "LineString", "coordinates": [[6.4674148, 35.4848], [6.467429, 35.4848009]]}}, {"type": "Feature", "properties": {"insula_id": "TIMG.SW.I5", "description": "I67-75 (formed by merging two adjacent insulae)", "plan_source": "BCB fig. 166 (partial--north ruined; south better preserved); Ballu 1903 pp. 168-169; Rebuffat 1969: 676; Germain 1969: 50"}, "geometry": {"type": "LineString", "coordinates": [[6.4673907, 35.484799], [6.4674038, 35.4847996]]}}, {"type": "Feature", "properties": {"insula_id": "TIMG.SW.I5", "description": "I67-75 (formed by merging two adjacent insulae)", "plan_source": "BCB fig. 166 (partial--north ruined; south better preserved); Ballu 1903 pp. 168-169; Rebuffat 1969: 676; Germain 1969: 50"}, "geometry": {"type": "LineString", "coordinates": [[6.4674053, 35.48478], [6.4674061, 35.4847725], [6.4674067, 35.4847664]]}}, {"type": "Feature", "properties": {"insula_id": "TIMG.SW.I5", "description": "I67-75 (formed by merging two adjacent insulae)", "plan_source": "BCB fig. 166 (partial--north ruined; south better preserved); Ballu 1903 pp. 168-169; Rebuffat 1969: 676; Germain 1969: 50"}, "geometry": {"type": "LineString", "coordinates": [[6.4673835, 35.4847718], [6.4674061, 35.4847725]]}}, {"type": "Feature", "properties": {"insula_id": "TIMG.SW.I5", "description": "I67-75 (formed by merging two adjacent insulae)", "plan_source": "BCB fig. 166 (partial--north ruined; south better preserved); Ballu 1903 pp. 168-169; Rebuffat 1969: 676; Germain 1969: 50"}, "geometry": {"type": "LineString", "coordinates": [[6.4675062, 35.4848269], [6.4675073, 35.484817]]}}, {"type": "Feature", "properties": {"insula_id": "TIMG.SW.I5", "description": "I67-75 (formed by merging two adjacent insulae)", "plan_source": "BCB fig. 166 (partial--north ruined; south better preserved); Ballu 1903 pp. 168-169; Rebuffat 1969: 676; Germain 1969: 50"}, "geometry": {"type": "LineString", "coordinates": [[6.4675482, 35.4848073], [6.467528, 35.4848053]]}}, {"type": "Feature", "properties": {"insula_id": "TIMG.SW.I5", "description": "I67-75 (formed by merging two adjacent insulae)", "plan_source": "BCB fig. 166 (partial--north ruined; south better preserved); Ballu 1903 pp. 168-169; Rebuffat 1969: 676; Germain 1969: 50"}, "geometry": {"type": "LineString", "coordinates": [[6.4674677, 35.4847491], [6.467486, 35.4847478]]}}, {"type": "Feature", "properties": {"insula_id": "TIMG.SW.I5", "description": "I67-75 (formed by merging two adjacent insulae)", "plan_source": "BCB fig. 166 (partial--north ruined; south better preserved); Ballu 1903 pp. 168-169; Rebuffat 1969: 676; Germain 1969: 50"}, "geometry": {"type": "LineString", "coordinates": [[6.4673926, 35.4846973], [6.4674167, 35.4846986]]}}, {"type": "Feature", "properties": {"insula_id": "TIMG.SW.I5", "description": "I67-75 (formed by merging two adjacent insulae)", "plan_source": "BCB fig. 166 (partial--north ruined; south better preserved); Ballu 1903 pp. 168-169; Rebuffat 1969: 676; Germain 1969: 50"}, "geometry": {"type": "LineString", "coordinates": [[6.4674091, 35.4847455], [6.4674139, 35.4847275]]}}, {"type": "Feature", "properties": {"insula_id": "TIMG.SW.I5", "description": "I67-75 (formed by merging two adjacent insulae)", "plan_source": "BCB fig. 166 (partial--north ruined; south better preserved); Ballu 1903 pp. 168-169; Rebuffat 1969: 676; Germain 1969: 50"}, "geometry": {"type": "LineString", "coordinates": [[6.4673932, 35.4846886], [6.4673941, 35.4846669]]}}, {"type": "Feature", "properties": {"insula_id": "TIMG.SW.I5", "description": "I67-75 (formed by merging two adjacent insulae)", "plan_source": "BCB fig. 166 (partial--north ruined; south better preserved); Ballu 1903 pp. 168-169; Rebuffat 1969: 676; Germain 1969: 50"}, "geometry": {"type": "LineString", "coordinates": [[6.4673941, 35.4846669], [6.4673954, 35.4846536]]}}, {"type": "Feature", "properties": {"insula_id": "TIMG.SW.I5", "description": "I67-75 (formed by merging two adjacent insulae)", "plan_source": "BCB fig. 166 (partial--north ruined; south better preserved); Ballu 1903 pp. 168-169; Rebuffat 1969: 676; Germain 1969: 50"}, "geometry": {"type": "LineString", "coordinates": [[6.4675201, 35.484696], [6.467522, 35.4846872]]}}, {"type": "Feature", "properties": {"insula_id": "TIMG.SW.I5", "description": "I67-75 (formed by merging two adjacent insulae)", "plan_source": "BCB fig. 166 (partial--north ruined; south better preserved); Ballu 1903 pp. 168-169; Rebuffat 1969: 676; Germain 1969: 50"}, "geometry": {"type": "LineString", "coordinates": [[6.4675102, 35.4847052], [6.4674902, 35.4847036]]}}, {"type": "Feature", "properties": {"insula_id": "TIMG.SW.I5", "description": "I67-75 (formed by merging two adjacent insulae)", "plan_source": "BCB fig. 166 (partial--north ruined; south better preserved); Ballu 1903 pp. 168-169; Rebuffat 1969: 676; Germain 1969: 50"}, "geometry": {"type": "LineString", "coordinates": [[6.4675239, 35.4846627], [6.4675258, 35.4846523]]}}, {"type": "Feature", "properties": {"insula_id": "TIMG.SW.I5", "description": "I67-75 (formed by merging two adjacent insulae)", "plan_source": "BCB fig. 166 (partial--north ruined; south better preserved); Ballu 1903 pp. 168-169; Rebuffat 1969: 676; Germain 1969: 50"}, "geometry": {"type": "LineString", "coordinates": [[6.4674048, 35.4846245], [6.4674228, 35.4846232]]}}, {"type": "Feature", "properties": {"insula_id": "TIMG.SW.I5", "description": "I67-75 (formed by merging two adjacent insulae)", "plan_source": "BCB fig. 166 (partial--north ruined; south better preserved); Ballu 1903 pp. 168-169; Rebuffat 1969: 676; Germain 1969: 50"}, "geometry": {"type": "LineString", "coordinates": [[6.4673963, 35.4846433], [6.467398, 35.4846241]]}}, {"type": "Feature", "properties": {"insula_id": "TIMG.SW.I5", "description": "I67-75 (formed by merging two adjacent insulae)", "plan_source": "BCB fig. 166 (partial--north ruined; south better preserved); Ballu 1903 pp. 168-169; Rebuffat 1969: 676; Germain 1969: 50"}, "geometry": {"type": "LineString", "coordinates": [[6.4673895, 35.4845938], [6.4673904, 35.484582]]}}, {"type": "Feature", "properties": {"insula_id": "TIMG.SW.I5", "description": "I67-75 (formed by merging two adjacent insulae)", "plan_source": "BCB fig. 166 (partial--north ruined; south better preserved); Ballu 1903 pp. 168-169; Rebuffat 1969: 676; Germain 1969: 50"}, "geometry": {"type": "LineString", "coordinates": [[6.4674301, 35.4845873], [6.4674302, 35.4845789]]}}, {"type": "Feature", "properties": {"insula_id": "TIMG.SW.I5", "description": "I67-75 (formed by merging two adjacent insulae)", "plan_source": "BCB fig. 166 (partial--north ruined; south better preserved); Ballu 1903 pp. 168-169; Rebuffat 1969: 676; Germain 1969: 50"}, "geometry": {"type": "LineString", "coordinates": [[6.4675018, 35.4845928], [6.4675033, 35.4845844]]}}, {"type": "Feature", "properties": {"insula_id": "TIMG.SW.I5", "description": "I67-75 (formed by merging two adjacent insulae)", "plan_source": "BCB fig. 166 (partial--north ruined; south better preserved); Ballu 1903 pp. 168-169; Rebuffat 1969: 676; Germain 1969: 50"}, "geometry": {"type": "LineString", "coordinates": [[6.4675083, 35.4846029], [6.4675195, 35.4846037]]}}, {"type": "Feature", "properties": {"insula_id": "TIMG.SW.I5", "description": "I67-75 (formed by merging two adjacent insulae)", "plan_source": "BCB fig. 166 (partial--north ruined; south better preserved); Ballu 1903 pp. 168-169; Rebuffat 1969: 676; Germain 1969: 50"}, "geometry": {"type": "LineString", "coordinates": [[6.4675088, 35.4846306], [6.4675151, 35.484632]]}}, {"type": "Feature", "properties": {"insula_id": "TIMG.SW.I5", "description": "I67-75 (formed by merging two adjacent insulae)", "plan_source": "BCB fig. 166 (partial--north ruined; south better preserved); Ballu 1903 pp. 168-169; Rebuffat 1969: 676; Germain 1969: 50"}, "geometry": {"type": "LineString", "coordinates": [[6.4674993, 35.4846212], [6.4674995, 35.4846141]]}}, {"type": "Feature", "properties": {"insula_id": "TIMG.SW.I5", "description": "I67-75 (formed by merging two adjacent insulae)", "plan_source": "BCB fig. 166 (partial--north ruined; south better preserved); Ballu 1903 pp. 168-169; Rebuffat 1969: 676; Germain 1969: 50"}, "geometry": {"type": "LineString", "coordinates": [[6.4674906, 35.4846295], [6.4674835, 35.4846288]]}}, {"type": "Feature", "properties": {"insula_id": "TIMG.SW.I5", "description": "I67-75 (formed by merging two adjacent insulae)", "plan_source": "BCB fig. 166 (partial--north ruined; south better preserved); Ballu 1903 pp. 168-169; Rebuffat 1969: 676; Germain 1969: 50"}, "geometry": {"type": "LineString", "coordinates": [[6.467476, 35.4846283], [6.4674515, 35.4846255]]}}, {"type": "Feature", "properties": {"insula_id": "TIMG.SW.I5", "description": "I67-75 (formed by merging two adjacent insulae)", "plan_source": "BCB fig. 166 (partial--north ruined; south better preserved); Ballu 1903 pp. 168-169; Rebuffat 1969: 676; Germain 1969: 50"}, "geometry": {"type": "LineString", "coordinates": [[6.4674437, 35.4846251], [6.4674321, 35.4846233]]}}, {"type": "Feature", "properties": {"insula_id": "TIMG.SW.I5", "description": "I67-75 (formed by merging two adjacent insulae)", "plan_source": "BCB fig. 166 (partial--north ruined; south better preserved); Ballu 1903 pp. 168-169; Rebuffat 1969: 676; Germain 1969: 50"}, "geometry": {"type": "LineString", "coordinates": [[6.4674917, 35.4846881], [6.4674995, 35.4846563]]}}]}