{"type":"FeatureCollection","name":"economic_buildings","features":[{"type":"Feature","id":1,"properties":{"insula_id":"","name":"Crafts industries quarter","building_use":"artisanal / industrial","description":"","period":"","certainty":"probable","plan_source":"Traced from georeferenced satellite imagery","notes":"NOTE: also drawn as Social Buildings fid 3 - keep one, delete the other.","area_sqm":2345.1},"geometry":{"type":"Polygon","coordinates":[[[6.4679738,35.4831994],[6.4679428,35.4830999],[6.4679124,35.4830021],[6.4678993,35.4829601],[6.4678614,35.482874],[6.4678346,35.4828222],[6.4678137,35.482749],[6.467788,35.4826747],[6.4677701,35.4826227],[6.4677364,35.4825775],[6.4676868,35.4825111],[6.4676086,35.4825885],[6.4675773,35.4826536],[6.4675432,35.4827647],[6.4675232,35.4828298],[6.4675067,35.4828836],[6.4674588,35.4829515],[6.4673944,35.4830429],[6.4673431,35.4831156],[6.467314,35.4831569],[6.4674548,35.4831659],[6.4677624,35.4831858],[6.4679738,35.4831994]]]}}]}