{"type": "FeatureCollection", "features": [{"type": "Feature", "properties": {"gate_name": "Cirta's door (Northern gate)", "certainty": "confirmed", "plan_source": "Traced from georeferenced satellite imagery", "notes": "Fr: Porte de Cirta", "area_sqm": 41.2}, "geometry": {"type": "Polygon", "coordinates": [[[6.4685463, 35.4867682], [6.468548, 35.486738], [6.4686808, 35.4867452], [6.4686745, 35.486777], [6.4685463, 35.4867682]]]}}, {"type": "Feature", "properties": {"gate_name": "Mascula door (Eastern gate)", "description": "gate", "certainty": "confirmed", "plan_source": "Traced from georeferenced satellite imagery", "notes": "Fr: Porte de Mascula", "area_sqm": 41.1}, "geometry": {"type": "Polygon", "coordinates": [[[6.4707136, 35.4853308], [6.4706734, 35.4853289], [6.4706656, 35.4852354], [6.4707126, 35.4852371], [6.4707136, 35.4853308]]]}}, {"type": "Feature", "properties": {"gate_name": "Arc of Trajan", "description": "Western gate", "certainty": "confirmed", "plan_source": "Traced from georeferenced satellite imagery", "notes": "Fr: Arc de Trajan", "area_sqm": 88.3}, "geometry": {"type": "Polygon", "coordinates": [[[6.4670987, 35.485057], [6.4671682, 35.4850564], [6.4671656, 35.4849286], [6.4670978, 35.4849296], [6.4670987, 35.485057]]]}}]}