{"type": "FeatureCollection", "features": [{"type": "Feature", "properties": {"insula_id": "TIMG.SW.I5", "building_id": "Piscina", "name": "House of the Pool (Maison de la Piscina)", "building_use": "House", "description": "50 x 20 m house formed by joining 2 neighbouring blocks, blue granite basin surmounted by pink marble columns, baths installed in eastern part of house, one mosaic reported", "certainty": "confirmed", "plan_source": "Ballu I pp. 228-30, II, p. 102; Germain p. 42; BCB pp. 333-4; Gsell f. 27", "notes": "Germain Ilot 67-75", "area_sqm": 993.59}, "geometry": {"type": "Polygon", "coordinates": [[[6.4673073, 35.4849815], [6.4675391, 35.4849977], [6.4675782, 35.484569], [6.4673521, 35.4845539], [6.4673073, 35.4849815]]]}}, {"type": "Feature", "properties": {"insula_id": "TIMG.E-SW.I1", "building_id": "Sertius", "name": "House of Sertius (Maison de Sertius)", "building_use": "House", "certainty": "confirmed", "plan_source": "Ballu II pp. 81-9; BCB pp. 326-33; Gsell f. 27; Courtois pp. 52-3; Germain p. 59", "area_sqm": 2270.08}, "geometry": {"type": "Polygon", "coordinates": [[[6.4672938, 35.4835312], [6.4679957, 35.4835848], [6.4680223, 35.4832615], [6.4673219, 35.4832153], [6.4672938, 35.4835312]]]}}, {"type": "Feature", "properties": {"insula_id": "TIMG.E-SE.I4", "building_id": "Hermaphrodite", "name": "House of the Hermaphrodite (Maison de l'Hermaphrodite)", "building_use": "House", "certainty": "confirmed", "plan_source": "Ballu II pp. 90-4, pl. XXIII; BCB pp. 321-6; Germain 1969 p. 65, fig. 7", "area_sqm": 2429.43}, "geometry": {"type": "Polygon", "coordinates": [[[6.4680532, 35.4835894], [6.4680847, 35.4832722], [6.4688255, 35.4833205], [6.468809, 35.483645], [6.4680532, 35.4835894]]]}}, {"type": "Feature", "properties": {"insula_id": "TIMG.NE.I25", "building_id": "TBD", "name": "TBD", "notes": "[insula_id set 2026-08-07: contained in drawn insula (fid 16, 100%)]", "area_sqm": 564.02}, "geometry": {"type": "Polygon", "coordinates": [[[6.4686978, 35.4862164], [6.4689607, 35.4862381], [6.4689452, 35.4864529], [6.4687615, 35.4864384], [6.4687637, 35.4864149], [6.4686734, 35.4864063], [6.4686978, 35.4862164]]]}}, {"type": "Feature", "properties": {"insula_id": "TIMG.NW.I17", "building_id": "TBD", "notes": "[insula_id set 2026-08-07: contained in drawn insula (fid 20, 100%)]", "area_sqm": 459.54}, "geometry": {"type": "Polygon", "coordinates": [[[6.4680995, 35.4859247], [6.4680749, 35.4861112], [6.468316, 35.4861314], [6.4683335, 35.4859776], [6.4683557, 35.4859798], [6.4683594, 35.4859485], [6.4680995, 35.4859247]]]}}, {"type": "Feature", "properties": {"insula_id": "TBD", "building_id": "TBD", "area_sqm": 3151.79}, "geometry": {"type": "Polygon", "coordinates": [[[6.4660987, 35.4868777], [6.4653856, 35.4869301], [6.4654224, 35.4873105], [6.4661477, 35.4872615], [6.4663855, 35.4872437], [6.466372, 35.4871032], [6.466158, 35.4871141], [6.4661585, 35.4871073], [6.466132, 35.4871067], [6.4661048, 35.4868779], [6.4660987, 35.4868777]]]}}, {"type": "Feature", "properties": {"insula_id": "TIMG.SE.I2", "building_id": "Jardinieres", "name": "House of the Gardens (Maison aux Jardinières)", "building_use": "House", "certainty": "probable", "plan_source": "Traced from georeferenced satellite imagery; Ballu 1897: 224-226; BCB 1905: 88-92; Germain 1969: 37 and plan insula 70", "notes": "[insula_id set 2026-08-07: no drawn insula here; assigned from the grid lattice (cell C7.R7)] | [Identified 2026-08-07 as the Maison aux Jardinieres: Germain 1969 catalogues the house as his insula 70 = this block (C7.R7); footprint 526 m2 vs the 504 m2 (21 x 24 m) of the excavation record; database record moved here from TIMG.NE.I1 the same day]", "area_sqm": 525.99}, "geometry": {"type": "Polygon", "coordinates": [[[6.4693903, 35.484957], [6.4693735, 35.4851764], [6.4691319, 35.4851603], [6.4691537, 35.4849451], [6.4693903, 35.484957]]]}}, {"type": "Feature", "properties": {"insula_id": "TBD", "building_id": "TBD", "area_sqm": 2029.81}, "geometry": {"type": "Polygon", "coordinates": [[[6.4655357, 35.4850177], [6.4655895, 35.4848802], [6.4656554, 35.4847239], [6.4658077, 35.4842136], [6.4657523, 35.4842007], [6.4657729, 35.484117], [6.4656751, 35.4840934], [6.4656486, 35.4841905], [6.4655803, 35.4841779], [6.4654039, 35.4848047], [6.4653303, 35.484782], [6.4652803, 35.4849326], [6.4655357, 35.4850177]]]}}, {"type": "Feature", "properties": {"insula_id": "TIMG.NW.I16", "building_id": "TBD", "notes": "[insula_id set 2026-08-07: contained in drawn insula (fid 21, 100%)]", "area_sqm": 500.86}, "geometry": {"type": "Polygon", "coordinates": [[[6.468633, 35.4861606], [6.4684994, 35.4861509], [6.4684969, 35.4861716], [6.4684602, 35.4861689], [6.4684623, 35.4861506], [6.4683796, 35.4861422], [6.4683989, 35.4859528], [6.4686563, 35.4859702], [6.468633, 35.4861606]]]}}, {"type": "Feature", "properties": {"insula_id": "TIMG.NW.I19", "building_id": "TBD", "notes": "[insula_id set 2026-08-07: contained in drawn insula (fid 9, 100%)]", "area_sqm": 454.97}, "geometry": {"type": "Polygon", "coordinates": [[[6.4677261, 35.486095], [6.4677477, 35.4859065], [6.4675097, 35.4858881], [6.4674893, 35.486077], [6.4677261, 35.486095]]]}}, {"type": "Feature", "properties": {"insula_id": "TIMG.SW.I20", "building_id": "Ballu1903-23", "name": "Ballu 1903 House 23", "building_use": "House", "certainty": "probable", "notes": "[insula_id set 2026-08-07: contained in drawn insula (fid 73, 100%)] | [Probable identification 2026-08-08: this traced polygon sits in the block that Ballu 1903's street boundaries assign to this house (Museum path (E) / arch path (W); open, division-less southern half, possibly a garden (Ballu 1903 pp. 105-106)); confirm against the description before promoting]", "area_sqm": 425.59}, "geometry": {"type": "Polygon", "coordinates": [[[6.4676196, 35.4842796], [6.4676396, 35.4840979], [6.4674091, 35.4840812], [6.4673862, 35.4842607], [6.4676196, 35.4842796]]]}}, {"type": "Feature", "properties": {"insula_id": "TIMG.SW.I25", "building_id": "Ballu1903-27", "name": "Ballu 1903 House 27", "building_use": "House", "certainty": "probable", "notes": "[insula_id set 2026-08-07: contained in drawn insula (fid 74, 100%)] | [Probable identification 2026-08-08: this traced polygon sits in the block that Ballu 1903's street boundaries assign to this house (between the Museum path and the triumphal-arch path, 4th-5th south Decumani (Ballu 1903 p. 107)); confirm against the description before promoting]", "area_sqm": 427.61}, "geometry": {"type": "Polygon", "coordinates": [[[6.467647, 35.4840439], [6.4676657, 35.4838634], [6.4674364, 35.4838415], [6.4674136, 35.4840244], [6.467647, 35.4840439]]]}}, {"type": "Feature", "properties": {"insula_id": "TIMG.SW.I17", "building_id": "Ballu1903-21", "name": "Ballu 1903 House 21", "building_use": "House", "certainty": "probable", "notes": "[insula_id set 2026-08-07: contained in drawn insula (fid 82, 98%)] | [Probable identification 2026-08-08: this traced polygon sits in the block that Ballu 1903's street boundaries assign to this house (9-column portico on the theatre path; three dwelling units; hemispherical basin (Ballu 1903 fig. 19, pp. 103-105)); confirm against the description before promoting]", "area_sqm": 743.7}, "geometry": {"type": "Polygon", "coordinates": [[[6.4682916, 35.484153], [6.4682718, 35.4843359], [6.4682661, 35.4843832], [6.4685739, 35.4844077], [6.4686098, 35.4841696], [6.4682916, 35.484153]]]}}, {"type": "Feature", "properties": {"insula_id": "TIMG.SE.I15", "building_id": "TBD", "notes": "[insula_id set 2026-08-07: no drawn insula here; assigned from the grid lattice (cell C8.R9)]", "area_sqm": 551.77}, "geometry": {"type": "Polygon", "coordinates": [[[6.469759, 35.4846896], [6.4697762, 35.4844966], [6.4694986, 35.484476], [6.4694796, 35.4846742], [6.469759, 35.4846896]]]}}, {"type": "Feature", "properties": {"insula_id": "TIMG.NE.I2", "building_id": "TBD", "notes": "[insula_id set 2026-08-07: contained in drawn insula (fid 64, 89%)]", "area_sqm": 620.61}, "geometry": {"type": "Polygon", "coordinates": [[[6.469334, 35.485478], [6.4693652, 35.4852179], [6.4691322, 35.4851995], [6.469099, 35.4854614], [6.469334, 35.485478]]]}}, {"type": "Feature", "properties": {"insula_id": "TIMG.E-SW.I2", "building_id": "Entrepot", "name": "Storehouse (Entrepôt)", "building_use": "Warehouse / mixed-use (residential)", "description": "Large warehouse with a central court and storerooms, plus a small mosaic-paved residence and private baths. Germain's \"Maison au sud de la porte de Lambèse\"", "certainty": "probable", "plan_source": "Christofle 1930 (plan p. 59); Germain 1969 fig. 12", "notes": "Rebuffat no. 7; Germain grid QR 14/15; legacy IDs TIMG.EX-S.H3 / TIMG_H007; approx 50 x 40 m (about 2000 m2); extramural SW faubourg, south of the porte de Lambèse, by the Christian cemetery; Late Empire restoration (Laghmouche 2024).", "area_sqm": 2561.9}, "geometry": {"type": "Polygon", "coordinates": [[[6.4641377, 35.4861575], [6.4640537, 35.4861023], [6.4640563, 35.4860954], [6.4639233, 35.4859818], [6.4637408, 35.4859249], [6.4637299, 35.4859333], [6.4636689, 35.4858901], [6.4636567, 35.4858997], [6.4635371, 35.4858352], [6.4635103, 35.4858671], [6.4635016, 35.4858604], [6.4634902, 35.4858573], [6.4634777, 35.4858611], [6.463471, 35.4858693], [6.463461, 35.485865], [6.4633097, 35.4857831], [6.4632429, 35.4858644], [6.4632733, 35.4858854], [6.4632282, 35.48595], [6.4632702, 35.4859764], [6.4632568, 35.4859929], [6.463349, 35.4860754], [6.4633141, 35.4861132], [6.4634617, 35.486208], [6.463505, 35.4861688], [6.4636414, 35.486265], [6.4636971, 35.4862196], [6.4637288, 35.486236], [6.4637101, 35.4862595], [6.4637377, 35.4862783], [6.4638025, 35.4862477], [6.4638677, 35.4862918], [6.4638947, 35.4862657], [6.4639665, 35.4863316], [6.4641377, 35.4861575]]]}}, {"type": "Feature", "properties": {"insula_id": "TIMG.NW.I12 and TIMG.NW.I13", "notes": "[insula_id set 2026-08-07: straddles drawn insulae fids 19/18 (56%/44%)]"}, "geometry": {"type": "Polygon", "coordinates": [[[6.467811, 35.4858941], [6.4680031, 35.4859028], [6.4680057, 35.4858711], [6.4680392, 35.4858715], [6.4680445, 35.4858066], [6.4680862, 35.4858087], [6.468081, 35.4858776], [6.4683743, 35.4858987], [6.4683982, 35.4857118], [6.468252, 35.4856992], [6.4682538, 35.4856845], [6.468064, 35.4856713], [6.4680615, 35.4856887], [6.4678336, 35.4856645], [6.467811, 35.4858941]]]}}, {"type": "Feature", "properties": {"insula_id": "TIMG.NW.I20 and TIMG.NW.I15"}, "geometry": {"type": "Polygon", "coordinates": [[[6.4674242, 35.4860675], [6.4674689, 35.4856343], [6.4672292, 35.4856153], [6.4671948, 35.4860529], [6.4674242, 35.4860675]]]}}, {"type": "Feature", "properties": {"insula_id": "TIMG.NW.I28 and TIMG.NW.I23"}, "geometry": {"type": "Polygon", "coordinates": [[[6.4677353, 35.4865746], [6.4679632, 35.4865881], [6.4679664, 35.4865621], [6.4679967, 35.4865647], [6.4680257, 35.4861673], [6.4677775, 35.4861509], [6.4677353, 35.4865746]]]}}, {"type": "Feature", "properties": {"insula_id": "TIMG.NE.I2"}, "geometry": {"type": "Polygon", "coordinates": [[[6.4690346, 35.4854536], [6.4690627, 35.4852221], [6.4688343, 35.4852081], [6.4688086, 35.4854382], [6.4690346, 35.4854536]]]}}]}