{"type":"FeatureCollection","name":"insulae","features":[{"type":"Feature","id":1,"properties":{"insula_id":"TIMG.NW.I30","name":"","description":"","period":"","certainty":"confirmed","plan_source":"Traced from georeferenced satellite imagery","area_sqm":413.2,"quarter":"NW","status":"not started"},"geometry":{"type":"Polygon","coordinates":[[[6.4671432,35.4865207],[6.4673678,35.4865415],[6.4673871,35.4863587],[6.4671618,35.4863423],[6.4671432,35.4865207]]]}},{"type":"Feature","id":3,"properties":{"insula_id":"TIMG.NW.I29","name":"","description":"","period":"","certainty":"confirmed","plan_source":"Traced from georeferenced satellite imagery","area_sqm":421.0,"quarter":"NW","status":"not started"},"geometry":{"type":"Polygon","coordinates":[[[6.467439,35.4865474],[6.4676653,35.4865674],[6.4676838,35.4863846],[6.4674549,35.4863661],[6.467439,35.4865474]]]}},{"type":"Feature","id":4,"properties":{"insula_id":"TIMG.NW.I27","name":"","description":"","period":"","certainty":"confirmed","plan_source":"Traced from georeferenced satellite imagery","area_sqm":442.0,"quarter":"NW","status":"not started"},"geometry":{"type":"Polygon","coordinates":[[[6.4680344,35.4865929],[6.4682589,35.4866113],[6.4682789,35.4864178],[6.4680505,35.486402],[6.4680344,35.4865929]]]}},{"type":"Feature","id":5,"properties":{"insula_id":"TIMG.NW.I28","name":"","description":"","period":"","certainty":"confirmed","plan_source":"Traced from georeferenced satellite imagery","area_sqm":609.6,"quarter":"NW","status":"not started"},"geometry":{"type":"Polygon","coordinates":[[[6.467735,35.4865734],[6.4679584,35.4865901],[6.4679622,35.4865602],[6.4679916,35.4865627],[6.4680098,35.4863502],[6.4677571,35.4863343],[6.467735,35.4865734]]]}},{"type":"Feature","id":6,"properties":{"insula_id":"TIMG.NW.I23","name":"","description":"","period":"","certainty":"confirmed","plan_source":"Traced from georeferenced satellite imagery","area_sqm":462.6,"quarter":"NW","status":"not started"},"geometry":{"type":"Polygon","coordinates":[[[6.4677571,35.4863343],[6.4677816,35.4861506],[6.4680252,35.4861668],[6.4680098,35.4863502],[6.4677571,35.4863343]]]}},{"type":"Feature","id":7,"properties":{"insula_id":"TIMG.NW.I24","name":"","description":"","period":"","certainty":"confirmed","plan_source":"Traced from georeferenced satellite imagery","notes":"[insula_id cleaned corrected: duplicate of NW.I25 (fid 8); polygon sits one block east, lattice check 2026-08-07]","area_sqm":409.1,"quarter":"NW","status":"not started"},"geometry":{"type":"Polygon","coordinates":[[[6.4674642,35.486303],[6.4676918,35.4863229],[6.4677156,35.4861459],[6.4674851,35.4861294],[6.4674642,35.486303]]]}},{"type":"Feature","id":8,"properties":{"insula_id":"TIMG.NW.I25","name":"","description":"","period":"","certainty":"confirmed","plan_source":"Traced from georeferenced satellite imagery","area_sqm":411.5,"quarter":"NW","status":"not started"},"geometry":{"type":"Polygon","coordinates":[[[6.4671712,35.48628],[6.4673957,35.4862975],[6.4674194,35.4861205],[6.4671918,35.4860997],[6.4671712,35.48628]]]}},{"type":"Feature","id":9,"properties":{"insula_id":"TIMG.NW.I19","name":"","description":"","period":"","certainty":"confirmed","plan_source":"Traced from georeferenced satellite imagery","area_sqm":455.7,"quarter":"NW","status":"not started"},"geometry":{"type":"Polygon","coordinates":[[[6.4674893,35.486077],[6.4677261,35.486095],[6.4677477,35.4859065],[6.4675097,35.4858881],[6.4674893,35.486077]]]}},{"type":"Feature","id":10,"properties":{"insula_id":"TIMG.NW.I20","name":"","description":"","period":"","certainty":"confirmed","plan_source":"Traced from georeferenced satellite imagery","area_sqm":546.6,"quarter":"NW","status":"not started"},"geometry":{"type":"Polygon","coordinates":[[[6.4672003,35.4860457],[6.467424,35.4860616],[6.4674558,35.4858324],[6.4672175,35.4858098],[6.4672003,35.4860457]]]}},{"type":"Feature","id":11,"properties":{"insula_id":"TIMG.NW.I15","name":"","description":"","period":"","certainty":"confirmed","plan_source":"Traced from georeferenced satellite imagery","area_sqm":471.4,"quarter":"NW","status":"not started"},"geometry":{"type":"Polygon","coordinates":[[[6.4674558,35.4858324],[6.4674706,35.485639],[6.4672321,35.4856141],[6.4672175,35.4858098],[6.4674558,35.4858324]]]}},{"type":"Feature","id":12,"properties":{"insula_id":"TIMG.NW.I14","name":"","description":"","period":"","certainty":"confirmed","plan_source":"Traced from georeferenced satellite imagery","area_sqm":486.9,"quarter":"NW","status":"not started"},"geometry":{"type":"Polygon","coordinates":[[[6.4675208,35.4858364],[6.4677487,35.4858511],[6.4677702,35.4856468],[6.4675348,35.4856265],[6.4675208,35.4858364]]]}},{"type":"Feature","id":13,"properties":{"insula_id":"TIMG.NW.I22","name":"","description":"","period":"","certainty":"confirmed","plan_source":"Traced from georeferenced satellite imagery","area_sqm":441.3,"quarter":"NW","status":"not started"},"geometry":{"type":"Polygon","coordinates":[[[6.4680553,35.4863536],[6.4682877,35.4863728],[6.4683085,35.4861874],[6.468069,35.4861708],[6.4680553,35.4863536]]]}},{"type":"Feature","id":14,"properties":{"insula_id":"TIMG.NW.I26","name":"","description":"","period":"","certainty":"confirmed","plan_source":"Traced from georeferenced satellite imagery","area_sqm":411.4,"quarter":"NW","status":"not started"},"geometry":{"type":"Polygon","coordinates":[[[6.4683348,35.4866139],[6.4685588,35.4866357],[6.4685753,35.4864516],[6.4683488,35.4864381],[6.4683348,35.4866139]]]}},{"type":"Feature","id":15,"properties":{"insula_id":"TIMG.NW.I21","name":"","description":"","period":"","certainty":"confirmed","plan_source":"Traced from georeferenced satellite imagery","area_sqm":408.0,"quarter":"NW","status":"not started"},"geometry":{"type":"Polygon","coordinates":[[[6.4683563,35.4863767],[6.4685757,35.4863927],[6.4685967,35.4862121],[6.4683729,35.486195],[6.4683563,35.4863767]]]}},{"type":"Feature","id":16,"properties":{"insula_id":"TIMG.NE.I25","name":"","description":"","period":"","certainty":"confirmed","plan_source":"Traced from georeferenced satellite imagery","notes":"[overlaps the other TIMG.NE.I25 polygon (fids 16 and 44 both cover C6.R2) - one of the two is a stray duplicate, review 2026-08-07]","area_sqm":564.9,"quarter":"NE","status":"not started"},"geometry":{"type":"Polygon","coordinates":[[[6.4689452,35.4864529],[6.4687615,35.4864384],[6.4687637,35.4864149],[6.4686734,35.4864063],[6.4686978,35.4862164],[6.4689607,35.4862381],[6.4689452,35.4864529]]]}},{"type":"Feature","id":17,"properties":{"insula_id":"TIMG.NW.I18","name":"","description":"","period":"","certainty":"confirmed","plan_source":"Traced from georeferenced satellite imagery","area_sqm":418.9,"quarter":"NW","status":"not started"},"geometry":{"type":"Polygon","coordinates":[[[6.4677918,35.4860937],[6.4680124,35.4861083],[6.4680359,35.4859242],[6.4678082,35.4859098],[6.4677918,35.4860937]]]}},{"type":"Feature","id":18,"properties":{"insula_id":"TIMG.NW.I13","name":"","description":"","period":"","certainty":"confirmed","plan_source":"Traced from georeferenced satellite imagery","area_sqm":498.4,"quarter":"NW","status":"not started"},"geometry":{"type":"Polygon","coordinates":[[[6.467811,35.4858941],[6.4680031,35.4859028],[6.4680057,35.4858711],[6.4680392,35.4858715],[6.4680445,35.4858066],[6.4680615,35.4856887],[6.4678336,35.4856645],[6.467811,35.4858941]]]}},{"type":"Feature","id":19,"properties":{"insula_id":"TIMG.NW.I12","name":"","description":"","period":"","certainty":"confirmed","plan_source":"Traced from georeferenced satellite imagery","area_sqm":646.2,"quarter":"NW","status":"not started"},"geometry":{"type":"Polygon","coordinates":[[[6.4680445,35.4858066],[6.468064,35.4856713],[6.4682538,35.4856845],[6.468252,35.4856992],[6.4683982,35.4857118],[6.4683743,35.4858987],[6.468081,35.4858776],[6.4680862,35.4858087],[6.4680445,35.4858066]]]}},{"type":"Feature","id":20,"properties":{"insula_id":"TIMG.NW.I17","name":"","description":"","period":"","certainty":"confirmed","plan_source":"Traced from georeferenced satellite imagery","notes":"[insula_id cleaned corrected: duplicate of NW.I12 (fid 19); polygon sits one row north, lattice check 2026-08-07]","area_sqm":460.3,"quarter":"NW","status":"not started"},"geometry":{"type":"Polygon","coordinates":[[[6.4680749,35.4861112],[6.468316,35.4861314],[6.4683335,35.4859776],[6.4683557,35.4859798],[6.4683594,35.4859485],[6.4680995,35.4859247],[6.4680749,35.4861112]]]}},{"type":"Feature","id":21,"properties":{"insula_id":"TIMG.NW.I16","name":"","description":"","period":"","certainty":"confirmed","plan_source":"Traced from georeferenced satellite imagery","area_sqm":501.7,"quarter":"NW","status":"not started"},"geometry":{"type":"Polygon","coordinates":[[[6.4683796,35.4861422],[6.4684623,35.4861506],[6.4684602,35.4861689],[6.4684969,35.4861716],[6.4684994,35.4861509],[6.468633,35.4861606],[6.4686563,35.4859702],[6.4683989,35.4859528],[6.4683796,35.4861422]]]}},{"type":"Feature","id":22,"properties":{"insula_id":"TIMG.NW.I11","name":"","description":"","period":"","certainty":"confirmed","plan_source":"Traced from georeferenced satellite imagery","area_sqm":427.1,"quarter":"NW","status":"not started"},"geometry":{"type":"Polygon","coordinates":[[[6.4684042,35.4858985],[6.4686285,35.4859146],[6.4686526,35.4857281],[6.4684256,35.4857128],[6.4684042,35.4858985]]]}},{"type":"Feature","id":23,"properties":{"insula_id":"TIMG.NW.I10","name":"","description":"","period":"","certainty":"confirmed","plan_source":"Traced from georeferenced satellite imagery","area_sqm":441.1,"quarter":"NW","status":"not started"},"geometry":{"type":"Polygon","coordinates":[[[6.4672441,35.4855562],[6.467472,35.4855738],[6.4674976,35.4853873],[6.4672616,35.4853688],[6.4672441,35.4855562]]]}},{"type":"Feature","id":24,"properties":{"insula_id":"TIMG.NW.I5","name":"","description":"","period":"","certainty":"confirmed","plan_source":"Traced from georeferenced satellite imagery","area_sqm":523.7,"quarter":"NW","status":"not started"},"geometry":{"type":"Polygon","coordinates":[[[6.4672684,35.4853082],[6.4675018,35.4853289],[6.4675272,35.4851073],[6.4672913,35.485091],[6.4672684,35.4853082]]]}},{"type":"Feature","id":25,"properties":{"insula_id":"TIMG.NW.I4","name":"","description":"","period":"","certainty":"confirmed","plan_source":"Traced from georeferenced satellite imagery","area_sqm":526.1,"quarter":"NW","status":"not started"},"geometry":{"type":"Polygon","coordinates":[[[6.4675666,35.485337],[6.4677961,35.48536],[6.467817,35.4851286],[6.4675894,35.4851154],[6.4675666,35.485337]]]}},{"type":"Feature","id":26,"properties":{"insula_id":"TIMG.NW.I3","name":"","description":"","period":"","certainty":"confirmed","plan_source":"Traced from georeferenced satellite imagery","area_sqm":536.6,"quarter":"NW","status":"not started"},"geometry":{"type":"Polygon","coordinates":[[[6.4678676,35.4853668],[6.4680916,35.4853889],[6.4681166,35.4851563],[6.4678859,35.4851354],[6.4678676,35.4853668]]]}},{"type":"Feature","id":27,"properties":{"insula_id":"TIMG.NW.I2","name":"","description":"","period":"","certainty":"confirmed","plan_source":"Traced from georeferenced satellite imagery","area_sqm":522.3,"quarter":"NW","status":"not started"},"geometry":{"type":"Polygon","coordinates":[[[6.4681646,35.4853901],[6.4683872,35.4854101],[6.468411,35.4851819],[6.4681778,35.4851666],[6.4681646,35.4853901]]]}},{"type":"Feature","id":28,"properties":{"insula_id":"TIMG.NW.I1","name":"","description":"","period":"","certainty":"confirmed","plan_source":"Traced from georeferenced satellite imagery","area_sqm":539.0,"quarter":"NW","status":"not started"},"geometry":{"type":"Polygon","coordinates":[[[6.4684539,35.4854167],[6.4686809,35.4854316],[6.4687017,35.4851982],[6.4684735,35.4851832],[6.4684539,35.4854167]]]}},{"type":"Feature","id":29,"properties":{"insula_id":"TIMG.NW.I6","name":"","description":"","period":"","certainty":"confirmed","plan_source":"Traced from georeferenced satellite imagery","area_sqm":400.6,"quarter":"NW","status":"not started"},"geometry":{"type":"Polygon","coordinates":[[[6.4684328,35.4856586],[6.4686497,35.485671],[6.4686715,35.4854901],[6.4684519,35.4854777],[6.4684328,35.4856586]]]}},{"type":"Feature","id":30,"properties":{"insula_id":"TIMG.NW.I7","name":"","description":"","period":"","certainty":"confirmed","plan_source":"Traced from georeferenced satellite imagery","area_sqm":422.9,"quarter":"NW","status":"not started"},"geometry":{"type":"Polygon","coordinates":[[[6.4683654,35.4856539],[6.4683858,35.485472],[6.4681578,35.4854521],[6.4681403,35.4856373],[6.4683654,35.4856539]]]}},{"type":"Feature","id":31,"properties":{"insula_id":"TIMG.NW.I8","name":"","description":"","period":"","certainty":"confirmed","plan_source":"Traced from georeferenced satellite imagery","area_sqm":436.0,"quarter":"NW","status":"not started"},"geometry":{"type":"Polygon","coordinates":[[[6.4680642,35.485634],[6.4680884,35.4854475],[6.467859,35.4854245],[6.4678389,35.4856141],[6.4680642,35.485634]]]}},{"type":"Feature","id":32,"properties":{"insula_id":"TIMG.NW.I9","name":"","description":"","period":"","certainty":"confirmed","plan_source":"Traced from georeferenced satellite imagery","area_sqm":452.2,"quarter":"NW","status":"not started"},"geometry":{"type":"Polygon","coordinates":[[[6.467774,35.485605],[6.4677942,35.4854186],[6.4675581,35.4853957],[6.4675366,35.4855843],[6.467774,35.485605]]]}},{"type":"Feature","id":33,"properties":{"insula_id":"TIMG.NE.I31","name":"","description":"","period":"","certainty":"confirmed","plan_source":"Traced from georeferenced satellite imagery","area_sqm":519.5,"quarter":"NE","status":"not started"},"geometry":{"type":"Polygon","coordinates":[[[6.4686573,35.4866499],[6.4689225,35.4866691],[6.4689398,35.4864741],[6.468679,35.4864559],[6.4686573,35.4866499]]]}},{"type":"Feature","id":34,"properties":{"insula_id":"TIMG.NE.I32","name":"","description":"","period":"","certainty":"confirmed","plan_source":"Traced from georeferenced satellite imagery","area_sqm":425.9,"quarter":"NE","status":"not started"},"geometry":{"type":"Polygon","coordinates":[[[6.4689828,35.4866721],[6.4692017,35.486686],[6.4692195,35.4864974],[6.4689967,35.4864804],[6.4689828,35.4866721]]]}},{"type":"Feature","id":35,"properties":{"insula_id":"TIMG.NE.I33","name":"","description":"","period":"","certainty":"confirmed","plan_source":"Traced from georeferenced satellite imagery","area_sqm":435.4,"quarter":"NE","status":"not started"},"geometry":{"type":"Polygon","coordinates":[[[6.4692694,35.4866893],[6.4694988,35.4867072],[6.469518,35.4865196],[6.4692861,35.486505],[6.4692694,35.4866893]]]}},{"type":"Feature","id":36,"properties":{"insula_id":"TIMG.NE.I34","name":"","description":"","period":"","certainty":"confirmed","plan_source":"Traced from georeferenced satellite imagery","area_sqm":411.6,"quarter":"NE","status":"not started"},"geometry":{"type":"Polygon","coordinates":[[[6.4695658,35.4867095],[6.469786,35.4867255],[6.4698107,35.486543],[6.469584,35.4865294],[6.4695658,35.4867095]]]}},{"type":"Feature","id":37,"properties":{"insula_id":"TIMG.NE.I35","name":"","description":"","period":"","certainty":"confirmed","plan_source":"Traced from georeferenced satellite imagery","area_sqm":406.0,"quarter":"NE","status":"not started"},"geometry":{"type":"Polygon","coordinates":[[[6.4698576,35.4867276],[6.4700817,35.4867435],[6.4701028,35.4865686],[6.4698759,35.4865486],[6.4698576,35.4867276]]]}},{"type":"Feature","id":38,"properties":{"insula_id":"TIMG.NE.I36","name":"","description":"","period":"","certainty":"confirmed","plan_source":"Traced from georeferenced satellite imagery","area_sqm":431.9,"quarter":"NE","status":"not started"},"geometry":{"type":"Polygon","coordinates":[[[6.4703817,35.4867635],[6.4704061,35.4865836],[6.4701697,35.4865671],[6.4701452,35.486746],[6.4703817,35.4867635]]]}},{"type":"Feature","id":39,"properties":{"insula_id":"TIMG.NE.I30","name":"","description":"","period":"","certainty":"confirmed","plan_source":"Traced from georeferenced satellite imagery","area_sqm":416.7,"quarter":"NE","status":"not started"},"geometry":{"type":"Polygon","coordinates":[[[6.470206,35.4863415],[6.4704341,35.4863572],[6.4704159,35.4865384],[6.470185,35.4865174],[6.470206,35.4863415]]]}},{"type":"Feature","id":40,"properties":{"insula_id":"TIMG.NE.I29","name":"","description":"","period":"","certainty":"confirmed","plan_source":"Traced from georeferenced satellite imagery","area_sqm":419.1,"quarter":"NE","status":"not started"},"geometry":{"type":"Polygon","coordinates":[[[6.4701134,35.4865141],[6.4701356,35.4863361],[6.4699035,35.4863162],[6.4698812,35.4864921],[6.4701134,35.4865141]]]}},{"type":"Feature","id":41,"properties":{"insula_id":"TIMG.NE.I28","name":"","description":"","period":"","certainty":"confirmed","plan_source":"Traced from georeferenced satellite imagery","area_sqm":430.5,"quarter":"NE","status":"not started"},"geometry":{"type":"Polygon","coordinates":[[[6.4698213,35.4864886],[6.4698461,35.4863104],[6.46961,35.4862885],[6.4695866,35.4864687],[6.4698213,35.4864886]]]}},{"type":"Feature","id":42,"properties":{"insula_id":"TIMG.NE.I27","name":"","description":"","period":"","certainty":"confirmed","plan_source":"Traced from georeferenced satellite imagery","area_sqm":419.2,"quarter":"NE","status":"not started"},"geometry":{"type":"Polygon","coordinates":[[[6.469522,35.4864621],[6.4695429,35.4862819],[6.4693148,35.4862662],[6.4692968,35.4864505],[6.469522,35.4864621]]]}},{"type":"Feature","id":43,"properties":{"insula_id":"TIMG.NE.I26","name":"","description":"","period":"","certainty":"confirmed","plan_source":"Traced from georeferenced satellite imagery","area_sqm":413.7,"quarter":"NE","status":"not started"},"geometry":{"type":"Polygon","coordinates":[[[6.4690074,35.486427],[6.4692275,35.4864419],[6.4692457,35.4862597],[6.4690177,35.486245],[6.4690074,35.486427]]]}},{"type":"Feature","id":44,"properties":{"insula_id":"TIMG.NE.I25","name":"","description":"","period":"","certainty":"confirmed","plan_source":"Traced from georeferenced satellite imagery","notes":"[overlaps the other TIMG.NE.I25 polygon (fids 16 and 44 both cover C6.R2) - one of the two is a stray duplicate, review 2026-08-07]","area_sqm":564.9,"quarter":"NE","status":"not started"},"geometry":{"type":"Polygon","coordinates":[[[6.4689452,35.4864529],[6.4689607,35.4862381],[6.4686978,35.4862164],[6.4686734,35.4864063],[6.4687637,35.4864149],[6.4687615,35.4864384],[6.4689452,35.4864529]]]}},{"type":"Feature","id":45,"properties":{"insula_id":"TIMG.NE.I19","name":"","description":"","period":"","certainty":"confirmed","plan_source":"Traced from georeferenced satellite imagery","area_sqm":426.5,"quarter":"NE","status":"not started"},"geometry":{"type":"Polygon","coordinates":[[[6.4687374,35.4861622],[6.4689604,35.4861813],[6.4689809,35.4859926],[6.4687567,35.4859757],[6.4687374,35.4861622]]]}},{"type":"Feature","id":46,"properties":{"insula_id":"TIMG.NE.I20","name":"","description":"","period":"","certainty":"confirmed","plan_source":"Traced from georeferenced satellite imagery","area_sqm":421.2,"quarter":"NE","status":"not started"},"geometry":{"type":"Polygon","coordinates":[[[6.4690332,35.4861834],[6.4692549,35.4862015],[6.4692754,35.4860139],[6.4690513,35.4859991],[6.4690332,35.4861834]]]}},{"type":"Feature","id":47,"properties":{"insula_id":"TIMG.NE.I21","name":"","description":"","period":"","certainty":"confirmed","plan_source":"Traced from georeferenced satellite imagery","area_sqm":441.7,"quarter":"NE","status":"not started"},"geometry":{"type":"Polygon","coordinates":[[[6.4693213,35.4862049],[6.4695507,35.4862217],[6.4695711,35.486033],[6.4693379,35.4860174],[6.4693213,35.4862049]]]}},{"type":"Feature","id":48,"properties":{"insula_id":"TIMG.NE.I22","name":"","description":"","period":"","certainty":"confirmed","plan_source":"Traced from georeferenced satellite imagery","area_sqm":452.6,"quarter":"NE","status":"not started"},"geometry":{"type":"Polygon","coordinates":[[[6.4696165,35.4862283],[6.4698487,35.4862503],[6.4698718,35.4860626],[6.4696331,35.4860387],[6.4696165,35.4862283]]]}},{"type":"Feature","id":49,"properties":{"insula_id":"TIMG.NE.I23","name":"","description":"","period":"","certainty":"confirmed","plan_source":"Traced from georeferenced satellite imagery","area_sqm":445.4,"quarter":"NE","status":"not started"},"geometry":{"type":"Polygon","coordinates":[[[6.469914,35.4862569],[6.4701462,35.48628],[6.4701707,35.4860944],[6.469932,35.4860715],[6.469914,35.4862569]]]}},{"type":"Feature","id":50,"properties":{"insula_id":"TIMG.NE.I24","name":"","description":"","period":"","certainty":"confirmed","plan_source":"Traced from georeferenced satellite imagery","area_sqm":422.4,"quarter":"NE","status":"not started"},"geometry":{"type":"Polygon","coordinates":[[[6.4702139,35.4862833],[6.4704447,35.4863022],[6.4704602,35.48612],[6.4702334,35.4861021],[6.4702139,35.4862833]]]}},{"type":"Feature","id":51,"properties":{"insula_id":"TIMG.NE.I18","name":"","description":"","period":"","certainty":"confirmed","plan_source":"Traced from georeferenced satellite imagery","area_sqm":426.7,"quarter":"NE","status":"not started"},"geometry":{"type":"Polygon","coordinates":[[[6.4702439,35.4860451],[6.4704671,35.4860623],[6.4704896,35.4858744],[6.4702617,35.4858606],[6.4702439,35.4860451]]]}},{"type":"Feature","id":52,"properties":{"insula_id":"TIMG.NE.I17","name":"","description":"","period":"","certainty":"confirmed","plan_source":"Traced from georeferenced satellite imagery","area_sqm":454.1,"quarter":"NE","status":"not started"},"geometry":{"type":"Polygon","coordinates":[[[6.4701745,35.4860385],[6.4699375,35.4860171],[6.4699591,35.4858305],[6.4701961,35.4858487],[6.4701745,35.4860385]]]}},{"type":"Feature","id":53,"properties":{"insula_id":"TIMG.NE.I16","name":"","description":"","period":"","certainty":"confirmed","plan_source":"Traced from georeferenced satellite imagery","area_sqm":419.5,"quarter":"NE","status":"not started"},"geometry":{"type":"Polygon","coordinates":[[[6.4696433,35.4859853],[6.4698674,35.4860045],[6.4698926,35.4858251],[6.4696588,35.4858049],[6.4696433,35.4859853]]]}},{"type":"Feature","id":54,"properties":{"insula_id":"TIMG.NE.I15","name":"","description":"","period":"","certainty":"confirmed","plan_source":"Traced from georeferenced satellite imagery","area_sqm":444.2,"quarter":"NE","status":"not started"},"geometry":{"type":"Polygon","coordinates":[[[6.4693459,35.4859617],[6.4695756,35.4859807],[6.4695923,35.4857904],[6.4693626,35.4857713],[6.4693459,35.4859617]]]}},{"type":"Feature","id":55,"properties":{"insula_id":"TIMG.NE.I14","name":"","description":"","period":"","certainty":"confirmed","plan_source":"Traced from georeferenced satellite imagery","area_sqm":412.9,"quarter":"NE","status":"not started"},"geometry":{"type":"Polygon","coordinates":[[[6.4690612,35.4859403],[6.4692804,35.4859557],[6.4692989,35.4857712],[6.469075,35.4857573],[6.4690612,35.4859403]]]}},{"type":"Feature","id":56,"properties":{"insula_id":"TIMG.NE.I13","name":"","description":"","period":"","certainty":"confirmed","plan_source":"Traced from georeferenced satellite imagery","area_sqm":422.9,"quarter":"NE","status":"not started"},"geometry":{"type":"Polygon","coordinates":[[[6.4687631,35.485918],[6.4689846,35.4859333],[6.4690097,35.48575],[6.4687815,35.4857316],[6.4687631,35.485918]]]}},{"type":"Feature","id":57,"properties":{"insula_id":"TIMG.NE.I7","name":"","description":"","period":"","certainty":"confirmed","plan_source":"Traced from georeferenced satellite imagery","area_sqm":623.0,"quarter":"NE","status":"not started"},"geometry":{"type":"Polygon","coordinates":[[[6.4690093,35.4857226],[6.4690373,35.4854767],[6.4687852,35.485461],[6.4687603,35.4857048],[6.4690093,35.4857226]]]}},{"type":"Feature","id":58,"properties":{"insula_id":"TIMG.NE.I8","name":"","description":"","period":"","certainty":"confirmed","plan_source":"Traced from georeferenced satellite imagery","area_sqm":434.0,"quarter":"NE","status":"not started"},"geometry":{"type":"Polygon","coordinates":[[[6.4690771,35.4856991],[6.4693069,35.4857181],[6.4693294,35.4855328],[6.4690981,35.4855145],[6.4690771,35.4856991]]]}},{"type":"Feature","id":59,"properties":{"insula_id":"TIMG.NE.I9","name":"","description":"","period":"","certainty":"confirmed","plan_source":"Traced from georeferenced satellite imagery","area_sqm":425.3,"quarter":"NE","status":"not started"},"geometry":{"type":"Polygon","coordinates":[[[6.4693729,35.4857214],[6.4695994,35.4857392],[6.469621,35.4855514],[6.4693948,35.4855395],[6.4693729,35.4857214]]]}},{"type":"Feature","id":60,"properties":{"insula_id":"TIMG.NE.I10","name":"","description":"","period":"","certainty":"confirmed","plan_source":"Traced from georeferenced satellite imagery","area_sqm":441.6,"quarter":"NE","status":"not started"},"geometry":{"type":"Polygon","coordinates":[[[6.4696656,35.4857419],[6.4696792,35.4855556],[6.4699105,35.4855726],[6.4698946,35.4857642],[6.4696656,35.4857419]]]}},{"type":"Feature","id":61,"properties":{"insula_id":"TIMG.NE.I4","name":"","description":"","period":"","certainty":"confirmed","plan_source":"Traced from georeferenced satellite imagery","area_sqm":584.7,"quarter":"NE","status":"not started"},"geometry":{"type":"Polygon","coordinates":[[[6.4696963,35.4852684],[6.4699426,35.4852809],[6.4699175,35.4855166],[6.4696697,35.485499],[6.4696963,35.4852684]]]}},{"type":"Feature","id":62,"properties":{"insula_id":"TIMG.NE.I3","name":"","description":"","period":"","certainty":"confirmed","plan_source":"Traced from georeferenced satellite imagery","area_sqm":596.0,"quarter":"NE","status":"not started"},"geometry":{"type":"Polygon","coordinates":[[[6.4693954,35.485509],[6.4696191,35.4855231],[6.4696483,35.4852646],[6.4694195,35.4852485],[6.4693954,35.485509]]]}},{"type":"Feature","id":63,"properties":{"insula_id":"TIMG.NE.I1","name":"","description":"","period":"","certainty":"confirmed","plan_source":"Traced from georeferenced satellite imagery","area_sqm":529.4,"quarter":"NE","status":"not started"},"geometry":{"type":"Polygon","coordinates":[[[6.4690371,35.4854549],[6.4690613,35.4852254],[6.4688351,35.4852102],[6.4688084,35.4854388],[6.4690371,35.4854549]]]}},{"type":"Feature","id":64,"properties":{"insula_id":"TIMG.NE.I2","name":"","description":"","period":"","certainty":"confirmed","plan_source":"Traced from georeferenced satellite imagery","area_sqm":552.2,"quarter":"NE","status":"not started"},"geometry":{"type":"Polygon","coordinates":[[[6.469099,35.4854614],[6.469334,35.485478],[6.4693618,35.4852457],[6.4691283,35.4852302],[6.469099,35.4854614]]]}},{"type":"Feature","id":65,"properties":{"insula_id":"TIMG.SE.I6","name":"","description":"","period":"","certainty":"confirmed","plan_source":"Traced from georeferenced satellite imagery","area_sqm":449.5,"quarter":"SE","status":"not started"},"geometry":{"type":"Polygon","coordinates":[[[6.4705557,35.4852361],[6.4705794,35.4850481],[6.470342,35.4850268],[6.4703206,35.4852118],[6.4705557,35.4852361]]]}},{"type":"Feature","id":66,"properties":{"insula_id":"TIMG.SE.I5","name":"","description":"","period":"","certainty":"confirmed","plan_source":"Traced from georeferenced satellite imagery","area_sqm":438.2,"quarter":"SE","status":"not started"},"geometry":{"type":"Polygon","coordinates":[[[6.4700267,35.4851862],[6.470259,35.4852046],[6.4702816,35.4850166],[6.4700494,35.4850032],[6.4700267,35.4851862]]]}},{"type":"Feature","id":67,"properties":{"insula_id":"TIMG.SE.I12","name":"","description":"","period":"","certainty":"confirmed","plan_source":"Traced from georeferenced satellite imagery","area_sqm":457.5,"quarter":"SE","status":"not started"},"geometry":{"type":"Polygon","coordinates":[[[6.4705791,35.4849907],[6.4703519,35.4849772],[6.4703643,35.4847814],[6.4706001,35.4847967],[6.4705791,35.4849907]]]}},{"type":"Feature","id":68,"properties":{"insula_id":"TIMG.SE.I11","name":"","description":"","period":"","certainty":"confirmed","plan_source":"Traced from georeferenced satellite imagery","area_sqm":467.0,"quarter":"SE","status":"not started"},"geometry":{"type":"Polygon","coordinates":[[[6.4702866,35.4849701],[6.4700544,35.4849547],[6.4700702,35.4847518],[6.4701892,35.4847554],[6.4701886,35.4847705],[6.470299,35.4847743],[6.4702866,35.4849701]]]}},{"type":"Feature","id":69,"properties":{"insula_id":"TIMG.SE.I10","name":"","description":"","period":"","certainty":"confirmed","plan_source":"Traced from georeferenced satellite imagery","area_sqm":431.8,"quarter":"SE","status":"not started"},"geometry":{"type":"Polygon","coordinates":[[[6.4699849,35.4849481],[6.4700097,35.484761],[6.4697791,35.4847484],[6.4697563,35.4849313],[6.4699849,35.4849481]]]}},{"type":"Feature","id":70,"properties":{"insula_id":"TIMG.SW.I5","name":"","description":"","period":"","certainty":"confirmed","plan_source":"Traced from georeferenced satellite imagery","area_sqm":442.0,"quarter":"SW","status":"not started"},"geometry":{"type":"Polygon","coordinates":[[[6.4673073,35.4849815],[6.4675391,35.4849977],[6.4675562,35.4848097],[6.4673272,35.4847918],[6.4673073,35.4849815]]]}},{"type":"Feature","id":71,"properties":{"insula_id":"TIMG.SW.I10","name":"","description":"","period":"","certainty":"confirmed","plan_source":"Traced from georeferenced satellite imagery","area_sqm":553.2,"quarter":"SW","status":"not started"},"geometry":{"type":"Polygon","coordinates":[[[6.4673272,35.4847918],[6.4675562,35.4848097],[6.4675782,35.484569],[6.4673521,35.4845539],[6.4673272,35.4847918]]]}},{"type":"Feature","id":72,"properties":{"insula_id":"TIMG.SW.I15","name":"","description":"","period":"","certainty":"confirmed","plan_source":"Traced from georeferenced satellite imagery","area_sqm":435.1,"quarter":"SW","status":"not started"},"geometry":{"type":"Polygon","coordinates":[[[6.467364,35.4845005],[6.46759,35.4845187],[6.4676156,35.4843323],[6.4673826,35.4843144],[6.467364,35.4845005]]]}},{"type":"Feature","id":73,"properties":{"insula_id":"TIMG.SW.I20","name":"","description":"","period":"","certainty":"confirmed","plan_source":"Traced from georeferenced satellite imagery","notes":"[insula_id cleaned corrected: format: SW.20 -> SW.I20, lattice check 2026-08-07]","area_sqm":426.3,"quarter":"SW","status":"not started"},"geometry":{"type":"Polygon","coordinates":[[[6.4673862,35.4842607],[6.4676196,35.4842796],[6.4676396,35.4840979],[6.4674091,35.4840812],[6.4673862,35.4842607]]]}},{"type":"Feature","id":74,"properties":{"insula_id":"TIMG.SW.I25","name":"","description":"","period":"","certainty":"confirmed","plan_source":"Traced from georeferenced satellite imagery","area_sqm":428.3,"quarter":"SW","status":"not started"},"geometry":{"type":"Polygon","coordinates":[[[6.467647,35.4840439],[6.4676657,35.4838634],[6.4674364,35.4838415],[6.4674136,35.4840244],[6.467647,35.4840439]]]}},{"type":"Feature","id":75,"properties":{"insula_id":"TIMG.SW.I30","name":"","description":"","period":"","certainty":"confirmed","plan_source":"Traced from georeferenced satellite imagery","area_sqm":437.7,"quarter":"SW","status":"not started"},"geometry":{"type":"Polygon","coordinates":[[[6.4674425,35.4837862],[6.4676707,35.4838039],[6.4676912,35.4836164],[6.4674585,35.4835997],[6.4674425,35.4837862]]]}},{"type":"Feature","id":76,"properties":{"insula_id":"TIMG.SW.I29","name":"","description":"","period":"","certainty":"confirmed","plan_source":"Traced from georeferenced satellite imagery","area_sqm":450.6,"quarter":"SW","status":"not started"},"geometry":{"type":"Polygon","coordinates":[[[6.4677316,35.4838064],[6.467967,35.4838243],[6.4679866,35.4836369],[6.4677486,35.4836191],[6.4677316,35.4838064]]]}},{"type":"Feature","id":77,"properties":{"insula_id":"TIMG.SW.I28","name":"","description":"","period":"","certainty":"confirmed","plan_source":"Traced from georeferenced satellite imagery","area_sqm":438.6,"quarter":"SW","status":"not started"},"geometry":{"type":"Polygon","coordinates":[[[6.4680329,35.4838296],[6.468261,35.4838507],[6.4682805,35.4836643],[6.4680486,35.4836412],[6.4680329,35.4838296]]]}},{"type":"Feature","id":78,"properties":{"insula_id":"TIMG.SW.I27","name":"","description":"","period":"","certainty":"confirmed","plan_source":"Traced from georeferenced satellite imagery","area_sqm":612.3,"quarter":"SW","status":"not started"},"geometry":{"type":"Polygon","coordinates":[[[6.4683243,35.4838581],[6.4683413,35.4836698],[6.4686546,35.4836874],[6.4686395,35.4838833],[6.4683243,35.4838581]]]}},{"type":"Feature","id":79,"properties":{"insula_id":"TIMG.SW.I24","name":"","description":"","period":"","certainty":"confirmed","plan_source":"Traced from georeferenced satellite imagery","area_sqm":423.2,"quarter":"SW","status":"not started"},"geometry":{"type":"Polygon","coordinates":[[[6.46771,35.4840451],[6.4679349,35.4840629],[6.4679596,35.4838823],[6.4677248,35.4838637],[6.46771,35.4840451]]]}},{"type":"Feature","id":80,"properties":{"insula_id":"TIMG.SW.I23","name":"","description":"","period":"","certainty":"confirmed","plan_source":"Traced from georeferenced satellite imagery","area_sqm":435.6,"quarter":"SW","status":"not started"},"geometry":{"type":"Polygon","coordinates":[[[6.4680073,35.4840735],[6.4682351,35.4840934],[6.4682596,35.4839094],[6.4680274,35.4838861],[6.4680073,35.4840735]]]}},{"type":"Feature","id":81,"properties":{"insula_id":"TIMG.SW.I22","name":"","description":"","period":"","certainty":"confirmed","plan_source":"Traced from georeferenced satellite imagery","area_sqm":425.3,"quarter":"SW","status":"not started"},"geometry":{"type":"Polygon","coordinates":[[[6.4682973,35.4840986],[6.4686052,35.4841228],[6.4686154,35.4840304],[6.4684546,35.484018],[6.4684648,35.4839277],[6.4683163,35.4839159],[6.4682973,35.4840986]]]}},{"type":"Feature","id":82,"properties":{"insula_id":"TIMG.SW.I17","name":"","description":"","period":"","certainty":"confirmed","plan_source":"Traced from georeferenced satellite imagery","area_sqm":733.7,"quarter":"SW","status":"not started"},"geometry":{"type":"Polygon","coordinates":[[[6.4682661,35.4843832],[6.4685739,35.4844077],[6.4686001,35.4841691],[6.4682916,35.484153],[6.4682661,35.4843832]]]}},{"type":"Feature","id":83,"properties":{"insula_id":"TIMG.SW.I18","name":"","description":"","period":"","certainty":"confirmed","plan_source":"Traced from georeferenced satellite imagery","area_sqm":421.2,"quarter":"SW","status":"not started"},"geometry":{"type":"Polygon","coordinates":[[[6.4682143,35.4843268],[6.4682311,35.4841506],[6.4680031,35.4841272],[6.467981,35.4843097],[6.4682143,35.4843268]]]}},{"type":"Feature","id":84,"properties":{"insula_id":"TIMG.SW.I19","name":"","description":"","period":"","certainty":"confirmed","plan_source":"Traced from georeferenced satellite imagery","area_sqm":418.9,"quarter":"SW","status":"not started"},"geometry":{"type":"Polygon","coordinates":[[[6.4677,35.4840992],[6.4679153,35.4841138],[6.4678962,35.4843043],[6.4676769,35.4842882],[6.4677,35.4840992]]]}},{"type":"Feature","id":85,"properties":{"insula_id":"TIMG.SW.I14","name":"","description":"","period":"","certainty":"confirmed","plan_source":"Traced from georeferenced satellite imagery","area_sqm":432.6,"quarter":"SW","status":"not started"},"geometry":{"type":"Polygon","coordinates":[[[6.4676538,35.4845219],[6.467883,35.484544],[6.4679083,35.4843598],[6.4676752,35.4843393],[6.4676538,35.4845219]]]}},{"type":"Feature","id":86,"properties":{"insula_id":"TIMG.SW.I13","name":"","description":"","period":"","certainty":"confirmed","plan_source":"Traced from georeferenced satellite imagery","area_sqm":452.3,"quarter":"SW","status":"not started"},"geometry":{"type":"Polygon","coordinates":[[[6.4679536,35.4845516],[6.4681945,35.4845718],[6.4682097,35.4843814],[6.467975,35.4843674],[6.4679536,35.4845516]]]}},{"type":"Feature","id":87,"properties":{"insula_id":"TIMG.SW.I8","name":"","description":"","period":"","certainty":"confirmed","plan_source":"Traced from georeferenced satellite imagery","area_sqm":435.3,"quarter":"SW","status":"not started"},"geometry":{"type":"Polygon","coordinates":[[[6.4679266,35.4847858],[6.4681598,35.4848078],[6.4681813,35.4846268],[6.4679441,35.4846033],[6.4679266,35.4847858]]]}},{"type":"Feature","id":88,"properties":{"insula_id":"TIMG.SW.I3","name":"","description":"","period":"","certainty":"confirmed","plan_source":"Traced from georeferenced satellite imagery","area_sqm":454.8,"quarter":"SW","status":"not started"},"geometry":{"type":"Polygon","coordinates":[[[6.4678999,35.4850259],[6.4681292,35.4850497],[6.468154,35.4848558],[6.467919,35.4848355],[6.4678999,35.4850259]]]}},{"type":"Feature","id":89,"properties":{"insula_id":"TIMG.SW.I4","name":"","description":"","period":"","certainty":"confirmed","plan_source":"Traced from georeferenced satellite imagery","area_sqm":446.4,"quarter":"SW","status":"not started"},"geometry":{"type":"Polygon","coordinates":[[[6.4676041,35.4849993],[6.4678333,35.4850199],[6.4678563,35.4848293],[6.4676233,35.4848105],[6.4676041,35.4849993]]]}},{"type":"Feature","id":90,"properties":{"insula_id":"TIMG.SW.I9","name":"","description":"","period":"","certainty":"confirmed","plan_source":"Traced from georeferenced satellite imagery","area_sqm":432.4,"quarter":"SW","status":"not started"},"geometry":{"type":"Polygon","coordinates":[[[6.4676289,35.4847592],[6.4678599,35.4847765],[6.4678834,35.4845971],[6.4676444,35.4845768],[6.4676289,35.4847592]]]}},{"type":"Feature","id":91,"properties":{"insula_id":"TIMG.SE.I16","name":"","description":"","period":"","certainty":"confirmed","plan_source":"Traced from georeferenced satellite imagery","notes":"[insula_id cleaned corrected: duplicate of SE.I6 (fid 65); polygon sits at C9.R9, lattice check 2026-08-07]","area_sqm":462.3,"quarter":"SE","status":"not started"},"geometry":{"type":"Polygon","coordinates":[[[6.4700119,35.4847112],[6.4700353,35.4845177],[6.4697984,35.4845],[6.4697778,35.4846925],[6.4700119,35.4847112]]]}},{"type":"Feature","id":92,"properties":{"insula_id":"TIMG.SE.I9","name":"","description":"","period":"","certainty":"confirmed","plan_source":"Traced from georeferenced satellite imagery","area_sqm":439.9,"quarter":"SE","status":"not started"},"geometry":{"type":"Polygon","coordinates":[[[6.4694872,35.48473],[6.4697216,35.4847442],[6.4697038,35.4849278],[6.4694636,35.4849114],[6.4694872,35.48473]]]}},{"type":"Feature","id":93,"properties":{"insula_id":"TIMG.SE.I17","name":"","description":"","period":"","certainty":"confirmed","plan_source":"Traced from georeferenced satellite imagery","area_sqm":440.3,"quarter":"SE","status":"not started"},"geometry":{"type":"Polygon","coordinates":[[[6.4700801,35.4847152],[6.470305,35.4847285],[6.4703219,35.4845375],[6.4700959,35.4845211],[6.4700801,35.4847152]]]}},{"type":"Feature","id":94,"properties":{"insula_id":"TIMG.SE.I23","name":"","description":"","period":"","certainty":"confirmed","plan_source":"Traced from georeferenced satellite imagery","area_sqm":453.6,"quarter":"SE","status":"not started"},"geometry":{"type":"Polygon","coordinates":[[[6.470124,35.4842757],[6.4703539,35.4842944],[6.4703314,35.4844888],[6.4701034,35.4844708],[6.470124,35.4842757]]]}},{"type":"Feature","id":95,"properties":{"insula_id":"TIMG.SE.I29","name":"","description":"","period":"","certainty":"confirmed","plan_source":"Traced from georeferenced satellite imagery","area_sqm":598.5,"quarter":"SE","status":"not started"},"geometry":{"type":"Polygon","coordinates":[[[6.4703614,35.4842343],[6.4703793,35.4840106],[6.4701139,35.4839995],[6.470096,35.4842213],[6.4703614,35.4842343]]]}},{"type":"Feature","id":96,"properties":{"insula_id":"TIMG.SE.I28","name":"","description":"","period":"","certainty":"confirmed","plan_source":"Traced from georeferenced satellite imagery","area_sqm":476.4,"quarter":"SE","status":"not started"},"geometry":{"type":"Polygon","coordinates":[[[6.4700615,35.4842193],[6.470087,35.4839869],[6.4700376,35.4839845],[6.4700356,35.4840184],[6.4698518,35.4840105],[6.4698303,35.4842034],[6.4700615,35.4842193]]]}},{"type":"Feature","id":97,"properties":{"insula_id":"TIMG.SE.I27","name":"","description":"","period":"","certainty":"confirmed","plan_source":"Traced from georeferenced satellite imagery","area_sqm":417.4,"quarter":"SE","status":"not started"},"geometry":{"type":"Polygon","coordinates":[[[6.4697701,35.4841967],[6.4697895,35.4840076],[6.469572,35.4839895],[6.4695526,35.4841776],[6.4697701,35.4841967]]]}},{"type":"Feature","id":98,"properties":{"insula_id":"TIMG.SE.I21","name":"","description":"","period":"","certainty":"confirmed","plan_source":"Traced from georeferenced satellite imagery","area_sqm":563.3,"quarter":"SE","status":"not started"},"geometry":{"type":"Polygon","coordinates":[[[6.4695209,35.4844447],[6.4697709,35.48447],[6.4697908,35.484247],[6.469536,35.4842281],[6.4695209,35.4844447]]]}},{"type":"Feature","id":99,"properties":{"insula_id":"TIMG.SE.I22","name":"","description":"","period":"","certainty":"confirmed","plan_source":"Traced from georeferenced satellite imagery","area_sqm":510.8,"quarter":"SE","status":"not started"},"geometry":{"type":"Polygon","coordinates":[[[6.4698083,35.4844752],[6.4700425,35.4844916],[6.4700641,35.4842779],[6.4698298,35.4842595],[6.4698083,35.4844752]]]}},{"type":"Feature","id":100,"properties":{"insula_id":"TIMG.SE.I35","name":"","description":"","period":"","certainty":"confirmed","plan_source":"Traced from georeferenced satellite imagery","area_sqm":526.8,"quarter":"SE","status":"not started"},"geometry":{"type":"Polygon","coordinates":[[[6.4701321,35.4839695],[6.4703791,35.4839829],[6.4703908,35.4837708],[6.470144,35.4837597],[6.4701321,35.4839695]]]}},{"type":"Feature","id":101,"properties":{"insula_id":"TIMG.SE.I34","name":"","description":"","period":"","certainty":"confirmed","plan_source":"Traced from georeferenced satellite imagery","notes":"[insula_id cleaned corrected: duplicate of SE.I35 (fid 100); polygon sits one block west, lattice check 2026-08-07]","area_sqm":453.2,"quarter":"SE","status":"not started"},"geometry":{"type":"Polygon","coordinates":[[[6.4700874,35.4839662],[6.4698601,35.4839557],[6.4698753,35.4837583],[6.4700983,35.4837655],[6.4700874,35.4839662]]]}},{"type":"Feature","id":102,"properties":{"insula_id":"TIMG.SE.I33","name":"","description":"","period":"","certainty":"confirmed","plan_source":"Traced from georeferenced satellite imagery","notes":"[insula_id cleaned corrected: renumbered with fid 101; polygon sits at C8.R12, lattice check 2026-08-07]","area_sqm":464.0,"quarter":"SE","status":"not started"},"geometry":{"type":"Polygon","coordinates":[[[6.4695858,35.4837348],[6.4698149,35.4837555],[6.4697928,35.4839531],[6.4695623,35.4839335],[6.4695858,35.4837348]]]}},{"type":"Feature","id":103,"properties":{"insula_id":"TIMG.SE.I32","name":"","description":"","period":"","certainty":"confirmed","plan_source":"Traced from georeferenced satellite imagery","area_sqm":433.7,"quarter":"SE","status":"not started"},"geometry":{"type":"Polygon","coordinates":[[[6.4692741,35.4839084],[6.4694718,35.4839279],[6.4694983,35.4837133],[6.4692959,35.4836972],[6.4692741,35.4839084]]]}}]}