{"type":"FeatureCollection","name":"mosaics","features":[{"type":"Feature","id":1,"properties":{"insula_id":"TIMG.E-SW.I2","building_id":"Entrepot","description":"114","plan_source":"Germain_1969_88"},"geometry":{"type":"Polygon","coordinates":[[[6.4636179,35.4860535],[6.4636451,35.4860723],[6.4636756,35.4860416],[6.4636488,35.4860235],[6.4636179,35.4860535]]]}},{"type":"Feature","id":2,"properties":{"insula_id":"TIMG.E-SW.I2","name":"Entrepot","description":"115","plan_source":"Germain_1969_88"},"geometry":{"type":"Polygon","coordinates":[[[6.4635411,35.4859988],[6.4635654,35.4859678],[6.4636219,35.4859963],[6.4635966,35.4860254],[6.4635411,35.4859988]]]}},{"type":"Feature","id":3,"properties":{"insula_id":"TIMG.E-SW.I2","name":"Entrepot","description":"116","plan_source":"Germain_1969_88"},"geometry":{"type":"Polygon","coordinates":[[[6.4636277,35.4859609],[6.4636397,35.4859467],[6.4636702,35.4859633],[6.4636588,35.4859773],[6.4636277,35.4859609]]]}},{"type":"Feature","id":4,"properties":{"insula_id":"TIMG.E-SW.I2","name":"Entrepot","description":"117","plan_source":"Germain_1969_88"},"geometry":{"type":"Polygon","coordinates":[[[6.4633768,35.4859185],[6.4633949,35.4859263],[6.4634081,35.4859072],[6.463391,35.4858998],[6.4633768,35.4859185]]]}},{"type":"Feature","id":5,"properties":{"insula_id":"TIMG.E-SW.I2","name":"Entrepot","description":"119","plan_source":"Germain_1969_88"},"geometry":{"type":"Polygon","coordinates":[[[6.4633298,35.4859871],[6.4633136,35.4859794],[6.4633245,35.4859649],[6.4633399,35.4859725],[6.4633298,35.4859871]]]}},{"type":"Feature","id":6,"properties":{"insula_id":"TIMG.E-SW.I2","name":"Entrepot","description":"118","plan_source":"Germain_1969_88"},"geometry":{"type":"Polygon","coordinates":[[[6.463324,35.4858894],[6.4633401,35.4858675],[6.4633709,35.4858828],[6.4633564,35.485905],[6.463324,35.4858894]]]}},{"type":"Feature","id":7,"properties":{"insula_id":"TIMG.E-SW.I1","name":"House of Sertius","description":"69","plan_source":"Germain_1969_59"},"geometry":{"type":"Polygon","coordinates":[[[6.4679385,35.4835686],[6.4679804,35.4835699],[6.4679806,35.4835505],[6.4679399,35.4835512],[6.4679385,35.4835686]]]}},{"type":"Feature","id":8,"properties":{"insula_id":"TIMG.E-SW.I1","name":"House of Sertius","description":"68","plan_source":"Germain_1969_59"},"geometry":{"type":"Polygon","coordinates":[[[6.4679218,35.4835407],[6.467897,35.4835398],[6.4678981,35.4835178],[6.4679229,35.4835179],[6.4679218,35.4835407]]]}},{"type":"Feature","id":9,"properties":{"insula_id":"TIMG.E-SW.I1 ","name":"House of Sertius","description":"71","plan_source":"Germain_1969_59"},"geometry":{"type":"Polygon","coordinates":[[[6.4676861,35.4834175],[6.4676372,35.4834177],[6.4676361,35.4833821],[6.4676859,35.4833811],[6.4676861,35.4834175]]]}},{"type":"Feature","id":10,"properties":{"insula_id":"TIMG.E-SW.I1 ","name":"House of Sertius","description":"70","plan_source":"Germain_1969_59"},"geometry":{"type":"Polygon","coordinates":[[[6.4677239,35.4834154],[6.4677094,35.483415],[6.4677102,35.4833817],[6.4677238,35.483382],[6.4677239,35.4834154]]]}},{"type":"Feature","id":11,"properties":{"insula_id":"TIMG.E-SW.I1 ","name":"House of Sertius","description":"72","plan_source":"Germain_1969_59"},"geometry":{"type":"Polygon","coordinates":[[[6.4675888,35.4834037],[6.4676056,35.4834039],[6.4676055,35.4833798],[6.467591,35.4833799],[6.4675888,35.4834037]]]}},{"type":"Feature","id":12,"properties":{"insula_id":"TIMG.E-SW.I1","name":"Hosue of Sertius","description":"73","plan_source":"Germain_1969_59"},"geometry":{"type":"Polygon","coordinates":[[[6.467599,35.4834608],[6.4675727,35.4834608],[6.4675731,35.483439],[6.4675984,35.4834379],[6.467599,35.4834608]]]}},{"type":"Feature","id":13,"properties":{"name":"House of Sertius","description":"74","plan_source":"Germain_1969_59"},"geometry":{"type":"Polygon","coordinates":[[[6.4675509,35.4834596],[6.4675337,35.483459],[6.4675337,35.4834401],[6.4675505,35.4834403],[6.4675509,35.4834596]]]}},{"type":"Feature","id":14,"properties":{"insula_id":"TIMG.E-SW.I1","name":"House of Sertius","description":"75","plan_source":"Germain_1969_59"},"geometry":{"type":"Polygon","coordinates":[[[6.4673296,35.4833836],[6.4673931,35.4833871],[6.4673935,35.4833558],[6.4673296,35.4833552],[6.4673296,35.4833836]]]}},{"type":"Feature","id":15,"properties":{"insula_id":"TIMG.SW.I5","name":"House of the Pool (Maison de la Piscina)","description":"I67-75 (formed by merging two adjacent insulae)","period":"Early Foundation (1st-2nd c.), modifications dated to 3rd c. (Germain 1969: 44) contemporary with Sertius house","plan_source":"BCB fig. 166 (partial--north ruined; south better preserved); Ballu 1903 pp. 168-169; Rebuffat 1969: 676; Germain 1969: 50","notes":"mosaic 44 (Germain)"},"geometry":{"type":"Polygon","coordinates":[[[6.4674466,35.484612],[6.46748,35.4846133],[6.4674818,35.4845907],[6.4674476,35.4845901],[6.4674466,35.484612]]]}},{"type":"Feature","id":16,"properties":{"insula_id":"TIMG.SW.I5","name":"House of the Pool (Maison de la Piscina)","description":"I67-75 (formed by merging two adjacent insulae)","period":"Early Foundation (1st-2nd c.), modifications dated to 3rd c. (Germain 1969: 44) contemporary with Sertius house","plan_source":"BCB fig. 166 (partial--north ruined; south better preserved); Ballu 1903 pp. 168-169; Rebuffat 1969: 676; Germain 1969: 50","notes":"mosaic 43 (Germain)"},"geometry":{"type":"Polygon","coordinates":[[[6.4674718,35.4846503],[6.4674488,35.4846491],[6.4674495,35.4846406],[6.4674725,35.4846422],[6.4674718,35.4846503]]]}},{"type":"Feature","id":17,"properties":{"insula_id":"TIMG.SW.I5","name":"House of the Pool (Maison de la Piscina)","description":"I67-75 (formed by merging two adjacent insulae)","period":"Early Foundation (1st-2nd c.), modifications dated to 3rd c. (Germain 1969: 44) contemporary with Sertius house","plan_source":"BCB fig. 166 (partial--north ruined; south better preserved); Ballu 1903 pp. 168-169; Rebuffat 1969: 676; Germain 1969: 50","notes":"mosaic 41 (Germain)"},"geometry":{"type":"Polygon","coordinates":[[[6.4673767,35.4846114],[6.4673631,35.4846108],[6.4673647,35.4845889],[6.4673779,35.4845892],[6.4673767,35.4846114]]]}},{"type":"Feature","id":18,"properties":{"insula_id":"TIMG.SW.I5","name":"House of the Pool (Maison de la Piscina)","description":"I67-75 (formed by merging two adjacent insulae)","period":"Early Foundation (1st-2nd c.), modifications dated to 3rd c. (Germain 1969: 44) contemporary with Sertius house","plan_source":"BCB fig. 166 (partial--north ruined; south better preserved); Ballu 1903 pp. 168-169; Rebuffat 1969: 676; Germain 1969: 50","notes":"mosaic 42 (Germain)"},"geometry":{"type":"Polygon","coordinates":[[[6.4674131,35.4846664],[6.4674016,35.484666],[6.467403,35.48465],[6.4674141,35.4846503],[6.4674131,35.4846664]]]}}]}