{"type":"FeatureCollection","name":"open_spaces","features":[{"type":"Feature","id":1,"properties":{"insula_id":"TIMG.E-SW.I2","name":"Entrepot","area_type":"peristyle court"},"geometry":{"type":"Polygon","coordinates":[[[6.4639214,35.4861058],[6.4637401,35.4859932],[6.4636536,35.4860833],[6.4638352,35.4861992],[6.4639214,35.4861058]]]}},{"type":"Feature","id":2,"properties":{"insula_id":"TIMG.E-SW.I2","name":"Entrepot","area_type":"peristyle","description":"smaller second open court"},"geometry":{"type":"Polygon","coordinates":[[[6.4634288,35.4859482],[6.4634507,35.4859228],[6.4635194,35.4859643],[6.4634956,35.4859908],[6.4634288,35.4859482]]]}},{"type":"Feature","id":3,"properties":{"insula_id":"TIMG.E-SW.I1","name":"peristyle","plan_source":"Ballu 1903; 1905, 156; Germain 1969, fig. 6"},"geometry":{"type":"Polygon","coordinates":[[[6.4677132,35.483331],[6.4677027,35.4834529],[6.4678648,35.4834605],[6.4678746,35.4833391],[6.4677132,35.483331]]]}},{"type":"Feature","id":4,"properties":{"insula_id":"TIMG.E-SW.I1","name":"peristyle","plan_source":"Ballu 1903; 1905, 156; Germain 1969, fig. 6"},"geometry":{"type":"Polygon","coordinates":[[[6.4676203,35.4834147],[6.4676248,35.4833533],[6.4674254,35.4833409],[6.467421,35.4834055],[6.4676203,35.4834147]]]}},{"type":"Feature","id":5,"properties":{"insula_id":"TIMG.SW.I5","name":"House of the Pool (Maison de la Piscina)","description":"I67-75 (formed by merging two adjacent insulae)","period":"Early Foundation (1st-2nd c.), modifications dated to 3rd c. (Germain 1969: 44) contemporary with Sertius house","plan_source":"BCB fig. 166 (partial--north ruined; south better preserved); Ballu 1903 pp. 168-169; Rebuffat 1969: 676; Germain 1969: 50"},"geometry":{"type":"Polygon","coordinates":[[[6.4674194,35.4846517],[6.4674086,35.4847466],[6.4674856,35.4847516],[6.4674971,35.484655],[6.4674194,35.4846517]]]}},{"type":"Feature","id":6,"properties":{"insula_id":"TIMG.E-SE.I4","name":"House of the Hermaphrodite (Maison de l'Hermaphrodite)","area_type":"peristyle court","description":"MN-12/13, single insula (Faubourg zone, theatre area)","period":"","plan_source":"Ballu 1903 pl. XXIII (II: 90-94); BCB fig. 152 (321-326); Germain 1969 fig. 7 (65-69)","notes":""},"geometry":{"type":"Polygon","coordinates":[[[6.4684774,35.483405],[6.4686503,35.4834189],[6.4686444,35.4835151],[6.4686444,35.4835151],[6.4684709,35.4835012],[6.4684774,35.483405]]]}}]}