{"type":"FeatureCollection","name":"religious_buildings","features":[{"type":"Feature","id":1,"properties":{"insula_id":"","name":"Capitol","building_use":"temple - Capitolium","description":"","period":"2nd c. CE","certainty":"confirmed","plan_source":"Traced from georeferenced satellite imagery","notes":"Fr: Capitole - Great temple of the Capitoline triad on its podium, SW of the grid.","area_sqm":5695.3},"geometry":{"type":"Polygon","coordinates":[[[6.4667628,35.4838975],[6.4669903,35.4833879],[6.4660624,35.4830924],[6.4658065,35.4836397],[6.4667628,35.4838975]]]}},{"type":"Feature","id":2,"properties":{"insula_id":"","name":"Temple (unidentified)","building_use":"temple","description":"","period":"","certainty":"probable","plan_source":"Traced from georeferenced satellite imagery","area_sqm":707.2},"geometry":{"type":"Polygon","coordinates":[[[6.4668556,35.4854145],[6.4668843,35.4851213],[6.4666126,35.4851666],[6.466645,35.485427],[6.4667084,35.4854206],[6.4667126,35.4854671],[6.4667886,35.4854667],[6.4667885,35.4854119],[6.4668557,35.4854154],[6.4668556,35.4854145]]]}},{"type":"Feature","id":3,"properties":{"insula_id":"","name":"Temple of Ceres (?)","building_use":"temple","description":"","period":"","certainty":"uncertain","plan_source":"Traced from georeferenced satellite imagery","notes":"Fr: Temple de Cérès - Identification tentative.","area_sqm":1427.2},"geometry":{"type":"Polygon","coordinates":[[[6.4692174,35.4845273],[6.4694716,35.4845404],[6.469508,35.4839825],[6.4692613,35.4839606],[6.4692174,35.4845273]]]}},{"type":"Feature","id":4,"properties":{"insula_id":"","name":"Temple of Mercury (?)","building_use":"temple","description":"","period":"","certainty":"uncertain","plan_source":"Traced from georeferenced satellite imagery","notes":"Fr: Temple de Mercure - Identification tentative.","area_sqm":433.7},"geometry":{"type":"Polygon","coordinates":[[[6.4692741,35.4839084],[6.4694718,35.4839279],[6.4694983,35.4837133],[6.4692959,35.4836972],[6.4692741,35.4839084]]]}},{"type":"Feature","id":5,"properties":{"insula_id":"","name":"Donatist Cathedral and dependencies","building_use":"church - basilica complex","description":"","period":"late 4th c. CE","certainty":"confirmed","plan_source":"Traced from georeferenced satellite imagery","notes":"Fr: Cathédrale donatiste - Great western basilica complex; seat of the Donatist bishopric (Optatus, c. 388-398).","area_sqm":11068.9},"geometry":{"type":"Polygon","coordinates":[[[6.4637796,35.4828772],[6.4640157,35.4829434],[6.463981,35.4830146],[6.4643664,35.4831213],[6.4643884,35.4830758],[6.4646114,35.4831564],[6.4650052,35.4825811],[6.4652208,35.4822494],[6.4642657,35.481816],[6.4637796,35.4828772]]]}}]}