{"type":"FeatureCollection","name":"roads","features":[{"type":"Feature","id":1,"properties":{"road_name":"Cardo Maximus","road_type":"cardo (N-S)","certainty":"confirmed","plan_source":"Traced from georeferenced satellite imagery","area_sqm":2480.1},"geometry":{"type":"Polygon","coordinates":[[[6.468741,35.4851283],[6.4687365,35.48518],[6.4687144,35.4854388],[6.4686853,35.4857352],[6.4686629,35.485917],[6.4686398,35.4861049],[6.4686281,35.4862087],[6.4686004,35.4864526],[6.4685995,35.4864609],[6.468585,35.4866489],[6.4685781,35.4867396],[6.4685151,35.4874038],[6.4684737,35.4879457],[6.4684286,35.4885041],[6.4685002,35.4885094],[6.4686573,35.4866499],[6.46868,35.486407],[6.4686978,35.4862164],[6.4687042,35.4861624],[6.4687265,35.4859728],[6.4687546,35.485734],[6.4687579,35.4857063],[6.4687601,35.4856821],[6.4687769,35.485497],[6.4688058,35.485179],[6.4688085,35.4851335],[6.468741,35.4851283]]]}},{"type":"Feature","id":2,"properties":{"road_name":"Decumanus Maximus","road_type":"decumanus (E-W)","certainty":"confirmed","plan_source":"Traced from georeferenced satellite imagery","area_sqm":1722.1},"geometry":{"type":"Polygon","coordinates":[[[6.4708243,35.4853366],[6.4708292,35.4852917],[6.4708033,35.4852896],[6.4706088,35.4852738],[6.4705333,35.4852698],[6.4700146,35.4852225],[6.4699525,35.4852177],[6.4697365,35.4852008],[6.469397,35.485178],[6.4693735,35.4851764],[6.468741,35.4851283],[6.4681637,35.4850838],[6.4681311,35.4850813],[6.4678946,35.4850634],[6.4675279,35.4850312],[6.4672974,35.4850133],[6.4671671,35.4850031],[6.4671682,35.4850564],[6.4672378,35.4850602],[6.4672921,35.4850631],[6.4673045,35.4850638],[6.4675328,35.485079],[6.467818,35.4851001],[6.4678954,35.4851059],[6.4681186,35.4851253],[6.4681764,35.4851304],[6.4681823,35.4851309],[6.4684134,35.4851511],[6.4684764,35.4851567],[6.4687365,35.48518],[6.4688058,35.485179],[6.4691322,35.4851995],[6.4693652,35.485218],[6.4694214,35.4852225],[6.469607,35.4852372],[6.4696475,35.4852407],[6.4697005,35.4852453],[6.4699397,35.4852658],[6.4699934,35.4852704],[6.4706734,35.4853289],[6.4707699,35.4853338],[6.4708243,35.4853366]]]}},{"type":"Feature","id":3,"properties":{"road_name":"Road to Lambaesis (route de Lambèse)","road_type":"extramural road (off-grid)","certainty":"confirmed","plan_source":"Traced from georeferenced satellite imagery","notes":"Western continuation of the decumanus beyond the Arch of Trajan toward Lambaesis; 26.6 deg off-grid.","area_sqm":2790.9},"geometry":{"type":"Polygon","coordinates":[[[6.4671682,35.4850564],[6.4671664,35.4849661],[6.466961,35.4849831],[6.4668943,35.4850065],[6.4668819,35.4850109],[6.46649,35.4851313],[6.4662611,35.4852172],[6.4662146,35.4852347],[6.4653558,35.4855984],[6.4652335,35.4856483],[6.4652323,35.4856488],[6.4651975,35.485663],[6.4651953,35.4856639],[6.4648034,35.4858239],[6.4647199,35.4858487],[6.4647,35.4858486],[6.4646998,35.4858486],[6.4646663,35.4858484],[6.4645848,35.4859041],[6.464202,35.4861629],[6.4641377,35.4861575],[6.4638731,35.4864259],[6.4637651,35.4865002],[6.4637647,35.4865005],[6.463735,35.4865209],[6.4637927,35.4865631],[6.4638355,35.4865334],[6.4638396,35.4865306],[6.4639851,35.4864298],[6.4641863,35.4862296],[6.4642683,35.4861872],[6.4643774,35.4861212],[6.4644794,35.4860534],[6.4645526,35.485997],[6.4645676,35.4859854],[6.4645718,35.4859822],[6.4646656,35.485886],[6.4648159,35.4858589],[6.4648859,35.4858607],[6.4653303,35.4856877],[6.4658154,35.4854856],[6.4658661,35.4854642],[6.4658704,35.4854624],[6.4660502,35.4853866],[6.4666069,35.4851696],[6.4668846,35.4851127],[6.4671682,35.4850564]]]}},{"type":"Feature","id":4,"properties":{"road_type":"cardo (N-S)","certainty":"confirmed","plan_source":"Traced from georeferenced satellite imagery","area_sqm":1630.6},"geometry":{"type":"Polygon","coordinates":[[[6.467768,35.480745],[6.4676993,35.4807398],[6.4676113,35.4808572],[6.4675543,35.4809608],[6.4675041,35.4811403],[6.467481,35.4812103],[6.4674702,35.4812429],[6.4674575,35.4812816],[6.4674179,35.4814651],[6.467306,35.4818827],[6.4673163,35.4819175],[6.4673563,35.4819494],[6.467409,35.4819924],[6.4674643,35.4820526],[6.4675186,35.4821329],[6.4675654,35.482199],[6.4675961,35.4823015],[6.4676211,35.4823934],[6.4676049,35.4824643],[6.4675629,35.4825502],[6.4675356,35.4826099],[6.4674735,35.4827711],[6.4673997,35.4829118],[6.4673386,35.483031],[6.467229,35.4831592],[6.467314,35.4831569],[6.4674285,35.4829945],[6.4675067,35.4828836],[6.46757,35.4826776],[6.4676086,35.4825885],[6.4676868,35.4825111],[6.4677394,35.4824798],[6.4676753,35.482353],[6.4676426,35.4822615],[6.4676268,35.4822119],[6.4676017,35.4821524],[6.4675756,35.482096],[6.4675386,35.48205],[6.4674925,35.4819921],[6.4674394,35.4819278],[6.4674102,35.4818868],[6.4674029,35.4818625],[6.4673963,35.4817953],[6.4674065,35.4817419],[6.4674292,35.4816315],[6.4674514,35.4815379],[6.4674604,35.481458],[6.4674671,35.4814098],[6.4674987,35.4812736],[6.4675077,35.4812439],[6.4675184,35.4812087],[6.4675714,35.4811066],[6.4675813,35.4810747],[6.4675847,35.4810378],[6.4676053,35.4809657],[6.4676318,35.4809139],[6.467677,35.4808547],[6.4677363,35.4807815],[6.4677684,35.4807448],[6.467768,35.480745]]]}},{"type":"Feature","id":5,"properties":{"road_type":"cardo (N-S)","certainty":"confirmed","plan_source":"Traced from georeferenced satellite imagery","area_sqm":2793.6},"geometry":{"type":"Polygon","coordinates":[[[6.4676868,35.4825111],[6.4677394,35.4824798],[6.467786,35.4825642],[6.4678254,35.4826263],[6.4678727,35.4827381],[6.4679564,35.4829288],[6.4679763,35.4829884],[6.4680557,35.4831529],[6.4680682,35.4831942],[6.4681062,35.4832193],[6.4680871,35.4832724],[6.4680532,35.4835894],[6.4680483,35.4836427],[6.468031,35.4838328],[6.468003,35.48408],[6.4680031,35.4841272],[6.467981,35.4843097],[6.4679504,35.4845557],[6.4679436,35.4846105],[6.4679233,35.4847902],[6.4678946,35.4850634],[6.4678622,35.48537],[6.4678569,35.485425],[6.4678384,35.4856159],[6.4678336,35.4856645],[6.4678147,35.4858593],[6.4678133,35.485874],[6.467811,35.4858941],[6.4678089,35.4859134],[6.4677887,35.4860946],[6.4677815,35.4861502],[6.4677575,35.4863359],[6.4677321,35.4865772],[6.4677126,35.4867068],[6.4676498,35.4867007],[6.4676594,35.4866201],[6.4676661,35.4865634],[6.4676853,35.4863849],[6.4676949,35.4863295],[6.4676961,35.4863225],[6.4677212,35.486146],[6.4677261,35.486095],[6.4677477,35.4859065],[6.4677529,35.4858566],[6.4677734,35.4856588],[6.4677747,35.4856465],[6.4677774,35.4856097],[6.4677913,35.4854233],[6.4677918,35.4854183],[6.4677976,35.4853626],[6.4677981,35.4853578],[6.467818,35.4851001],[6.4678335,35.48502],[6.467859,35.484784],[6.467882,35.4846038],[6.4679074,35.4843672],[6.4679144,35.4843098],[6.4679373,35.4841231],[6.4679608,35.4838879],[6.4679675,35.4838287],[6.4679824,35.4836978],[6.4679957,35.4835848],[6.4680223,35.4832615],[6.4679738,35.4831994],[6.4678993,35.4829601],[6.4678313,35.4828106],[6.4678023,35.4827161],[6.4677701,35.4826227],[6.4677268,35.4825648],[6.4676868,35.4825111],[6.4677394,35.4824798],[6.4676868,35.4825111]]]}},{"type":"Feature","id":6,"properties":{"road_type":"decumanus (E-W)","certainty":"confirmed","plan_source":"Traced from georeferenced satellite imagery","area_sqm":810.9},"geometry":{"type":"Polygon","coordinates":[[[6.4674625,35.4836022],[6.4673925,35.4835951],[6.4674014,35.4835395],[6.4674689,35.4835446],[6.4674707,35.4835447],[6.4679957,35.4835848],[6.468809,35.483645],[6.4688026,35.483706],[6.468344,35.4836678],[6.4682734,35.4836618],[6.4680483,35.4836427],[6.4677599,35.4836241],[6.4677497,35.4836233],[6.4676874,35.4836182],[6.4676871,35.4836182],[6.4673941,35.4835944],[6.4674625,35.4836022]]]}},{"type":"Feature","id":7,"properties":{"road_type":"cardo (N-S)","certainty":"confirmed","plan_source":"Traced from georeferenced satellite imagery","area_sqm":1796.1},"geometry":{"type":"Polygon","coordinates":[[[6.4674625,35.4836022],[6.4674689,35.4835446],[6.4674014,35.4835395],[6.4673941,35.4835944],[6.4673811,35.4837307],[6.4673697,35.4838665],[6.4673403,35.4841327],[6.4673533,35.4841341],[6.4673176,35.4844556],[6.4673389,35.4842757],[6.4673217,35.4842753],[6.4672967,35.4844696],[6.4672626,35.4848017],[6.4672378,35.4850602],[6.4672274,35.4851355],[6.4671881,35.4854967],[6.4671595,35.4857892],[6.4671408,35.486004],[6.4671469,35.4860958],[6.4671323,35.4862819],[6.467101,35.4862806],[6.467081,35.4864906],[6.4670705,35.4866209],[6.4670891,35.486652],[6.4671182,35.4866547],[6.4671257,35.4865779],[6.4671257,35.4865779],[6.4671384,35.486523],[6.4671574,35.486338],[6.4671604,35.4863094],[6.4671646,35.4862856],[6.4671656,35.4862803],[6.4671903,35.4861033],[6.4671937,35.4860572],[6.4671944,35.4860487],[6.4672076,35.4859317],[6.4671936,35.4859303],[6.4671995,35.4858686],[6.4671822,35.4858656],[6.4672162,35.4856552],[6.4672327,35.4856155],[6.4672398,35.4855555],[6.4672567,35.4853716],[6.4672647,35.4853089],[6.4672921,35.4850631],[6.4672974,35.4850133],[6.4673073,35.4849815],[6.4673328,35.4847382],[6.4673521,35.4845539],[6.4673572,35.4845022],[6.4673791,35.48432],[6.4673862,35.4842607],[6.4674091,35.4840812],[6.4674136,35.4840244],[6.4674364,35.4838415],[6.4674411,35.4837828],[6.4674625,35.4836022],[6.4674707,35.4835447],[6.4674014,35.4835395],[6.4674625,35.4836022]]]}},{"type":"Feature","id":8,"properties":{"road_type":"decumanus (E-W)","certainty":"confirmed","plan_source":"Traced from georeferenced satellite imagery","area_sqm":1469.0},"geometry":{"type":"Polygon","coordinates":[[[6.4671257,35.4865779],[6.4672272,35.4865855],[6.4676594,35.4866201],[6.4679859,35.4866451],[6.4683017,35.4866694],[6.4685356,35.4866904],[6.4687174,35.4867045],[6.4689607,35.4867261],[6.4692205,35.4867461],[6.4694915,35.4867635],[6.4700608,35.4867857],[6.4701393,35.486791],[6.4701452,35.486746],[6.4700736,35.486745],[6.4698554,35.486732],[6.4697887,35.4867281],[6.4695606,35.4867148],[6.4694942,35.4867109],[6.469268,35.4866977],[6.4691979,35.4866923],[6.4689816,35.4866757],[6.4689225,35.4866691],[6.4686573,35.4866499],[6.468585,35.4866489],[6.4683227,35.4866266],[6.4682586,35.4866216],[6.4680193,35.4866026],[6.4679888,35.4865999],[6.4677321,35.4865772],[6.4674367,35.4865556],[6.4673672,35.486548],[6.4671384,35.486523],[6.4671257,35.4865779]]]}},{"type":"Feature","id":9,"properties":{"road_type":"cardo (N-S)","certainty":"confirmed","plan_source":"Traced from georeferenced satellite imagery","area_sqm":1892.0},"geometry":{"type":"Polygon","coordinates":[[[6.4676874,35.4836182],[6.4677497,35.4836233],[6.4677301,35.4838102],[6.4677267,35.4838721],[6.4677076,35.4840536],[6.4676803,35.4842902],[6.4676556,35.4845286],[6.4676442,35.484627],[6.467629,35.4847636],[6.4676234,35.48481],[6.4676001,35.4850014],[6.4675634,35.485342],[6.467558,35.4853954],[6.4675377,35.4855931],[6.4675348,35.4856255],[6.4675328,35.4856467],[6.4675153,35.4858393],[6.4675097,35.4858881],[6.4674893,35.486077],[6.4674829,35.4861282],[6.4674607,35.4863087],[6.4674554,35.4863631],[6.4674367,35.4865556],[6.4673672,35.486548],[6.4673881,35.4863586],[6.4673953,35.4863024],[6.467418,35.4861245],[6.467426,35.4860688],[6.4674698,35.4856417],[6.4674763,35.485579],[6.4675004,35.4853919],[6.4675056,35.4853313],[6.4675328,35.485079],[6.4675391,35.4849977],[6.4675782,35.484569],[6.4675882,35.4845184],[6.4676117,35.4843371],[6.4676196,35.4842796],[6.4676396,35.4840979],[6.4676657,35.4838634],[6.4676871,35.4836182],[6.4676874,35.4836182]]]}},{"type":"Feature","id":10,"properties":{"road_type":"decumanus (E-W)","certainty":"confirmed","plan_source":"Traced from georeferenced satellite imagery","area_sqm":678.4},"geometry":{"type":"Polygon","coordinates":[[[6.4674411,35.4837828],[6.4674364,35.4838415],[6.4676657,35.4838634],[6.4679608,35.4838879],[6.4682511,35.4839104],[6.4683152,35.483915],[6.4684552,35.4839251],[6.4686254,35.483939],[6.4686306,35.4838922],[6.4683264,35.4838636],[6.468258,35.4838564],[6.468031,35.4838328],[6.4679675,35.4838287],[6.4674411,35.4837828]]]}},{"type":"Feature","id":11,"properties":{"road_type":"decumanus (E-W)","certainty":"confirmed","plan_source":"Traced from georeferenced satellite imagery","area_sqm":609.6},"geometry":{"type":"Polygon","coordinates":[[[6.4674091,35.4840812],[6.4676396,35.4840979],[6.4680031,35.4841272],[6.4680425,35.4841312],[6.4680488,35.4841162],[6.4680622,35.4841103],[6.4680745,35.4841121],[6.4680789,35.4841176],[6.4680795,35.484135],[6.468081,35.4841352],[6.4682311,35.4841506],[6.4682916,35.484153],[6.4686001,35.4841691],[6.4686053,35.4841222],[6.4682953,35.4841002],[6.4682294,35.484092],[6.468003,35.48408],[6.4677076,35.4840536],[6.4674136,35.4840244],[6.4674091,35.4840812]]]}},{"type":"Feature","id":12,"properties":{"road_type":"decumanus (E-W)","certainty":"confirmed","plan_source":"Traced from georeferenced satellite imagery","area_sqm":262.6},"geometry":{"type":"Polygon","coordinates":[[[6.4676234,35.48481],[6.4681522,35.4848588],[6.4681571,35.4848075],[6.467629,35.4847636],[6.4676234,35.48481]]]}},{"type":"Feature","id":13,"properties":{"road_type":"decumanus (E-W)","certainty":"confirmed","plan_source":"Traced from georeferenced satellite imagery","area_sqm":443.7},"geometry":{"type":"Polygon","coordinates":[[[6.4673521,35.4845539],[6.4681754,35.4846298],[6.468186,35.4845764],[6.4679504,35.4845557],[6.4676556,35.4845286],[6.4673572,35.4845022],[6.4673521,35.4845539]]]}},{"type":"Feature","id":14,"properties":{"road_type":"decumanus (E-W)","certainty":"confirmed","plan_source":"Traced from georeferenced satellite imagery","area_sqm":467.4},"geometry":{"type":"Polygon","coordinates":[[[6.4673791,35.48432],[6.4682025,35.4843835],[6.4682143,35.4843268],[6.467981,35.4843097],[6.4679144,35.4843098],[6.4676803,35.4842902],[6.4676196,35.4842796],[6.4673862,35.4842607],[6.4673791,35.48432]]]}},{"type":"Feature","id":15,"properties":{"road_type":"cardo (N-S)","certainty":"confirmed","plan_source":"Traced from georeferenced satellite imagery","area_sqm":764.7},"geometry":{"type":"Polygon","coordinates":[[[6.468344,35.4836678],[6.4682734,35.4836618],[6.468258,35.4838564],[6.4682294,35.484092],[6.4682311,35.4841506],[6.4682143,35.4843268],[6.4682025,35.4843835],[6.468186,35.4845764],[6.4681754,35.4846298],[6.4681571,35.4848075],[6.4681522,35.4848588],[6.4681311,35.4850813],[6.4681637,35.4850838],[6.4681918,35.4848076],[6.4682144,35.4845852],[6.4682506,35.4845873],[6.4682585,35.4844734],[6.4682661,35.4843832],[6.4682916,35.484153],[6.4682953,35.4841002],[6.4683152,35.483915],[6.468344,35.4836678]]]}},{"type":"Feature","id":16,"properties":{"road_type":"cardo (N-S)","certainty":"confirmed","plan_source":"Traced from georeferenced satellite imagery","area_sqm":625.0},"geometry":{"type":"Polygon","coordinates":[[[6.4700146,35.4852225],[6.4700518,35.4850049],[6.4700677,35.4847491],[6.4701184,35.4842773],[6.4701239,35.484224],[6.4700636,35.4842193],[6.4700575,35.4842879],[6.4700376,35.4844942],[6.4700137,35.4847125],[6.4700123,35.4847257],[6.4700104,35.4847512],[6.4700097,35.484761],[6.4699849,35.4849481],[6.4699785,35.4850015],[6.4699589,35.4851835],[6.4699525,35.4852177],[6.4700146,35.4852225]]]}},{"type":"Feature","id":17,"properties":{"road_type":"cardo (N-S)","certainty":"confirmed","plan_source":"Traced from georeferenced satellite imagery","area_sqm":829.0},"geometry":{"type":"Polygon","coordinates":[[[6.4699934,35.4852704],[6.4699934,35.4852908],[6.4699398,35.4857798],[6.4699541,35.4858321],[6.4699345,35.4860154],[6.469927,35.4860739],[6.4699032,35.4862594],[6.4698982,35.4863113],[6.4698807,35.4864947],[6.4698752,35.4865462],[6.4698554,35.486732],[6.4697887,35.4867281],[6.4698121,35.486541],[6.4698177,35.4864912],[6.4698386,35.486307],[6.4698467,35.4862512],[6.4698713,35.4860645],[6.469878,35.4860073],[6.469899,35.4858281],[6.4698946,35.4857762],[6.4698937,35.4857652],[6.4699138,35.4855776],[6.46992,35.4855192],[6.4699397,35.4852658],[6.4699934,35.4852704]]]}},{"type":"Feature","id":18,"properties":{"road_type":"cardo (N-S)","certainty":"confirmed","plan_source":"Traced from georeferenced satellite imagery","area_sqm":896.3},"geometry":{"type":"Polygon","coordinates":[[[6.4697005,35.4852453],[6.4696707,35.4855013],[6.4696676,35.4855573],[6.4696576,35.4857437],[6.4696524,35.4858034],[6.4696366,35.4859842],[6.4696314,35.4860417],[6.4696145,35.4862306],[6.4696084,35.4862854],[6.4695881,35.4864659],[6.4695606,35.4867148],[6.4694942,35.4867109],[6.4695158,35.4865185],[6.4695225,35.4864598],[6.4695435,35.4862818],[6.4695502,35.4862247],[6.4695674,35.4860351],[6.4695724,35.4859804],[6.4695974,35.4857411],[6.4696181,35.4855557],[6.4696185,35.4855517],[6.4696212,35.4855227],[6.4696235,35.4854986],[6.4696298,35.4854314],[6.4696475,35.4852407],[6.4697005,35.4852453]]]}},{"type":"Feature","id":19,"properties":{"road_type":"cardo (N-S)","certainty":"confirmed","plan_source":"Traced from georeferenced satellite imagery","area_sqm":944.7},"geometry":{"type":"Polygon","coordinates":[[[6.4694214,35.4852225],[6.469397,35.4854843],[6.4693942,35.4855138],[6.4693901,35.4855435],[6.4693653,35.4857222],[6.4693589,35.4857788],[6.4693378,35.4859645],[6.4693327,35.48602],[6.4693154,35.486209],[6.4693108,35.486262],[6.4692944,35.4864506],[6.469268,35.4866977],[6.4691979,35.4866923],[6.4692206,35.4864976],[6.4692254,35.4864468],[6.4692431,35.4862597],[6.4692769,35.4860138],[6.4692815,35.4859606],[6.469297,35.4857816],[6.4693059,35.4857161],[6.4693243,35.4855366],[6.469334,35.485478],[6.4693652,35.485218],[6.4694214,35.4852225]]]}},{"type":"Feature","id":20,"properties":{"road_type":"cardo (N-S)","certainty":"confirmed","plan_source":"Traced from georeferenced satellite imagery","area_sqm":1036.2},"geometry":{"type":"Polygon","coordinates":[[[6.4691537,35.4849451],[6.4691567,35.4849214],[6.4691043,35.4849177],[6.4690888,35.4851551],[6.469062,35.4852261],[6.4690375,35.4854541],[6.4690126,35.4856971],[6.4690101,35.4857214],[6.4690065,35.4857527],[6.468985,35.485937],[6.4689782,35.4859949],[6.4689648,35.4861812],[6.4689607,35.4862381],[6.4689398,35.4864741],[6.4689225,35.4866691],[6.4689816,35.4866757],[6.4689975,35.4864813],[6.4690016,35.4864257],[6.4690172,35.4862414],[6.4690224,35.4861803],[6.4690408,35.4860003],[6.4690474,35.4859402],[6.4690631,35.4857587],[6.469071,35.4857042],[6.4690722,35.4856964],[6.4690906,35.4855174],[6.469099,35.4854614],[6.4691322,35.4851995],[6.4691542,35.4849451],[6.4691563,35.4849213],[6.4691537,35.4849451]]]}},{"type":"Feature","id":21,"properties":{"road_type":"cardo (N-S)","certainty":"confirmed","plan_source":"Traced from georeferenced satellite imagery","area_sqm":859.5},"geometry":{"type":"Polygon","coordinates":[[[6.4683227,35.4866266],[6.4683494,35.4864351],[6.4683536,35.4863805],[6.4683716,35.4861929],[6.4683796,35.4861422],[6.4683989,35.4859528],[6.4684028,35.4859139],[6.4684041,35.4859018],[6.4684244,35.4857185],[6.4684246,35.4857138],[6.4684271,35.4856597],[6.4684455,35.4854796],[6.4684463,35.4854737],[6.4684533,35.4854207],[6.4684539,35.4854167],[6.4684735,35.4851832],[6.4684764,35.4851567],[6.4684134,35.4851511],[6.4683903,35.4854112],[6.4683896,35.4854154],[6.4683811,35.4854703],[6.4683683,35.4856603],[6.4683657,35.485709],[6.4683982,35.4857118],[6.4683743,35.4858987],[6.4683594,35.4859485],[6.4683557,35.4859798],[6.4683335,35.4859776],[6.468316,35.4861314],[6.4683075,35.486191],[6.4682893,35.4863743],[6.4682846,35.4864123],[6.4682823,35.4864304],[6.4682586,35.4866216],[6.4683227,35.4866266]]]}},{"type":"Feature","id":22,"properties":{"road_type":"cardo (N-S)","certainty":"confirmed","plan_source":"Traced from georeferenced satellite imagery","area_sqm":323.0},"geometry":{"type":"Polygon","coordinates":[[[6.4680193,35.4866026],[6.4679888,35.4865999],[6.468012,35.4863529],[6.4680264,35.4861716],[6.4680263,35.4861064],[6.4680497,35.4859219],[6.4680392,35.4858715],[6.4680445,35.4858066],[6.4680862,35.4858087],[6.468081,35.4858776],[6.4680995,35.4859247],[6.4680985,35.4859329],[6.4680749,35.4861112],[6.4680645,35.4861745],[6.4680473,35.4863579],[6.4680439,35.4863942],[6.4680193,35.4866026]]]}},{"type":"Feature","id":23,"properties":{"road_type":"cardo (N-S)","certainty":"confirmed","plan_source":"Traced from georeferenced satellite imagery","area_sqm":618.1},"geometry":{"type":"Polygon","coordinates":[[[6.4701452,35.486746],[6.4700736,35.486745],[6.4701067,35.4865649],[6.4701155,35.4865137],[6.4701172,35.4865036],[6.4701361,35.4863322],[6.4701447,35.4862846],[6.4701459,35.4862782],[6.4701656,35.4860987],[6.4701762,35.486041],[6.4701937,35.4858551],[6.4701995,35.4858037],[6.4702677,35.48581],[6.4702381,35.4860466],[6.4702307,35.486104],[6.4702112,35.4862866],[6.4702004,35.4863423],[6.4701749,35.486514],[6.4701697,35.4865671],[6.4701452,35.486746],[6.4700736,35.486745],[6.4701452,35.486746]]]}},{"type":"Feature","id":24,"properties":{"road_type":"decumanus (E-W)","certainty":"confirmed","plan_source":"Traced from georeferenced satellite imagery","area_sqm":1159.3},"geometry":{"type":"Polygon","coordinates":[[[6.4704061,35.4865836],[6.4704127,35.4865354],[6.4701749,35.486514],[6.4701155,35.4865137],[6.4698807,35.4864947],[6.4698177,35.4864912],[6.4695881,35.4864659],[6.4695225,35.4864598],[6.4692944,35.4864506],[6.4692254,35.4864468],[6.4690016,35.4864257],[6.4689452,35.4864529],[6.4687615,35.4864384],[6.4687637,35.4864149],[6.46868,35.486407],[6.4685755,35.4863974],[6.4683536,35.4863805],[6.4680473,35.4863579],[6.4680439,35.4863942],[6.4682846,35.4864123],[6.4682823,35.4864304],[6.4686004,35.4864526],[6.468679,35.4864559],[6.4689398,35.4864741],[6.4689975,35.4864813],[6.4692206,35.4864976],[6.4695158,35.4865185],[6.4698121,35.486541],[6.4698752,35.4865462],[6.4704061,35.4865836]]]}},{"type":"Feature","id":25,"properties":{"road_type":"decumanus (E-W)","certainty":"confirmed","plan_source":"Traced from georeferenced satellite imagery","area_sqm":1779.6},"geometry":{"type":"Polygon","coordinates":[[[6.470436,35.4863587],[6.470436,35.4863583],[6.470443,35.4863029],[6.4702112,35.4862866],[6.4701447,35.4862846],[6.4699032,35.4862594],[6.4696145,35.4862306],[6.4693154,35.486209],[6.4690224,35.4861803],[6.4689648,35.4861812],[6.4687042,35.4861624],[6.468633,35.4861606],[6.4684994,35.4861509],[6.4684969,35.4861716],[6.4684602,35.4861689],[6.4684623,35.4861506],[6.4683796,35.4861422],[6.468316,35.4861314],[6.4680749,35.4861112],[6.4680132,35.4861096],[6.4677887,35.4860946],[6.4677261,35.486095],[6.4674893,35.486077],[6.4671937,35.4860572],[6.4671903,35.4861033],[6.467418,35.4861245],[6.4674829,35.4861282],[6.4677212,35.486146],[6.4677815,35.4861502],[6.4680264,35.4861716],[6.4680645,35.4861745],[6.4683075,35.486191],[6.4683716,35.4861929],[6.4686281,35.4862087],[6.4686978,35.4862164],[6.4689607,35.4862381],[6.4690172,35.4862414],[6.4692431,35.4862597],[6.4693108,35.486262],[6.4695435,35.4862818],[6.4696084,35.4862854],[6.4698386,35.486307],[6.4698982,35.4863113],[6.4701361,35.4863322],[6.4704369,35.4863584],[6.470436,35.4863587]]]}},{"type":"Feature","id":26,"properties":{"road_type":"decumanus (E-W)","certainty":"confirmed","plan_source":"Traced from georeferenced satellite imagery","area_sqm":295.2},"geometry":{"type":"Polygon","coordinates":[[[6.4671574,35.486338],[6.4673881,35.4863586],[6.4674554,35.4863631],[6.4676853,35.4863849],[6.4676949,35.4863295],[6.4674607,35.4863087],[6.4673953,35.4863024],[6.4671646,35.4862856],[6.4671574,35.486338]]]}},{"type":"Feature","id":27,"properties":{"road_type":"decumanus (E-W)","certainty":"confirmed","plan_source":"Traced from georeferenced satellite imagery","area_sqm":1642.9},"geometry":{"type":"Polygon","coordinates":[[[6.4672327,35.4856155],[6.4672398,35.4855555],[6.4674763,35.485579],[6.4675377,35.4855931],[6.4677774,35.4856097],[6.4678384,35.4856159],[6.4680655,35.4856367],[6.4681405,35.4856412],[6.4683683,35.4856603],[6.4684271,35.4856597],[6.4686526,35.485673],[6.4687601,35.4856821],[6.4687579,35.4857063],[6.4690101,35.4857214],[6.4690126,35.4856971],[6.469071,35.4857042],[6.4693059,35.4857161],[6.4693653,35.4857222],[6.4695974,35.4857411],[6.4698937,35.4857652],[6.4698946,35.4857762],[6.4699398,35.4857798],[6.4701995,35.4858037],[6.4704745,35.485829],[6.470473,35.4858814],[6.4699541,35.4858321],[6.4696524,35.4858034],[6.4693589,35.4857788],[6.4690631,35.4857587],[6.4690065,35.4857527],[6.4687546,35.485734],[6.4686461,35.485727],[6.4684246,35.4857138],[6.4683982,35.4857118],[6.468252,35.4856992],[6.4682538,35.4856845],[6.468064,35.4856713],[6.4680615,35.4856887],[6.4678336,35.4856645],[6.4677734,35.4856588],[6.4677747,35.4856465],[6.4675348,35.4856255],[6.4675328,35.4856467],[6.4674698,35.4856417],[6.4672327,35.4856155],[6.4672398,35.4855555],[6.4672327,35.4856155]]]}},{"type":"Feature","id":28,"properties":{"road_type":"decumanus (E-W)","certainty":"confirmed","plan_source":"Traced from georeferenced satellite imagery","area_sqm":1557.3},"geometry":{"type":"Polygon","coordinates":[[[6.4675097,35.4858881],[6.4675153,35.4858393],[6.4677529,35.4858566],[6.4678147,35.4858593],[6.4678133,35.485874],[6.467811,35.4858941],[6.4680031,35.4859028],[6.4680053,35.4858805],[6.4680057,35.4858711],[6.4680392,35.4858715],[6.468081,35.4858776],[6.4683743,35.4858987],[6.4684041,35.4859018],[6.4684028,35.4859139],[6.4684744,35.4859154],[6.4685046,35.4859067],[6.4686629,35.485917],[6.4687629,35.4859204],[6.468985,35.485937],[6.4692815,35.4859606],[6.4695724,35.4859804],[6.4696366,35.4859842],[6.469878,35.4860073],[6.4699345,35.4860154],[6.4701762,35.486041],[6.4702381,35.4860466],[6.4704666,35.4860658],[6.4704607,35.4861188],[6.4702307,35.486104],[6.4701656,35.4860987],[6.469927,35.4860739],[6.4698713,35.4860645],[6.4696314,35.4860417],[6.4695674,35.4860351],[6.4693327,35.48602],[6.4692769,35.4860138],[6.4690408,35.4860003],[6.4687587,35.4859758],[6.4687265,35.4859728],[6.4686563,35.4859702],[6.4683989,35.4859528],[6.4683594,35.4859485],[6.4680995,35.4859247],[6.4680985,35.4859329],[6.4680276,35.4859278],[6.4678089,35.4859134],[6.4677477,35.4859065],[6.4675097,35.4858881],[6.4675153,35.4858393],[6.4675097,35.4858881]]]}},{"type":"Feature","id":29,"properties":{"road_type":"decumanus (E-W)","certainty":"confirmed","plan_source":"Traced from georeferenced satellite imagery","area_sqm":1381.7},"geometry":{"type":"Polygon","coordinates":[[[6.4672567,35.4853716],[6.4672647,35.4853089],[6.4675056,35.4853313],[6.4677976,35.4853626],[6.4680921,35.4853926],[6.4680996,35.4853927],[6.4681658,35.485394],[6.4683896,35.4854154],[6.4684533,35.4854207],[6.4686809,35.4854316],[6.4688071,35.4854402],[6.4690375,35.4854541],[6.469099,35.4854614],[6.469334,35.485478],[6.469397,35.4854843],[6.4693942,35.4855138],[6.4696212,35.4855227],[6.4696235,35.4854986],[6.4696707,35.4855013],[6.46992,35.4855192],[6.4699138,35.4855776],[6.4696676,35.4855573],[6.4696185,35.4855517],[6.4693901,35.4855435],[6.4693243,35.4855366],[6.4690906,35.4855174],[6.4690305,35.4855122],[6.4690339,35.4854776],[6.4687816,35.4854605],[6.4687769,35.485497],[6.4686702,35.4854873],[6.4684463,35.4854737],[6.4683811,35.4854703],[6.4681564,35.4854505],[6.468083,35.485444],[6.4678569,35.485425],[6.4677918,35.4854183],[6.467558,35.4853954],[6.4675004,35.4853919],[6.4672567,35.4853716],[6.4672647,35.4853089],[6.4672567,35.4853716]]]}},{"type":"Feature","id":30,"properties":{"road_type":"decumanus (E-W)","certainty":"confirmed","plan_source":"Traced from georeferenced satellite imagery","area_sqm":188.9},"geometry":{"type":"Polygon","coordinates":[[[6.4695581,35.4839898],[6.4695589,35.4839834],[6.4695636,35.4839422],[6.4694572,35.483929],[6.4692742,35.4839142],[6.4691524,35.483897],[6.4691537,35.4839339],[6.4691776,35.4839538],[6.4692986,35.4839621],[6.4694857,35.4839763],[6.4695038,35.483978],[6.469514,35.483979],[6.4695611,35.4839836],[6.4695581,35.4839898]]]}},{"type":"Feature","id":31,"properties":{"road_type":"decumanus (E-W)","certainty":"confirmed","plan_source":"Traced from georeferenced satellite imagery","area_sqm":546.2},"geometry":{"type":"Polygon","coordinates":[[[6.4694785,35.4847323],[6.4694796,35.4846742],[6.469759,35.4846896],[6.4700137,35.4847125],[6.4703066,35.48473],[6.4706027,35.4847541],[6.4705989,35.4848048],[6.4703673,35.4847831],[6.470294,35.4847686],[6.4700677,35.4847491],[6.4700104,35.4847512],[6.4697791,35.4847484],[6.4696301,35.4847445],[6.4694796,35.4847322],[6.4694796,35.4846742],[6.4694785,35.4847323]]]}},{"type":"Feature","id":32,"properties":{"road_type":"cardo (N-S)","certainty":"confirmed","plan_source":"Traced from georeferenced satellite imagery","area_sqm":452.1},"geometry":{"type":"Polygon","coordinates":[[[6.4693735,35.4851764],[6.469397,35.485178],[6.4693996,35.4851528],[6.4694228,35.4849754],[6.4694341,35.4849051],[6.4694796,35.4847322],[6.4694919,35.484546],[6.4694986,35.484476],[6.4695131,35.4844382],[6.4695213,35.4843062],[6.469536,35.484128],[6.4695589,35.4839834],[6.469514,35.483979],[6.4694942,35.4841235],[6.4694951,35.484165],[6.4694928,35.4842679],[6.4694876,35.4843349],[6.4694828,35.4844212],[6.4694754,35.4845082],[6.4694723,35.4845409],[6.4694449,35.4845404],[6.4694415,35.4845773],[6.4694349,35.4846513],[6.4694298,35.4847003],[6.4693963,35.4849182],[6.4693903,35.484957],[6.4693735,35.4851764]]]}},{"type":"Feature","id":33,"properties":{"road_type":"decumanus (E-W)","certainty":"confirmed","plan_source":"Traced from georeferenced satellite imagery","area_sqm":72.5},"geometry":{"type":"Polygon","coordinates":[[[6.4691542,35.4849451],[6.4691563,35.4849213],[6.4692851,35.4849304],[6.4692882,35.4849114],[6.4693515,35.4849158],[6.4693963,35.4849182],[6.4693903,35.484957],[6.4691542,35.4849451]]]}},{"type":"Feature","id":34,"properties":{"road_type":"decumanus (E-W)","certainty":"confirmed","plan_source":"Traced from georeferenced satellite imagery","area_sqm":762.9},"geometry":{"type":"Polygon","coordinates":[[[6.4682585,35.4844734],[6.4682661,35.4843832],[6.4689119,35.4844388],[6.4689086,35.4844669],[6.4689421,35.4844717],[6.4689614,35.4844941],[6.4689827,35.4845069],[6.4690342,35.4845133],[6.4691195,35.4845235],[6.4693102,35.4845353],[6.4694449,35.4845404],[6.4694415,35.4845773],[6.4693739,35.4845698],[6.4688535,35.4845248],[6.4682585,35.4844734],[6.4682661,35.4843832],[6.4682585,35.4844734]]]}},{"type":"Feature","id":35,"properties":{"road_type":"cardo (N-S)","certainty":"confirmed","plan_source":"Traced from georeferenced satellite imagery","area_sqm":332.6},"geometry":{"type":"Polygon","coordinates":[[[6.4681764,35.4851304],[6.4681186,35.4851253],[6.468117,35.4851617],[6.4681162,35.4852983],[6.4680996,35.4853927],[6.4680828,35.4854983],[6.4680655,35.4856367],[6.4681405,35.4856412],[6.4681564,35.4854505],[6.4681658,35.485394],[6.4681742,35.4852229],[6.4681823,35.4851309],[6.4681764,35.4851304]]]}},{"type":"Feature","id":36,"properties":{"road_type":"cardo (N-S)","certainty":"confirmed","plan_source":"Traced from georeferenced satellite imagery","area_sqm":252.9},"geometry":{"type":"Polygon","coordinates":[[[6.4703817,35.4867635],[6.4704222,35.486767],[6.4704286,35.4867203],[6.4704505,35.4865591],[6.4704682,35.4863645],[6.4704747,35.4862983],[6.4704938,35.4861166],[6.4704937,35.4860694],[6.4704666,35.4860658],[6.4704607,35.4861188],[6.470443,35.4863029],[6.470436,35.4863583],[6.4704127,35.4865354],[6.4704061,35.4865836],[6.4703817,35.4867635],[6.4704213,35.4867662],[6.4703817,35.4867635]]]}},{"type":"Feature","id":37,"properties":{"road_type":"cardo (N-S)","certainty":"confirmed","plan_source":"Traced from georeferenced satellite imagery","area_sqm":2700.1},"geometry":{"type":"Polygon","coordinates":[[[6.4668105,35.486181],[6.4667726,35.4861792],[6.4667859,35.4861052],[6.4668087,35.4859141],[6.4668193,35.4858249],[6.4668475,35.4855847],[6.4668568,35.4854176],[6.4668825,35.4851353],[6.4668846,35.4851127],[6.4668943,35.4850065],[6.4669017,35.4848473],[6.4669101,35.4845104],[6.4668494,35.4843771],[6.4668642,35.4842738],[6.4668835,35.4840677],[6.4668891,35.4840213],[6.4669164,35.4839367],[6.4670167,35.483389],[6.4670344,35.4833798],[6.4671094,35.483286],[6.467229,35.4831592],[6.467314,35.4831569],[6.4672727,35.4832109],[6.4671863,35.4832989],[6.4671518,35.4833438],[6.4671331,35.4833725],[6.4671143,35.4834321],[6.467102,35.4835458],[6.4670797,35.4837313],[6.4670614,35.4839118],[6.4670291,35.4841855],[6.4670054,35.4844656],[6.4669995,35.4845853],[6.4669811,35.4847485],[6.466961,35.4849831],[6.4669357,35.4852004],[6.4669035,35.4854111],[6.4668984,35.4854697],[6.4668921,35.4855312],[6.4668633,35.4858036],[6.4668458,35.4859726],[6.466835,35.4860585],[6.46681,35.4861799],[6.4667728,35.4861787],[6.4668105,35.486181]]]}},{"type":"Feature","id":38,"properties":{"road_type":"extramural road (off-grid)","certainty":"confirmed","plan_source":"Traced from georeferenced satellite imagery","notes":"Off-grid orientation (21 deg); likely ring/approach road.","area_sqm":610.8},"geometry":{"type":"Polygon","coordinates":[[[6.4639687,35.4830488],[6.4639841,35.4830163],[6.4641308,35.4830567],[6.4642867,35.483101],[6.4643561,35.4831191],[6.464371,35.4830879],[6.4645039,35.4831263],[6.4646045,35.4831662],[6.464686,35.4832051],[6.4648425,35.4832947],[6.4648782,35.4833142],[6.4649684,35.4833701],[6.4650966,35.4834439],[6.4652828,35.4835387],[6.4653324,35.4835671],[6.4653996,35.4836038],[6.4654312,35.4836192],[6.4655057,35.4836352],[6.4655151,35.4836838],[6.4652647,35.4835721],[6.4650688,35.4834658],[6.4648905,35.4833672],[6.4648812,35.483361],[6.4648554,35.4833438],[6.4648403,35.4833337],[6.4647119,35.4832508],[6.4646487,35.4832206],[6.4645886,35.4831952],[6.4645452,35.4831728],[6.4643447,35.483158],[6.4643132,35.4831469],[6.4639687,35.4830498],[6.463985,35.4830162],[6.4639687,35.4830488]]]}},{"type":"Feature","id":39,"properties":{"road_type":"extramural road (off-grid)","certainty":"confirmed","plan_source":"Traced from georeferenced satellite imagery","notes":"Diagonal to the grid; likely an extramural approach road.","area_sqm":356.4},"geometry":{"type":"Polygon","coordinates":[[[6.4655057,35.4836352],[6.4654743,35.4835052],[6.4655153,35.4834985],[6.4655615,35.4836812],[6.4656001,35.4837392],[6.465673,35.4838557],[6.4657357,35.4839257],[6.4657989,35.4840222],[6.4658401,35.4841021],[6.4658745,35.4841633],[6.4659081,35.4842385],[6.4658764,35.4842388],[6.4658185,35.4841439],[6.4657943,35.4841117],[6.4657741,35.4840894],[6.4657098,35.4839827],[6.4656688,35.4839223],[6.4656217,35.4838392],[6.4655389,35.4836995],[6.4655151,35.4836838],[6.4655057,35.4836352],[6.4654745,35.4835058],[6.4655057,35.4836352]]]}},{"type":"Feature","id":40,"properties":{"road_type":"extramural road (off-grid)","certainty":"confirmed","plan_source":"Traced from georeferenced satellite imagery","notes":"Diagonal to the grid; likely an extramural approach road.","area_sqm":706.2},"geometry":{"type":"Polygon","coordinates":[[[6.4633436,35.484639],[6.4633439,35.4846402],[6.4633491,35.484663],[6.4633855,35.4846529],[6.4634087,35.4846263],[6.4634665,35.4845963],[6.463538,35.4845622],[6.4636185,35.4845292],[6.4637126,35.4844872],[6.4638095,35.4844347],[6.4638304,35.4844249],[6.4638355,35.4844225],[6.463914,35.4843955],[6.4639859,35.4843699],[6.4640432,35.4843465],[6.4640918,35.4843282],[6.4641199,35.484313],[6.4641554,35.484275],[6.4641807,35.4842459],[6.4641875,35.4842318],[6.4642114,35.4842046],[6.464255,35.4841344],[6.4642691,35.4841026],[6.4642907,35.4840719],[6.4643952,35.483977],[6.4644447,35.4839279],[6.4645163,35.4838782],[6.4645978,35.4838311],[6.464645,35.4837965],[6.4646751,35.4837577],[6.4646982,35.4837412],[6.464725,35.4836964],[6.4647396,35.4836579],[6.4647731,35.4835923],[6.46479,35.4835574],[6.4648074,35.4835147],[6.4648812,35.483361],[6.4648554,35.4833438],[6.4648335,35.483397],[6.464752,35.4835653],[6.4647324,35.483606],[6.4647159,35.4836342],[6.4647115,35.4836518],[6.4646836,35.4837075],[6.4646648,35.4837334],[6.464649,35.4837417],[6.4646182,35.4837735],[6.4645969,35.4837759],[6.4645532,35.4838055],[6.4645166,35.4838263],[6.4645007,35.4838354],[6.4644777,35.4838499],[6.4644358,35.4838885],[6.4643945,35.4839256],[6.4643844,35.4839325],[6.4643603,35.4839706],[6.4643495,35.4839795],[6.4643367,35.48399],[6.4643116,35.4840046],[6.464281,35.4840308],[6.4642585,35.4840562],[6.464232,35.4840938],[6.4642144,35.4841299],[6.4641847,35.4841805],[6.4641771,35.4841955],[6.4641656,35.4842178],[6.4641333,35.4842538],[6.464098,35.4842904],[6.4640617,35.4843041],[6.4639871,35.484337],[6.4639174,35.4843615],[6.4638147,35.4843976],[6.4637929,35.4844084],[6.4636607,35.484474],[6.4636046,35.4844964],[6.4635599,35.4845142],[6.4635051,35.48454],[6.4634296,35.4845755],[6.4634034,35.4845901],[6.4633749,35.484606],[6.4633439,35.4846401],[6.46335,35.4846616],[6.4633436,35.484639]]]}},{"type":"Feature","id":41,"properties":{"road_type":"extramural road (off-grid)","certainty":"confirmed","plan_source":"Traced from georeferenced satellite imagery","notes":"Diagonal to the grid; likely an extramural approach road.","area_sqm":352.3},"geometry":{"type":"Polygon","coordinates":[[[6.4638355,35.4844225],[6.4638095,35.4844347],[6.4638263,35.484478],[6.4638669,35.4845407],[6.4639178,35.4845864],[6.4639607,35.4846284],[6.4640061,35.4846755],[6.4640502,35.4847472],[6.4640737,35.4847985],[6.4640939,35.4848451],[6.4641254,35.4848984],[6.4641654,35.4849663],[6.4642116,35.4850272],[6.4642767,35.4850905],[6.4643067,35.4851077],[6.4643297,35.4851481],[6.4643578,35.4851963],[6.4643963,35.4852449],[6.4644602,35.4853149],[6.464514,35.4853708],[6.4645666,35.4854197],[6.4646092,35.4854753],[6.4646683,35.4855235],[6.4646773,35.4855116],[6.4646587,35.4854837],[6.4646293,35.4854613],[6.4645994,35.4854247],[6.4645831,35.4853961],[6.4645433,35.4853702],[6.4645161,35.4853419],[6.4644911,35.4853129],[6.4644656,35.4852872],[6.4644466,35.485269],[6.4644244,35.485247],[6.4644051,35.4852211],[6.4643882,35.4851951],[6.464372,35.4851675],[6.4643598,35.4851414],[6.4643518,35.485119],[6.464332,35.4850989],[6.4643066,35.4850777],[6.4642838,35.4850629],[6.464268,35.4850433],[6.4642549,35.4850327],[6.4642377,35.4850183],[6.4642171,35.4849983],[6.4641944,35.4849654],[6.4641537,35.48489],[6.4641116,35.4848118],[6.464092,35.4847788],[6.4640719,35.4847335],[6.4640516,35.4846875],[6.464018,35.4846587],[6.4639882,35.4846254],[6.4639642,35.4846009],[6.4639267,35.4845592],[6.4638963,35.4845323],[6.4638739,35.4845052],[6.4638528,35.4844741],[6.4638416,35.4844519],[6.4638304,35.4844249],[6.4638355,35.4844225]]]}},{"type":"Feature","id":42,"properties":{"road_type":"cardo (N-S)","certainty":"confirmed","plan_source":"Traced from georeferenced satellite imagery","area_sqm":132.2},"geometry":{"type":"Polygon","coordinates":[[[6.4646998,35.4858486],[6.4646663,35.4858484],[6.4646655,35.4857682],[6.4646677,35.4856981],[6.4646686,35.4856683],[6.4646649,35.4855935],[6.4646639,35.4855581],[6.4646683,35.4855235],[6.4646773,35.4855116],[6.4647232,35.4854355],[6.4647373,35.4854415],[6.4647192,35.4854835],[6.4647021,35.485525],[6.4647014,35.4855349],[6.4646926,35.4855682],[6.4646985,35.4855863],[6.4647033,35.4856055],[6.4647004,35.4856848],[6.4647,35.4858486],[6.4646663,35.4858484],[6.4646998,35.4858486]]]}},{"type":"Feature","id":43,"properties":{"road_type":"extramural road (off-grid)","certainty":"confirmed","plan_source":"Traced from georeferenced satellite imagery","notes":"Diagonal to the grid; likely an extramural approach road.","area_sqm":1292.1},"geometry":{"type":"Polygon","coordinates":[[[6.4648782,35.4833142],[6.4648425,35.4832947],[6.4648752,35.4832441],[6.4648999,35.4831777],[6.4649513,35.4830758],[6.4649664,35.4830386],[6.4649776,35.4829905],[6.4650143,35.4829242],[6.4650555,35.4828529],[6.4650934,35.482782],[6.4651219,35.4827336],[6.4651486,35.482701],[6.4651761,35.4826424],[6.4652331,35.4825988],[6.4653198,35.4825115],[6.465366,35.48247],[6.4655079,35.4823379],[6.4655274,35.482313],[6.465587,35.4822638],[6.4656953,35.4821778],[6.4658265,35.4820851],[6.4658767,35.4820542],[6.4659493,35.4820291],[6.466037,35.4819903],[6.4662879,35.4818713],[6.4664224,35.4817683],[6.4664889,35.481714],[6.4665477,35.4816997],[6.4666201,35.4816441],[6.4668571,35.4814999],[6.4669347,35.4814549],[6.467049,35.4813788],[6.4671008,35.4813676],[6.4671306,35.4813434],[6.4672241,35.4813087],[6.4672869,35.4812777],[6.4673122,35.4812794],[6.4673723,35.4812408],[6.4673963,35.4812187],[6.467481,35.4812103],[6.4674702,35.4812429],[6.4674188,35.4812453],[6.4673867,35.4812714],[6.4673413,35.4812931],[6.4672956,35.4813081],[6.4672523,35.4813219],[6.4672081,35.4813446],[6.4671383,35.4813777],[6.4670583,35.4814237],[6.4669293,35.4815027],[6.4667631,35.4815934],[6.466687,35.4816461],[6.4666002,35.4816991],[6.4665274,35.4817449],[6.4664866,35.4817626],[6.4664281,35.4818119],[6.4663778,35.481857],[6.4663084,35.4818989],[6.4662516,35.4819316],[6.4661816,35.4819618],[6.46612,35.4819936],[6.4660508,35.4820202],[6.4659753,35.4820583],[6.465902,35.4820934],[6.4658196,35.4821395],[6.4657546,35.4821734],[6.4657107,35.4822028],[6.4656511,35.4822521],[6.4655994,35.4822995],[6.4655389,35.4823557],[6.4654697,35.4824315],[6.4653881,35.482502],[6.4653486,35.4825488],[6.4652876,35.4825953],[6.4652178,35.4826575],[6.4651912,35.4827],[6.4651117,35.4828466],[6.4650814,35.4828873],[6.4650459,35.4829456],[6.4650077,35.4830254],[6.4649836,35.4830999],[6.4649523,35.4831736],[6.4649323,35.4832053],[6.4649242,35.4832366],[6.4648782,35.4833142],[6.4648425,35.4832947],[6.4648782,35.4833142]]]}},{"type":"Feature","id":44,"properties":{"road_type":"decumanus (E-W)","certainty":"confirmed","plan_source":"Traced from georeferenced satellite imagery","area_sqm":46.4},"geometry":{"type":"Polygon","coordinates":[[[6.4636099,35.4829101],[6.4636174,35.4828955],[6.4635735,35.4828805],[6.4635364,35.4828624],[6.4635088,35.482846],[6.4634417,35.4828364],[6.4633734,35.4828279],[6.4633064,35.4828202],[6.4632978,35.4828387],[6.4633739,35.4828403],[6.4634647,35.4828549],[6.4635011,35.4828587],[6.4635323,35.482876],[6.4636098,35.4829092],[6.4636221,35.4828954],[6.4636099,35.4829101]]]}},{"type":"Feature","id":45,"properties":{"road_type":"cardo (N-S)","certainty":"confirmed","plan_source":"Traced from georeferenced satellite imagery","area_sqm":493.7},"geometry":{"type":"Polygon","coordinates":[[[6.4633064,35.4828202],[6.4632697,35.4828107],[6.4632281,35.4829594],[6.4632064,35.4830548],[6.463205,35.4830768],[6.4631928,35.4830915],[6.4631274,35.4832942],[6.4630744,35.4835026],[6.4632511,35.4839125],[6.463356,35.4841455],[6.4633946,35.4841453],[6.4633684,35.484081],[6.4633418,35.4840348],[6.4633135,35.4839734],[6.463283,35.483891],[6.4632368,35.4837966],[6.4631875,35.4836846],[6.4631457,35.4835824],[6.4631153,35.4835028],[6.4631462,35.4833772],[6.4631808,35.4832556],[6.4631945,35.4831939],[6.4632978,35.4828387],[6.4633064,35.4828202],[6.4632694,35.4828103],[6.4633064,35.4828202]]]}},{"type":"Feature","id":46,"properties":{"road_type":"cardo (N-S)","certainty":"confirmed","plan_source":"Traced from georeferenced satellite imagery","area_sqm":732.5},"geometry":{"type":"Polygon","coordinates":[[[6.4633946,35.4841453],[6.463356,35.4841455],[6.4633664,35.4842239],[6.4633458,35.4843183],[6.463329,35.4844433],[6.4633002,35.4845911],[6.4632972,35.4846859],[6.4632579,35.4849968],[6.4632189,35.4852047],[6.4631281,35.4855986],[6.4630889,35.4858037],[6.4630468,35.4859949],[6.4630991,35.4859858],[6.4631452,35.485725],[6.4632029,35.4854337],[6.4632541,35.485236],[6.4632812,35.4851017],[6.4633004,35.484924],[6.4633231,35.4848803],[6.4633166,35.4848374],[6.4633288,35.4847398],[6.4633491,35.484663],[6.4633436,35.484639],[6.463335,35.4846104],[6.4633389,35.4845653],[6.4633613,35.4844871],[6.463364,35.4844152],[6.4633934,35.4842272],[6.4633946,35.4841453],[6.463356,35.4841455],[6.4633946,35.4841453]]]}},{"type":"Feature","id":47,"properties":{"road_type":"extramural road (off-grid)","certainty":"confirmed","plan_source":"Traced from georeferenced satellite imagery","notes":"Diagonal to the grid; likely an extramural approach road.","area_sqm":280.5},"geometry":{"type":"Polygon","coordinates":[[[6.4630991,35.4859858],[6.4630468,35.4859949],[6.4631472,35.486071],[6.4632854,35.4861819],[6.4634356,35.4863002],[6.4636238,35.4864556],[6.463735,35.4865209],[6.4637651,35.4865002],[6.4637003,35.4864668],[6.4636195,35.4864107],[6.4635429,35.486344],[6.4634265,35.4862516],[6.4633344,35.4861767],[6.4632387,35.4861029],[6.4631457,35.4860366],[6.4630991,35.4859858]]]}},{"type":"Feature","id":48,"properties":{"road_type":"extramural road (off-grid)","certainty":"confirmed","plan_source":"Traced from georeferenced satellite imagery","notes":"Diagonal to the grid; likely an extramural approach road.","area_sqm":1144.0},"geometry":{"type":"Polygon","coordinates":[[[6.4638355,35.4865334],[6.4637927,35.4865631],[6.4642228,35.4867902],[6.4647434,35.4870965],[6.465023,35.487256],[6.4657612,35.487587],[6.4661954,35.4877874],[6.4667095,35.4880467],[6.4669539,35.4881579],[6.467008,35.4881665],[6.4670173,35.4881426],[6.4669717,35.4881388],[6.4668894,35.488099],[6.4667758,35.4880515],[6.4666852,35.4880102],[6.466577,35.4879424],[6.4663807,35.487845],[6.4662229,35.4877785],[6.4661254,35.4877205],[6.4660074,35.4876665],[6.4658615,35.4875879],[6.4657896,35.4875494],[6.4656841,35.4875216],[6.4655429,35.4874564],[6.4653682,35.487382],[6.4652716,35.4873459],[6.4651786,35.4872962],[6.4650159,35.4872114],[6.4648913,35.4871474],[6.464435,35.4868758],[6.4642613,35.4867761],[6.4638396,35.4865306],[6.4637927,35.4865631],[6.4638355,35.4865334]]]}},{"type":"Feature","id":49,"properties":{"road_type":"extramural road (off-grid)","certainty":"confirmed","plan_source":"Traced from georeferenced satellite imagery","notes":"Off-grid orientation (21 deg); likely ring/approach road.","area_sqm":203.0},"geometry":{"type":"Polygon","coordinates":[[[6.4670173,35.4881426],[6.467008,35.4881665],[6.4670588,35.4882044],[6.4671573,35.4882603],[6.4672972,35.4883185],[6.467452,35.4883831],[6.4675875,35.4884371],[6.4676524,35.4884232],[6.4676676,35.4884098],[6.4676459,35.4883966],[6.4675988,35.4884066],[6.4675846,35.4884026],[6.467584,35.4884025],[6.4675507,35.4883933],[6.4674871,35.4883631],[6.4673979,35.4883268],[6.4673429,35.4883008],[6.4672885,35.4882885],[6.4672434,35.4882708],[6.4672086,35.4882493],[6.4671605,35.4882352],[6.4671183,35.488213],[6.4670974,35.4881921],[6.4670734,35.4881755],[6.4670322,35.4881516],[6.4670173,35.4881426]]]}},{"type":"Feature","id":50,"properties":{"road_type":"cardo (N-S)","certainty":"confirmed","plan_source":"Traced from georeferenced satellite imagery","area_sqm":338.7},"geometry":{"type":"Polygon","coordinates":[[[6.4670173,35.4881426],[6.4669717,35.4881388],[6.4669774,35.4880806],[6.4670055,35.4879969],[6.4670477,35.4878471],[6.4670661,35.4877725],[6.4670754,35.4876441],[6.4670861,35.4875466],[6.4671299,35.4873714],[6.4671898,35.4871951],[6.4672517,35.4870936],[6.4672844,35.4871015],[6.4672187,35.4872072],[6.4671877,35.4873031],[6.4671578,35.4873913],[6.4671269,35.4875209],[6.4671014,35.4876188],[6.4670949,35.4877195],[6.4670798,35.4878392],[6.4670377,35.4879923],[6.4670209,35.4880724],[6.4670173,35.4881426]]]}},{"type":"Feature","id":51,"properties":{"road_type":"extramural road (off-grid)","certainty":"confirmed","plan_source":"Traced from georeferenced satellite imagery","notes":"Diagonal to the grid; likely an extramural approach road.","area_sqm":229.3},"geometry":{"type":"Polygon","coordinates":[[[6.467584,35.4884025],[6.4675786,35.488335],[6.4676142,35.4882842],[6.4676949,35.4882145],[6.4677799,35.4881491],[6.4678743,35.4880823],[6.4679516,35.488026],[6.4680082,35.4879614],[6.4679939,35.4879419],[6.4679459,35.4879897],[6.4678946,35.488021],[6.4678187,35.4880784],[6.4677572,35.4881244],[6.4676789,35.4881874],[6.4676253,35.4882276],[6.467585,35.4882641],[6.4675385,35.4883151],[6.4675337,35.4883595],[6.4675507,35.4883933],[6.4675846,35.4884026],[6.467584,35.4884025]]]}},{"type":"Feature","id":52,"properties":{"road_type":"cardo (N-S)","certainty":"confirmed","plan_source":"Traced from georeferenced satellite imagery","area_sqm":665.2},"geometry":{"type":"Polygon","coordinates":[[[6.4707813,35.486794],[6.4707812,35.486858],[6.4708434,35.4868452],[6.4708301,35.4867152],[6.4708181,35.486571],[6.4708045,35.4864592],[6.4707902,35.4861028],[6.4707926,35.4859574],[6.4708095,35.4856324],[6.4708131,35.4854902],[6.4708243,35.4853366],[6.4707699,35.4853338],[6.4707783,35.4854013],[6.4707725,35.4855121],[6.4707652,35.4855905],[6.4707432,35.4857965],[6.4707556,35.4859059],[6.4707428,35.4859663],[6.4707412,35.4860422],[6.470748,35.4861336],[6.4707631,35.4863034],[6.4707753,35.4864073],[6.4707665,35.4864732],[6.4707623,35.4864867],[6.4707678,35.4865031],[6.4707807,35.486534],[6.4707897,35.4866087],[6.4707766,35.4866399],[6.4707893,35.4866893],[6.4707932,35.4867575],[6.4707805,35.486799],[6.4707831,35.4868574],[6.4707813,35.486794]]]}},{"type":"Feature","id":53,"properties":{"road_type":"cardo (N-S)","certainty":"confirmed","plan_source":"Traced from georeferenced satellite imagery","area_sqm":192.0},"geometry":{"type":"Polygon","coordinates":[[[6.4708434,35.4868452],[6.4708559,35.4870866],[6.4707297,35.4872141],[6.4707114,35.4871834],[6.4707375,35.487134],[6.4707867,35.487092],[6.4708061,35.4870498],[6.4708037,35.4869919],[6.4707995,35.4869272],[6.4707831,35.4868574],[6.4708434,35.4868452]]]}},{"type":"Feature","id":54,"properties":{"road_type":"cardo (N-S)","certainty":"confirmed","plan_source":"Traced from georeferenced satellite imagery","area_sqm":495.5},"geometry":{"type":"Polygon","coordinates":[[[6.4708292,35.4852917],[6.4708175,35.4851198],[6.4708038,35.4849997],[6.4707758,35.4847481],[6.4707587,35.4846504],[6.4707542,35.4845464],[6.4707421,35.4844976],[6.4707374,35.4844205],[6.4707275,35.4843249],[6.4707108,35.4842359],[6.4707015,35.4841531],[6.4706965,35.4840363],[6.4706764,35.4839339],[6.4706559,35.4837918],[6.4706151,35.4838067],[6.4706325,35.4838448],[6.4706403,35.4839264],[6.4706688,35.4840251],[6.4706673,35.4840883],[6.4706784,35.4841815],[6.4706843,35.4842516],[6.4706827,35.4843136],[6.4706964,35.4843986],[6.4707083,35.4845094],[6.4707265,35.4846013],[6.4707364,35.4846969],[6.4707434,35.4847938],[6.4707471,35.4848452],[6.4707582,35.4849373],[6.4707754,35.4850374],[6.470786,35.485119],[6.4708012,35.4852051],[6.4708033,35.4852896],[6.4708292,35.4852917],[6.4708292,35.4852917]]]}},{"type":"Feature","id":55,"properties":{"road_type":"extramural road (off-grid)","certainty":"confirmed","plan_source":"Traced from georeferenced satellite imagery","notes":"Diagonal to the grid; likely an extramural approach road.","area_sqm":569.8},"geometry":{"type":"Polygon","coordinates":[[[6.4706151,35.4838067],[6.4706559,35.4837918],[6.4705805,35.4837656],[6.4705089,35.4837359],[6.4704582,35.4837116],[6.4704403,35.4836903],[6.4704224,35.4836402],[6.4703928,35.4835727],[6.4703658,35.483509],[6.470337,35.4834593],[6.4703001,35.4834187],[6.4702414,35.4833854],[6.4701975,35.483352],[6.4701959,35.4833428],[6.4701881,35.4832746],[6.4701822,35.4831935],[6.4701656,35.4830899],[6.4701551,35.4830138],[6.4701249,35.4829101],[6.4700684,35.4827521],[6.4700292,35.4826312],[6.4699658,35.4824818],[6.4699183,35.482505],[6.4699525,35.4825397],[6.4699849,35.4825884],[6.4699838,35.4826182],[6.4700335,35.4827585],[6.4700679,35.4828825],[6.4701217,35.4830054],[6.4701355,35.4830456],[6.4701425,35.4831505],[6.4701546,35.4833187],[6.4701731,35.4833762],[6.4702019,35.483425],[6.4702819,35.4834534],[6.4703267,35.4835364],[6.4703767,35.4836282],[6.4704269,35.4837234],[6.4704915,35.4837602],[6.4705642,35.4837879],[6.4706151,35.4838067],[6.4706559,35.4837918],[6.4706151,35.4838067]]]}},{"type":"Feature","id":56,"properties":{"road_type":"extramural road (off-grid)","certainty":"confirmed","plan_source":"Traced from georeferenced satellite imagery","notes":"Diagonal to the grid; likely an extramural approach road.","area_sqm":239.7},"geometry":{"type":"Polygon","coordinates":[[[6.4696794,35.4821127],[6.4697239,35.4821362],[6.4697278,35.4821444],[6.4697341,35.4821574],[6.4697024,35.4821874],[6.4697241,35.4822008],[6.4697435,35.4822552],[6.4697737,35.4823125],[6.4697925,35.482382],[6.4698237,35.4824038],[6.4698762,35.4823979],[6.4699253,35.4824386],[6.4699107,35.4824659],[6.4699003,35.4824996],[6.469909,35.4825188],[6.4699183,35.482505],[6.4699525,35.4825397],[6.4699117,35.4825499],[6.4698771,35.4825412],[6.4698593,35.4825267],[6.4698508,35.4825129],[6.4698718,35.48248],[6.469881,35.4824484],[6.4698436,35.4824377],[6.4697972,35.4824304],[6.4697642,35.482399],[6.4697524,35.4823692],[6.4697306,35.4823224],[6.4697023,35.4822758],[6.4696746,35.4822453],[6.4696637,35.4821756],[6.4696796,35.482117],[6.4697377,35.4821508],[6.4696794,35.4821127]]]}},{"type":"Feature","id":57,"properties":{"road_type":"extramural road (off-grid)","certainty":"confirmed","plan_source":"Traced from georeferenced satellite imagery","notes":"Off-grid orientation (21 deg); likely ring/approach road.","area_sqm":1030.2},"geometry":{"type":"Polygon","coordinates":[[[6.4696794,35.4821127],[6.4697278,35.4821444],[6.46975,35.4821058],[6.469644,35.4820323],[6.469561,35.4819701],[6.4694598,35.4818846],[6.4693456,35.4818319],[6.4691577,35.481729],[6.4690099,35.4816319],[6.4689382,35.4815887],[6.4687495,35.4814896],[6.4684487,35.4813709],[6.4682777,35.4812853],[6.4681272,35.4812476],[6.4679545,35.4812148],[6.4678226,35.4812111],[6.4675184,35.4812087],[6.4675077,35.4812439],[6.4676812,35.481255],[6.4678406,35.4812537],[6.46793,35.48125],[6.4682138,35.4813097],[6.4683913,35.481393],[6.4687595,35.4815381],[6.468917,35.4816166],[6.4690809,35.4817207],[6.4692012,35.4817916],[6.4693505,35.4818918],[6.4694775,35.4819584],[6.4695728,35.4820301],[6.4696796,35.482117],[6.4697278,35.4821444],[6.4697278,35.4821444],[6.4696794,35.4821127]]]}},{"type":"Feature","id":58,"properties":{"road_type":"cardo (N-S)","certainty":"confirmed","plan_source":"Traced from georeferenced satellite imagery","area_sqm":446.2},"geometry":{"type":"Polygon","coordinates":[[[6.4676993,35.4807398],[6.4677684,35.4807448],[6.4677924,35.4806433],[6.4678078,35.4805841],[6.4678571,35.4805222],[6.4678802,35.4804579],[6.4679229,35.4803816],[6.4679244,35.4803717],[6.4679616,35.4803543],[6.4679813,35.4803015],[6.467992,35.4802245],[6.468007,35.4801555],[6.4680225,35.4800995],[6.4680438,35.4800369],[6.4680657,35.4799905],[6.4680623,35.479958],[6.4680423,35.4799096],[6.4680411,35.4798819],[6.4680047,35.4798698],[6.467979,35.4798771],[6.4680046,35.4799139],[6.4680084,35.4799563],[6.4679971,35.4800186],[6.4679745,35.4800503],[6.4679654,35.4801175],[6.4679483,35.4801833],[6.4679512,35.4802518],[6.4679421,35.480319],[6.4679109,35.4803362],[6.4678591,35.480385],[6.4678048,35.4804682],[6.4677869,35.4805618],[6.4677611,35.4806589],[6.4677287,35.4806941],[6.4676993,35.4807398],[6.4677684,35.4807448],[6.4676993,35.4807398]]]}},{"type":"Feature","id":59,"properties":{"road_type":"decumanus (E-W)","certainty":"confirmed","plan_source":"Traced from georeferenced satellite imagery","area_sqm":1479.4},"geometry":{"type":"Polygon","coordinates":[[[6.4676993,35.4807398],[6.4677287,35.4806941],[6.4676615,35.4806782],[6.4676029,35.4806451],[6.4675221,35.4806091],[6.4674296,35.4805733],[6.4673334,35.4805533],[6.4672477,35.4805389],[6.4671502,35.4805574],[6.4670911,35.4805471],[6.4669812,35.4805166],[6.4668511,35.4804769],[6.4667726,35.4804575],[6.4666482,35.4803963],[6.4665195,35.4803376],[6.4664717,35.4803186],[6.4663778,35.4803189],[6.4662428,35.4803168],[6.4661041,35.4803339],[6.4659309,35.4803557],[6.4657891,35.4803346],[6.4656745,35.4803307],[6.4655371,35.4803071],[6.4654297,35.4802993],[6.4652355,35.4802881],[6.465051,35.4802622],[6.4649125,35.480247],[6.464627,35.480218],[6.4644688,35.480189],[6.464355,35.4801694],[6.4642827,35.4801595],[6.464261,35.4802009],[6.4643054,35.4802093],[6.4645316,35.4802508],[6.464803,35.480285],[6.4649911,35.4802927],[6.4653694,35.4803395],[6.4654824,35.480341],[6.4657025,35.4803755],[6.4659193,35.4803945],[6.4660608,35.4803748],[6.4661185,35.4803611],[6.4661834,35.4803701],[6.4662533,35.4803573],[6.4663499,35.4803521],[6.4664052,35.4803409],[6.4665052,35.4803812],[6.4666579,35.4804524],[6.4667997,35.4805083],[6.4669069,35.4805449],[6.4670435,35.4805829],[6.4671421,35.4805909],[6.4672149,35.480578],[6.4673034,35.4805898],[6.4674373,35.4806148],[6.4675629,35.48067],[6.4676993,35.4807398]]]}},{"type":"Feature","id":60,"properties":{"road_type":"extramural road (off-grid)","certainty":"confirmed","plan_source":"Traced from georeferenced satellite imagery","notes":"Off-grid orientation (14 deg); likely ring/approach road.","area_sqm":1432.9},"geometry":{"type":"Polygon","coordinates":[[[6.4689849,35.4787314],[6.469018,35.4786932],[6.469104,35.4788232],[6.4692292,35.4790001],[6.4693007,35.479106],[6.4693913,35.4792299],[6.4694225,35.4792758],[6.4694432,35.4793897],[6.4695303,35.4797493],[6.4695872,35.4800014],[6.4696991,35.4805204],[6.4698209,35.4810983],[6.4698726,35.4813974],[6.4698851,35.4816889],[6.4698902,35.4819425],[6.4699178,35.4822229],[6.4698386,35.4821839],[6.4697377,35.4821508],[6.46975,35.4821058],[6.4698109,35.4821276],[6.4698565,35.4821041],[6.4698739,35.4820592],[6.4698512,35.4819821],[6.469855,35.48189],[6.4698521,35.4818219],[6.4698455,35.4817586],[6.4698361,35.4816748],[6.4698485,35.4816475],[6.4698347,35.4815987],[6.4698297,35.4813927],[6.46982,35.4813009],[6.4697585,35.480999],[6.4697136,35.4807671],[6.4696854,35.4806077],[6.4696433,35.4803939],[6.4696141,35.4802584],[6.4695698,35.4800852],[6.4695177,35.4799106],[6.4695109,35.4797958],[6.4694892,35.4797441],[6.4694617,35.4796449],[6.4694403,35.4795091],[6.4694224,35.4794073],[6.4693931,35.479313],[6.4693793,35.4792626],[6.4692976,35.4791666],[6.4692655,35.4790962],[6.4692146,35.479039],[6.4691487,35.4789504],[6.468986,35.4787299],[6.4690171,35.4786862],[6.4689849,35.4787314]]]}},{"type":"Feature","id":61,"properties":{"road_type":"extramural road (off-grid)","certainty":"confirmed","plan_source":"Traced from georeferenced satellite imagery","notes":"Off-grid orientation (20 deg); likely ring/approach road.","area_sqm":1489.4},"geometry":{"type":"Polygon","coordinates":[[[6.4689849,35.4787314],[6.469018,35.4786932],[6.4682652,35.4786198],[6.468047,35.4786419],[6.4677905,35.4786731],[6.467392,35.4787194],[6.4671775,35.4787811],[6.4669321,35.4788484],[6.4663809,35.4789952],[6.4661037,35.4790872],[6.4660425,35.4791524],[6.4660135,35.4791548],[6.4659184,35.4791988],[6.4658018,35.4792386],[6.4656334,35.4793137],[6.4655221,35.4793851],[6.4653965,35.479441],[6.465246,35.4795041],[6.4650594,35.4795396],[6.4649387,35.4795732],[6.4648159,35.4796037],[6.4647525,35.4796166],[6.4647674,35.4796479],[6.4649305,35.4796067],[6.4650997,35.4795749],[6.4652686,35.479532],[6.4653734,35.4794909],[6.4654779,35.4794403],[6.4655545,35.4794175],[6.4656434,35.4793657],[6.4656711,35.4793332],[6.4658064,35.479277],[6.4659456,35.4792222],[6.4659907,35.4791876],[6.466106,35.4791637],[6.4661453,35.4791078],[6.4661968,35.4790873],[6.466312,35.4790602],[6.4664017,35.4790275],[6.4665034,35.4790024],[6.4665991,35.4789742],[6.4667123,35.4789456],[6.4668178,35.4789188],[6.4670196,35.4788543],[6.4670863,35.478827],[6.4672171,35.478801],[6.4672974,35.4787733],[6.4674396,35.4787438],[6.4676266,35.4787194],[6.4678738,35.4786949],[6.4680676,35.4786702],[6.4682433,35.4786509],[6.4685002,35.4786737],[6.4687924,35.4787033],[6.468986,35.4787299],[6.469018,35.4786932],[6.4689849,35.4787314]]]}},{"type":"Feature","id":62,"properties":{"road_type":"extramural road (off-grid)","certainty":"confirmed","plan_source":"Traced from georeferenced satellite imagery","notes":"Off-grid orientation (16 deg); likely ring/approach road.","area_sqm":1293.9},"geometry":{"type":"Polygon","coordinates":[[[6.4647674,35.4796479],[6.4647525,35.4796166],[6.4646448,35.4797373],[6.4644628,35.479933],[6.4643056,35.4801078],[6.4642827,35.4801595],[6.4641481,35.480411],[6.4639613,35.4807506],[6.4638578,35.4809474],[6.4637843,35.4811525],[6.4636837,35.4814396],[6.4635462,35.4818788],[6.4634293,35.4822577],[6.4633282,35.4826141],[6.4632694,35.4828103],[6.4633064,35.4828202],[6.4633707,35.4825903],[6.4633926,35.4825252],[6.4634322,35.4823813],[6.4634725,35.4822243],[6.4635037,35.4821286],[6.4635309,35.4820499],[6.463569,35.4819248],[6.4635697,35.4818863],[6.4636109,35.4818053],[6.463647,35.4816854],[6.4636743,35.4816096],[6.4636979,35.4815291],[6.4637157,35.4814795],[6.463728,35.4814373],[6.4637512,35.4813742],[6.4637827,35.4812857],[6.4638128,35.4811925],[6.4638502,35.4811058],[6.4638447,35.4810815],[6.4638812,35.4809717],[6.46392,35.4808888],[6.4640722,35.4806541],[6.4641225,35.480568],[6.4641676,35.4804676],[6.4641856,35.4804149],[6.4642364,35.4803086],[6.4643054,35.4802093],[6.464261,35.4802009],[6.4647674,35.4796479]]]}},{"type":"Feature","id":63,"properties":{"road_type":"extramural road (off-grid)","certainty":"confirmed","plan_source":"Traced from georeferenced satellite imagery","notes":"Off-grid orientation (25 deg); likely ring/approach road.","area_sqm":740.0},"geometry":{"type":"Polygon","coordinates":[[[6.4637157,35.4814795],[6.463728,35.4814373],[6.4637987,35.4814527],[6.4638578,35.4814657],[6.4639886,35.4815006],[6.4640811,35.4815053],[6.4641808,35.4815218],[6.4642559,35.4815435],[6.4643501,35.4815877],[6.4644473,35.4816512],[6.4647015,35.4818148],[6.4650827,35.4820467],[6.4653576,35.4822136],[6.4655274,35.482313],[6.4655079,35.4823379],[6.4653142,35.4822377],[6.4651637,35.4821399],[6.4650885,35.4820905],[6.464929,35.4820033],[6.4647764,35.4819092],[6.4646095,35.4817944],[6.4644348,35.4816808],[6.4643029,35.4816077],[6.4642302,35.4815666],[6.4641212,35.4815421],[6.4639798,35.481525],[6.4639199,35.4815184],[6.4637985,35.4814925],[6.4637157,35.4814795],[6.4637157,35.4814795],[6.463728,35.4814373],[6.4637157,35.4814795]]]}},{"type":"Feature","id":64,"properties":{"road_type":"extramural road (off-grid)","certainty":"confirmed","plan_source":"Traced from georeferenced satellite imagery","notes":"Off-grid orientation (22 deg); likely ring/approach road.","area_sqm":621.3},"geometry":{"type":"Polygon","coordinates":[[[6.4645718,35.4859822],[6.4645526,35.485997],[6.4645685,35.4860164],[6.4646037,35.486035],[6.464641,35.4860499],[6.4646588,35.4860888],[6.4646705,35.4861494],[6.4646574,35.4862173],[6.4646535,35.4862869],[6.4646875,35.4863309],[6.4647442,35.4863415],[6.4647913,35.4863701],[6.4648221,35.4863936],[6.4648981,35.4864013],[6.4649471,35.4864468],[6.4650213,35.4865206],[6.4650725,35.4865641],[6.4651542,35.4866711],[6.4652414,35.4867511],[6.4653608,35.4868339],[6.4654694,35.4868796],[6.4655546,35.4868875],[6.4657066,35.4868897],[6.4658427,35.4868811],[6.4659926,35.4868739],[6.4661046,35.4868651],[6.4662672,35.4868735],[6.4664398,35.4868873],[6.4665859,35.4868981],[6.4666271,35.4868941],[6.4666306,35.4868706],[6.466515,35.4868748],[6.4664104,35.4868704],[6.466316,35.4868599],[6.4662489,35.4868459],[6.4660506,35.4868497],[6.4657833,35.4868659],[6.4656334,35.486873],[6.4655126,35.4868643],[6.4654426,35.4868372],[6.4653502,35.4867949],[6.4652993,35.4867579],[6.465233,35.4867101],[6.4651779,35.4866554],[6.4651125,35.4865738],[6.46507,35.4865178],[6.4650242,35.4864666],[6.4650152,35.4864504],[6.4649633,35.4864163],[6.4649127,35.4863877],[6.4648558,35.4863706],[6.4648104,35.4863541],[6.4647568,35.486335],[6.4647155,35.4863071],[6.4646854,35.4862751],[6.4646882,35.4862329],[6.4647033,35.4861837],[6.4646942,35.4861056],[6.4646857,35.4860693],[6.4646591,35.4860372],[6.4646076,35.4860115],[6.4645676,35.4859854],[6.4645718,35.4859822]]]}},{"type":"Feature","id":65,"properties":{"road_type":"cardo (N-S)","certainty":"confirmed","plan_source":"Traced from georeferenced satellite imagery","area_sqm":111.8},"geometry":{"type":"Polygon","coordinates":[[[6.4676498,35.4867007],[6.4676278,35.4868794],[6.4676877,35.4868852],[6.4677126,35.4867068],[6.4676498,35.4867007]]]}},{"type":"Feature","id":66,"properties":{"road_type":"extramural road (off-grid)","certainty":"confirmed","plan_source":"Traced from georeferenced satellite imagery","notes":"Diagonal to the grid; likely an extramural approach road.","area_sqm":478.6},"geometry":{"type":"Polygon","coordinates":[[[6.4707297,35.4872141],[6.4706691,35.4873052],[6.4705486,35.4874214],[6.4704336,35.4875224],[6.4703126,35.4876285],[6.4701759,35.4877503],[6.4700679,35.4878241],[6.469937,35.4878901],[6.4697798,35.487967],[6.4696693,35.4880291],[6.4695852,35.4880837],[6.469576,35.4880621],[6.4696095,35.4880258],[6.4696494,35.4879977],[6.4697464,35.4879562],[6.4698996,35.4878828],[6.4699897,35.487823],[6.4701002,35.4877609],[6.4702118,35.4876769],[6.4702993,35.4876053],[6.470389,35.4875388],[6.4704663,35.4874692],[6.4705549,35.4873657],[6.4705851,35.4873009],[6.470638,35.4872388],[6.4707114,35.4871834],[6.4707297,35.4872141]]]}},{"type":"Feature","id":67,"properties":{"road_type":"decumanus (E-W)","certainty":"confirmed","plan_source":"Traced from georeferenced satellite imagery","area_sqm":643.8},"geometry":{"type":"Polygon","coordinates":[[[6.4657977,35.4842472],[6.4657842,35.4842925],[6.4658813,35.4842989],[6.4659075,35.4843043],[6.4659537,35.4843138],[6.4660645,35.4842998],[6.4662292,35.4843105],[6.466441,35.4843199],[6.466677,35.4843192],[6.4666884,35.4844313],[6.4667028,35.4844228],[6.4668029,35.4844106],[6.4668564,35.4844315],[6.4668494,35.4843771],[6.466777,35.4843611],[6.4667489,35.4843234],[6.4666813,35.4842882],[6.466637,35.4842664],[6.4662343,35.4842548],[6.4658764,35.4842388],[6.4657978,35.484247],[6.4657848,35.4842904],[6.4657848,35.4842904],[6.4657977,35.4842472]]]}},{"type":"Feature","id":68,"properties":{"road_type":"extramural road (off-grid)","certainty":"confirmed","plan_source":"Traced from georeferenced satellite imagery","notes":"Off-grid orientation (18 deg); likely ring/approach road.","area_sqm":394.1},"geometry":{"type":"Polygon","coordinates":[[[6.4662146,35.4852347],[6.4661703,35.4851539],[6.466091,35.4850041],[6.4660768,35.4848947],[6.466031,35.4848114],[6.4660089,35.484743],[6.4659968,35.4846414],[6.4660021,35.4845409],[6.4659951,35.4844658],[6.4659724,35.4843845],[6.4659146,35.4843345],[6.4659075,35.4843043],[6.4659537,35.4843138],[6.4659952,35.4843792],[6.4660309,35.4844534],[6.4660385,35.484543],[6.4660281,35.4846462],[6.4660425,35.4847507],[6.466084,35.4848262],[6.4661105,35.4848971],[6.4661643,35.4850303],[6.4662237,35.4851496],[6.4662611,35.4852172],[6.4662146,35.4852347]]]}},{"type":"Feature","id":69,"properties":{"road_type":"extramural road (off-grid)","certainty":"confirmed","plan_source":"Traced from georeferenced satellite imagery","notes":"Off-grid orientation (20 deg); likely ring/approach road.","area_sqm":556.4},"geometry":{"type":"Polygon","coordinates":[[[6.4652323,35.4856488],[6.4651975,35.485663],[6.4651164,35.4855426],[6.4651032,35.4855135],[6.4651696,35.4854262],[6.4652792,35.485346],[6.4653949,35.4852503],[6.4654609,35.4851532],[6.4655357,35.4850177],[6.4656089,35.4848905],[6.4656398,35.4847609],[6.4656608,35.4847058],[6.4657152,35.4845237],[6.465753,35.4843969],[6.465753,35.4843969],[6.4657918,35.4844064],[6.4657254,35.4846141],[6.4656945,35.4847719],[6.4656378,35.4848869],[6.4655784,35.4850175],[6.4655004,35.4851562],[6.4654353,35.4852337],[6.4653944,35.4852783],[6.4653326,35.4853543],[6.4652578,35.4854069],[6.465181,35.4854917],[6.4651481,35.4855234],[6.4651848,35.4855798],[6.4652335,35.4856483],[6.4651953,35.4856639],[6.4651953,35.4856639],[6.4652323,35.4856488]]]}},{"type":"Feature","id":70,"properties":{"road_type":"extramural road (off-grid)","certainty":"confirmed","plan_source":"Traced from georeferenced satellite imagery","notes":"Diagonal to the grid; likely an extramural approach road.","area_sqm":367.6},"geometry":{"type":"Polygon","coordinates":[[[6.4658704,35.4854624],[6.4660119,35.4857055],[6.466105,35.4858466],[6.4661764,35.4859685],[6.4662162,35.4860855],[6.466263,35.4862422],[6.4662405,35.4862456],[6.4662169,35.4861823],[6.4661658,35.4860471],[6.4661049,35.4859249],[6.4660787,35.4858816],[6.4660354,35.4858074],[6.465994,35.4857744],[6.4658603,35.4855405],[6.4658154,35.4854856],[6.4658661,35.4854642],[6.4658704,35.4854624]]]}}]}