{"type":"FeatureCollection","name":"social_buildings","features":[{"type":"Feature","id":1,"properties":{"insula_id":"","name":"Forum","building_use":"civic - forum","description":"","period":"Trajanic (c. 100 CE)","certainty":"confirmed","plan_source":"Traced from georeferenced satellite imagery","notes":"Fr: Forum - Colonial forum at the grid centre: porticoed plaza with basilica and curia.","area_sqm":6520.6},"geometry":{"type":"Polygon","coordinates":[[[6.4690888,35.4851551],[6.4691043,35.4849177],[6.4692851,35.4849304],[6.4692882,35.4849114],[6.4693515,35.4849158],[6.4693739,35.4845698],[6.4682585,35.4844734],[6.4682506,35.4845873],[6.4682144,35.4845852],[6.4681637,35.4850838],[6.4690888,35.4851551]]]}},{"type":"Feature","id":2,"properties":{"insula_id":"","name":"Theatre","building_use":"entertainment - theatre","description":"","period":"Antonine (c. 161-169 CE)","certainty":"confirmed","plan_source":"Traced from georeferenced satellite imagery","notes":"Fr: Théâtre - c. 3,500-4,000 seats; partly quarried in 539 CE for the Byzantine fort.","area_sqm":3200.9},"geometry":{"type":"Polygon","coordinates":[[[6.4686306,35.4838922],[6.4685739,35.4844077],[6.4689119,35.4844388],[6.4689086,35.4844669],[6.4689148,35.4844375],[6.4689508,35.4844425],[6.4689985,35.4844424],[6.469028,35.4844354],[6.4690716,35.4844086],[6.4691103,35.4843745],[6.4691449,35.4843455],[6.4691879,35.4843065],[6.469223,35.4842567],[6.4692369,35.484199],[6.4692512,35.4841499],[6.469251,35.4841096],[6.4692416,35.484066],[6.4692244,35.4840129],[6.4691724,35.4839473],[6.4691186,35.4839087],[6.4690517,35.4838777],[6.4689869,35.4838613],[6.4689615,35.4838583],[6.4689516,35.4839062],[6.4686306,35.4838922]]]}},{"type":"Feature","id":3,"properties":{"insula_id":"","name":"Crafts industry quarter","building_use":"artisanal / industrial quarter","description":"","period":"","certainty":"probable","plan_source":"Traced from georeferenced satellite imagery","notes":"Fr: Quartier artisanal - SW artisanal/industrial zone identified by the excavators.","area_sqm":2345.1},"geometry":{"type":"Polygon","coordinates":[[[6.4679738,35.4831994],[6.4678993,35.4829601],[6.4678614,35.482874],[6.4678346,35.4828222],[6.4678137,35.482749],[6.4677701,35.4826227],[6.4676868,35.4825111],[6.4676086,35.4825885],[6.4675773,35.4826536],[6.4675067,35.4828836],[6.467314,35.4831569],[6.4679738,35.4831994]]]}},{"type":"Feature","id":4,"properties":{"insula_id":"","name":"Byzantine Fort","building_use":"military - Byzantine fort","description":"","period":"Byzantine (539 CE)","certainty":"confirmed","plan_source":"Traced from georeferenced satellite imagery","notes":"Fr: Fort byzantin - Built 539 CE by the general Solomon over the Aqua Septimiana Felix sanctuary; c. 120 x 80 m, eight towers; reused theatre stone.","area_sqm":9659.8},"geometry":{"type":"Polygon","coordinates":[[[6.4672912,35.479756],[6.468627,35.4798898],[6.4686932,35.4791521],[6.4673741,35.4790631],[6.4672912,35.479756]]]}},{"type":"Feature","id":5,"properties":{"insula_id":"","name":"Cloths market","building_use":"market","description":"","period":"","certainty":"uncertain","plan_source":"Traced from georeferenced satellite imagery","notes":"Identification as a textile market is uncertain.","area_sqm":299.4},"geometry":{"type":"Polygon","coordinates":[[[6.4665875,35.4850397],[6.4664654,35.4850451],[6.4664386,35.4848204],[6.4664762,35.4848184],[6.4664756,35.4848044],[6.4664844,35.4847957],[6.4664933,35.4847899],[6.4665024,35.4847887],[6.466515,35.4847902],[6.4665268,35.4847983],[6.466533,35.4848084],[6.4665346,35.4848195],[6.4665689,35.4848186],[6.4665875,35.4850397]]]}},{"type":"Feature","id":6,"properties":{"insula_id":"","name":"Market of Sertius","building_use":"market","description":"","period":"Severan (early 3rd c. CE)","certainty":"confirmed","plan_source":"Traced from georeferenced satellite imagery","notes":"Fr: Marché de Sertius - Donated by M. Plotius Faustus (Sertius) and Cornelia Valentina Tucciana, owners of the House of Sertius.","area_sqm":1188.1},"geometry":{"type":"Polygon","coordinates":[[[6.4666083,35.4848324],[6.4669017,35.4848473],[6.4669117,35.4845478],[6.4669101,35.4845104],[6.4668897,35.4844624],[6.4668564,35.4844315],[6.4668029,35.4844106],[6.4667571,35.4844101],[6.4667028,35.4844228],[6.4666693,35.4844425],[6.4666388,35.484478],[6.4666226,35.4845],[6.4666083,35.4848324]]]}},{"type":"Feature","id":7,"properties":{"insula_id":"","name":"Decumanus shops","building_use":"commercial - shops","description":"","period":"","certainty":"confirmed","plan_source":"Traced from georeferenced satellite imagery","notes":"Fr: Boutiques du décumanus - Rows of tabernae fronting the decumanus maximus.","area_sqm":539.0},"geometry":{"type":"Polygon","coordinates":[[[6.4684539,35.4854167],[6.4686809,35.4854316],[6.4687017,35.4851982],[6.4684735,35.4851832],[6.4684539,35.4854167]]]}},{"type":"Feature","id":8,"properties":{"insula_id":"","name":"Library of Rogatianus","building_use":"civic - library","description":"","period":"late 3rd - early 4th c. CE","certainty":"confirmed","plan_source":"Traced from georeferenced satellite imagery","notes":"Fr: Bibliothèque - Bequest of M. Julius Quintianus Flavius Rogatianus, 400,000 sesterces; semicircular main hall.","area_sqm":626.6},"geometry":{"type":"Polygon","coordinates":[[[6.4690101,35.4857214],[6.4690339,35.4854776],[6.4687816,35.4854605],[6.4687579,35.4857063],[6.4690101,35.4857214]]]}},{"type":"Feature","id":9,"properties":{"insula_id":"","name":"Public latrines","building_use":"sanitary - public latrines","description":"","period":"","certainty":"confirmed","plan_source":"Traced from georeferenced satellite imagery","notes":"Fr: Latrines publiques - Multi-seat public latrines adjoining the forum.","area_sqm":529.7},"geometry":{"type":"Polygon","coordinates":[[[6.4690375,35.4854541],[6.469062,35.4852261],[6.4688361,35.4852111],[6.4688071,35.4854402],[6.4690375,35.4854541]]]}},{"type":"Feature","id":10,"properties":{"insula_id":"","name":"Eastern Market","building_use":"market","description":"","period":"","certainty":"confirmed","plan_source":"Traced from georeferenced satellite imagery","notes":"Fr: Marché de l'Est - Market complex on the eastern decumanus.","area_sqm":1073.0},"geometry":{"type":"Polygon","coordinates":[[[6.4699589,35.4851835],[6.4699785,35.4850015],[6.4697481,35.4849885],[6.4697202,35.4849762],[6.4696888,35.4849659],[6.4696589,35.4849611],[6.4696304,35.4849638],[6.4696046,35.4849739],[6.4695913,35.4849846],[6.469588,35.4849875],[6.4695714,35.4849739],[6.4695503,35.4849624],[6.4695192,35.4849558],[6.4694758,35.484957],[6.4694407,35.4849655],[6.4694228,35.4849754],[6.4694207,35.4849801],[6.4693996,35.4851528],[6.4699589,35.4851835]]]}},{"type":"Feature","id":11,"properties":{"insula_id":"","name":"Fountain Liberalis","building_use":"water - public fountain","description":"","period":"","certainty":"confirmed","plan_source":"Traced from georeferenced satellite imagery","notes":"Fr: Fontaine Liberalis - Public street fountain.","area_sqm":30.5},"geometry":{"type":"Polygon","coordinates":[[[6.4647749,35.4857635],[6.4647903,35.4857817],[6.4648127,35.4857828],[6.4648283,35.4857802],[6.4648418,35.4857669],[6.4648433,35.4857513],[6.4648346,35.4857387],[6.464818,35.4857298],[6.4647951,35.4857291],[6.4647765,35.4857386],[6.4647715,35.4857489],[6.4647749,35.4857635]]]}}]}