{"type": "FeatureCollection", "features": [{"type": "Feature", "properties": {"insula_id": "TIMG.E-SW.I2", "step_count": 6}, "geometry": {"type": "Polygon", "coordinates": [[[6.4636295, 35.4861084], [6.4636473, 35.4861195], [6.4636668, 35.4860981], [6.4636491, 35.486088], [6.4636295, 35.4861084]]]}}, {"type": "Feature", "properties": {"insula_id": "TIMG.E-SW.I2", "step_count": 6}, "geometry": {"type": "Polygon", "coordinates": [[[6.463763, 35.4859601], [6.4637774, 35.485969], [6.4637533, 35.4859958], [6.4637371, 35.4859865], [6.463763, 35.4859601]]]}}, {"type": "Feature", "properties": {"insula_id": "TIMG.E-SW.I1", "step_count": 8}, "geometry": {"type": "Polygon", "coordinates": [[[6.4679087, 35.4835519], [6.4679079, 35.4835574], [6.4679091, 35.4835617], [6.4679144, 35.4835637], [6.4679218, 35.4835639], [6.4679274, 35.4835616], [6.467928, 35.4835581], [6.4679282, 35.4835523], [6.4679087, 35.4835519]]]}}]}