{"type":"FeatureCollection","name":"water_channels","features":[{"type":"Feature","id":1,"properties":{"name":"House of the Pool (Maison de la Piscina)","description":"I67-75 (formed by merging two adjacent insulae)","period":"Early Foundation (1st-2nd c.), modifications dated to 3rd c. (Germain 1969: 44) contemporary with Sertius house","plan_source":"BCB fig. 166 (partial--north ruined; south better preserved); Ballu 1903 pp. 168-169; Rebuffat 1969: 676; Germain 1969: 50","notes":"impluvium (piscina?)"},"geometry":{"type":"LineString","coordinates":[[6.4674446,35.4846609],[6.4674688,35.484662],[6.4674695,35.4846782],[6.4674682,35.4846953],[6.4674654,35.4847051],[6.467456,35.48471],[6.46745,35.4847096],[6.4674442,35.484706],[6.4674411,35.4847018],[6.4674411,35.4846947],[6.467443,35.4846842],[6.467444,35.4846695],[6.4674446,35.4846611]]}},{"type":"Feature","id":2,"properties":{"name":"House of the Pool (Maison de la Piscina)","description":"I67-75 (formed by merging two adjacent insulae)","period":"Early Foundation (1st-2nd c.), modifications dated to 3rd c. (Germain 1969: 44) contemporary with Sertius house","plan_source":"BCB fig. 166 (partial--north ruined; south better preserved); Ballu 1903 pp. 168-169; Rebuffat 1969: 676; Germain 1969: 50","notes":"tabernae colonnade"},"geometry":{"type":"LineString","coordinates":[[6.4675325,35.4850214],[6.4674963,35.4850202],[6.4674576,35.4850181],[6.4674202,35.4850155],[6.4673825,35.4850131],[6.4673457,35.4850101],[6.4673075,35.485008]]}},{"type":"Feature","id":3,"properties":{"name":"House of the Pool (Maison de la Piscina)","description":"I67-75 (formed by merging two adjacent insulae)","period":"Early Foundation (1st-2nd c.), modifications dated to 3rd c. (Germain 1969: 44) contemporary with Sertius house","plan_source":"BCB fig. 166 (partial--north ruined; south better preserved); Ballu 1903 pp. 168-169; Rebuffat 1969: 676; Germain 1969: 50","notes":"front colonnade"},"geometry":{"type":"LineString","coordinates":[[6.4675317,35.4850206],[6.4674958,35.4850191],[6.4674582,35.4850171],[6.4674195,35.4850152],[6.4673832,35.4850126],[6.4673453,35.4850109],[6.467307,35.4850086]]}}]}