{"type": "FeatureCollection", "features": [{"type": "Feature", "properties": {"insula_id": "TIMG.E-SW.I2", "feature_type": "cistern", "notes": "underground tank sotring rainwater; Christofle describes it as sticking out into the court from the back wall of the entrance hall (vestibule)"}, "geometry": {"type": "Polygon", "coordinates": [[[6.46385, 35.4861465], [6.4638738, 35.4861232], [6.4638926, 35.4861357], [6.4638694, 35.4861585], [6.46385, 35.4861465]]]}}, {"type": "Feature", "properties": {"feature_type": "well", "notes": "mentioned by Christofle as filled-in, located in NW corner but not clearly identified on any plan"}, "geometry": {"type": "Polygon", "coordinates": [[[6.4636562, 35.4861998], [6.4636698, 35.4861866], [6.4636523, 35.4861755], [6.4636386, 35.4861887], [6.4636562, 35.4861998]]]}}, {"type": "Feature", "properties": {"insula_id": "TIMG.E-SW.I1"}, "geometry": {"type": "Polygon", "coordinates": [[[6.4677444, 35.4833837], [6.4678365, 35.4833858], [6.4678354, 35.4834054], [6.4677438, 35.4834031], [6.4677444, 35.4833837]]]}}]}